[{"type": "node", "id": 269237053, "lat": 53.6157675, "lon": 9.9044912, "tags": {"addr:city": "Hamburg", "addr:country": "DE", "addr:housenumber": "5", "addr:postcode": "22523", "addr:street": "H\u00f6rgensweg", "branch": "Eidelstedt", "brand": "EDEKA", "brand:wikidata": "Q701755", "check_date": "2023-12-12", "contact:fax": "+49 40 571986 75", "contact:phone": "+49 40 571986 0", "currency:EUR": "yes", "fax": "+49 40 571986 75", "internet_access": "wlan", "internet_access:fee": "no", "internet_access:ssid": "Free Wi-Fi E-Struve", "name": "E-Center Struve", "opening_hours": "Mo-Sa 07:00-20:00; Su off", "operator": "Struve GmbH", "organic": "yes", "payment:cash": "yes", "payment:coins": "yes", "payment:contactless": "yes", "payment:credit_cards": "yes", "payment:debit_cards": "yes", "payment:girocard": "yes", "payment:visa": "yes", "payment:visa_debit": "yes", "phone": "+49 40 571986 0", "self_checkout": "yes", "shop": "supermarket", "start_date": "2008", "website": "https://edeka-struve.de/e-center-struve-in-eidelstedt", "wheelchair": "yes"}}, {"type": "node", "id": 312715645, "lat": 53.5917712, "lon": 9.9284756, "tags": {"addr:city": "Hamburg", "addr:housenumber": "415", "addr:postcode": "22525", "addr:street": "Kieler Stra\u00dfe", "brand": "REWE", "brand:wikidata": "Q16968817", "brand:wikipedia": "en:REWE", "level": "0", "name": "Rewe", "opening_hours": "Mo-Sa 7:00-22:00", "payment:cash": "yes", "payment:girocard": "yes", "payment:maestro": "yes", "payment:mastercard": "yes", "payment:viacash": "yes", "payment:visa": "yes", "shop": "supermarket", "stroller": "yes", "wheelchair": "yes"}}, {"type": "node", "id": 469082314, "lat": 53.5898931, "lon": 9.9187705, "tags": {"addr:city": "Hamburg", "addr:housenumber": "79", "addr:postcode": "22525", "addr:street": "Volksparkstra\u00dfe", "brand": "ServiceStore DB", "brand:wikidata": "Q84482517", "check_date:opening_hours": "2021-12-23", "name": "ServiceStore DB", "opening_hours": "Mo-Fr 04:30-24:00, Sa 04:30-01:00, Su 04:30-24:00", "shop": "convenience", "wheelchair": "yes"}}, {"type": "node", "id": 500843076, "lat": 53.5927956, "lon": 9.9093211, "tags": {"amenity": "fuel", "brand": "tankpool24", "compressed_air": "no", "fuel:HGV_diesel": "yes", "fuel:adblue": "yes", "fuel:diesel": "yes", "fuel:octane_95": "no", "name": "tankpool24", "opening_hours": "24/7", "ref": "107801", "wheelchair": "yes"}}, {"type": "node", "id": 639631011, "lat": 53.6035778, "lon": 9.8930812, "tags": {"amenity": "fast_food", "check_date": "2023-11-10", "cuisine": "kebab", "drive_in": "no", "drive_through": "no", "name": "Ess-Bahn D\u00f6ner-Grill", "opening_hours": "Mo-Th 09:00-12:00; Fr,Sa 09:00-01:00, Su 18:00-12:00", "wheelchair": "limited"}}, {"type": "node", "id": 639631013, "lat": 53.6066439, "lon": 9.9019514, "tags": {"addr:city": "Hamburg", "addr:country": "DE", "addr:housenumber": "28", "addr:postcode": "22523", "addr:street": "Elbgaustra\u00dfe", "amenity": "fast_food", "name": "61 K\u00f6fte Haus"}}, {"type": "node", "id": 639631020, "lat": 53.6087909, "lon": 9.9015014, "tags": {"addr:city": "Hamburg", "addr:country": "DE", "addr:housenumber": "13", "addr:postcode": "22523", "addr:street": "Lohkampstra\u00dfe", "brand": "ALDI Nord", "brand:wikidata": "Q41171373", "brand:wikipedia": "en:Aldi", "description": "renovated, reopened (Dec 2017), larger, entrance now on other end of building", "name": "Aldi", "opening_hours": "Mo-Sa 07:00-21:00", "shop": "supermarket", "wheelchair": "yes"}}, {"type": "node", "id": 703474298, "lat": 53.6073873, "lon": 9.9023724, "tags": {"brand": "Penny", "brand:wikidata": "Q284688", "brand:wikipedia": "en:Penny (supermarket)", "check_date": "2024-06-24", "name": "Penny", "opening_hours": "Mo-Sa 07:00-22:00; PH,Su off", "payment:credit_cards": "yes", "payment:girocard": "yes", "payment:mastercard": "yes", "payment:visa": "yes", "shop": "supermarket", "wheelchair": "yes;limited", "wheelchair:description": "zum Teil enge Gassen, besonders im hinteren Bereich (Sonderfl\u00e4chen, Getr\u00e4nkeflaschen etc.)"}}, {"type": "node", "id": 1228036342, "lat": 53.6084918, "lon": 9.9035679, "tags": {"addr:city": "Hamburg", "addr:housenumber": "9", "addr:street": "Eidelstedter Platz", "amenity": "fast_food", "brand": "Quick", "brand:wikidata": "Q286494", "brand:wikipedia": "en:Quick (restaurant)", "check_date": "2024-06-21", "cuisine": "burger", "name": "Quick", "opening_hours": "Mo-Su 10:00-22:00", "takeaway": "yes", "wheelchair": "yes"}}, {"type": "node", "id": 1374898148, "lat": 53.6086426, "lon": 9.9023701, "tags": {"check_date": "2024-06-22", "name": "Erden", "opening_hours": "Mo-Fr 07:00-19:30; Sa 07:00-18:30; PH off", "phone": "+49-40-27869512", "shop": "supermarket", "website": "https://www.erdenmarket.de/", "wheelchair": "limited"}}, {"type": "node", "id": 1617465733, "lat": 53.6024751, "lon": 9.9119144, "tags": {"amenity": "fast_food", "cuisine": "asia", "name": "Asia Hub", "opening_hours": "Mo-Fr 11:00-22:00; Sa,Su,PH 13:00-22:00"}}, {"type": "node", "id": 1618694832, "lat": 53.6083252, "lon": 9.9055373, "tags": {"addr:city": "Hamburg", "addr:country": "DE", "addr:housenumber": "24", "addr:postcode": "22523", "addr:street": "Eidelstedter Platz", "amenity": "fast_food", "brand": "Domino's", "brand:wikidata": "Q839466", "brand:wikipedia": "en:Domino's Pizza", "check_date": "2024-10-25", "contact:email": "info@dominos.de", "contact:phone": "+49 40 5711005", "contact:website": "https://www.dominos.de/kaufhaus/de-hamburgeidelstedt-33747", "cuisine": "pizza", "delivery": "yes", "diet:vegan": "yes", "diet:vegetarian": "yes", "drive_through": "no", "name": "Domino's", "opening_hours": "Mo-Su 11:00-23:00", "payment:cash": "yes", "payment:girocard": "yes", "payment:mastercard": "yes", "payment:visa": "yes", "short_name": "Domino's", "takeaway": "yes", "wheelchair": "limited"}}, {"type": "node", "id": 1618694833, "lat": 53.6064786, "lon": 9.9011892, "tags": {"addr:country": "DE", "addr:housenumber": "34b", "addr:postcode": "22523", "addr:street": "Elbgaustra\u00dfe", "amenity": "fast_food", "check_date": "2025-05-11", "cuisine": "burger", "name": "Mr. Zapata", "wheelchair": "limited"}}, {"type": "node", "id": 1618694835, "lat": 53.6122014, "lon": 9.8985156, "tags": {"addr:city": "Hamburg", "addr:postcode": "22523", "addr:street": "Pinneberger Chaussee", "amenity": "fast_food", "check_date:opening_hours": "2024-05-18", "cuisine": "greek", "delivery": "yes", "name": "Metaxa", "opening_hours": "Tu-Su 12:00-22:00; Mo off", "smoking": "outside", "takeaway": "yes", "wheelchair": "limited"}}, {"type": "node", "id": 1618694984, "lat": 53.6148621, "lon": 9.8937536, "tags": {"addr:city": "Hamburg", "addr:country": "DE", "addr:housenumber": "74", "addr:postcode": "22523", "addr:street": "Pinneberger Chaussee", "amenity": "fuel", "brand": "star", "brand:wikidata": "Q109930371", "brand:wikipedia": "de:Orlen Deutschland", "check_date": "2024-08-04", "compressed_air": "yes", "contact:fax": "+49 40 5712652", "contact:phone": "+49 40 579360", "fuel:lpg": "yes", "name": "Star", "opening_hours": "Mo-Fr 06:00-22:00; Sa 07:00-22:00; Su 08:00-22:00", "payment:dkv": "yes", "tenant": "Daniel Wagner", "website": "https://www.star.de/service/tankstellenfinder/l/hamburg/pinneberger-chaussee-74/1827436#!/l/hamburg/pinneberger-chaussee-74/1827436"}}, {"type": "node", "id": 3371656122, "lat": 53.6076724, "lon": 9.9046544, "tags": {"addr:city": "Hamburg", "addr:housenumber": "1", "addr:postcode": "22523", "addr:street": "Eidelstedter Platz", "amenity": "fast_food", "check_date": "2025-01-14", "check_date:opening_hours": "2025-01-14", "cuisine": "burger", "drive_through": "no", "level": "0", "name": "Smash Burger by Flame", "opening_hours": "Mo-Sa 10:00-22:00"}}, {"type": "node", "id": 3636888917, "lat": 53.5902042, "lon": 9.9182797, "tags": {"amenity": "fast_food", "contact:facebook": "https://de-de.facebook.com/pages/Shuttle-Imbiss-Stellingen", "contact:phone": "+49 1577 146 76 83", "delivery": "no", "name": "Shuttle-Imbiss", "outdoor_seating": "yes", "takeaway": "yes"}}, {"type": "node", "id": 3969026999, "lat": 53.6000871, "lon": 9.9169028, "tags": {"addr:city": "Hamburg", "addr:country": "DE", "addr:housenumber": "566", "addr:postcode": "22525", "addr:street": "Kieler Stra\u00dfe", "amenity": "fast_food", "contact:phone": "+49 40 851 55 54", "contact:website": "https://www.burgerlegends.de", "cuisine": "burger", "delivery": "yes", "diet:vegan": "no", "diet:vegetarian": "yes", "indoor_seating": "yes", "name": "Burger Legends", "outdoor_seating": "yes", "takeaway": "yes"}}, {"type": "node", "id": 4318841078, "lat": 53.6076029, "lon": 9.9023332, "tags": {"amenity": "fast_food", "check_date": "2024-06-29", "cuisine": "portuguese", "level": "0", "name": "Cafesito", "opening_hours": "Mo-Sa 09:00-18:00; Su off", "operator": "Victor de S\u00e1 & Sousa Manuel", "phone": "+49-40-20226583", "website": "http://www.mycafesito.de/"}}, {"type": "node", "id": 4318841264, "lat": 53.6076614, "lon": 9.9024497, "tags": {"amenity": "fast_food", "check_date": "2022-06-14", "name": "R\u00fcya Grill", "opening_hours": "\"wegen Umbau geschlossen\"", "payment:cards": "no", "payment:credit_cards": "no", "payment:debit_cards": "no", "wheelchair": "yes"}}, {"type": "node", "id": 6236925123, "lat": 53.5890294, "lon": 9.904018, "tags": {"addr:city": "Hamburg", "addr:housenumber": "119", "addr:postcode": "22525", "addr:street": "Schnackenburgallee", "amenity": "fast_food", "check_date:opening_hours": "2024-06-25", "drive_through": "no", "email": "pommeskoenig@alice-dsl.net", "indoor_seating": "yes", "name": "Grill-Pavillon", "opening_hours": "Mo-Fr 05:30-14:00", "opening_hours:signed": "no", "outdoor_seating": "yes", "phone": "+49 40 547 678 26", "takeaway": "yes", "website": "https://pommeskoenig.jimdo.com/", "wheelchair": "yes"}}, {"type": "node", "id": 6577264701, "lat": 53.607169, "lon": 9.9052477, "tags": {"addr:city": "Hamburg", "addr:country": "DE", "addr:housenumber": "1", "addr:postcode": "22523", "addr:street": "Alte Elbgaustra\u00dfe", "brand": "REWE", "brand:wikidata": "Q16968817", "brand:wikipedia": "de:Rewe", "check_date": "2024-10-25", "contact:phone": "+49 40 696382630", "contact:website": "https://www.rewe.de/marktseite/hamburg-freie-und-hansestadt/531429/rewe-markt-alte-elbgaustr-1/", "level": "-1", "name": "REWE", "opening_hours": "Mo-Sa 08:00-21:00; PH,Su off", "organic": "yes", "payment:cards": "yes", "payment:cash": "yes", "payment:girocard": "yes", "payment:mastercard": "yes", "payment:payback": "yes", "payment:qr_code": "no", "payment:visa": "yes", "shop": "supermarket", "toilets:wheelchair": "yes", "wheelchair": "yes"}}, {"type": "node", "id": 6577264718, "lat": 53.6071817, "lon": 9.9055776, "tags": {"addr:city": "Hamburg", "addr:country": "DE", "addr:housenumber": "1", "addr:postcode": "22523", "addr:street": "Alte Elbgaustra\u00dfe", "brand": "Netto City", "brand:wikidata": "Q879858", "check_date": "2024-10-25", "contact:phone": "+49 40 57001740", "contact:website": "https://www.netto-online.de/filialen/Hamburg/Alte-Elbgaustrasse-1/2217/", "level": "0", "name": "Netto City", "note": "ex. Alnatura Laden", "opening_hours": "Mo-Sa 07:00-20:00; Su off", "payment:cards": "yes", "payment:cash": "yes", "shop": "supermarket", "wheelchair": "yes"}}, {"type": "node", "id": 6577371638, "lat": 53.6076194, "lon": 9.9045745, "tags": {"addr:city": "Hamburg", "addr:housenumber": "1", "addr:postcode": "22523", "addr:street": "Eidelstedter Platz", "amenity": "fast_food", "check_date": "2025-01-14", "check_date:opening_hours": "2025-01-14", "contact:instagram": "https://www.instagram.com/doener_flame/", "cuisine": "kebab", "drive_through": "no", "name": "D\u00f6ner by Flame", "opening_hours": "Mo-Sa 10:00-23:00"}}, {"type": "node", "id": 6747109112, "lat": 53.5889329, "lon": 9.9307029, "tags": {"check_date": "2023-08-07", "name": "HEM shop", "opening_hours": "24/7", "operator": "HEM", "phone": "+49 40 52014806", "shop": "convenience", "wheelchair": "limited"}}, {"type": "node", "id": 6855146285, "lat": 53.5960452, "lon": 9.9134161, "tags": {"amenity": "fast_food", "name": "Grill Imbiss", "opening_hours": "Mo-Fr 08:00-14:00"}}, {"type": "node", "id": 7530123655, "lat": 53.6033415, "lon": 9.8935383, "tags": {"check_date": "2024-08-10", "name": "Bulls Food Store", "opening_hours": "Mo-Fr 04:00-17:00; Sa,Su 06:00-13:00", "shop": "supermarket"}}, {"type": "node", "id": 7745467158, "lat": 53.6030678, "lon": 9.9108582, "tags": {"amenity": "fast_food", "check_date": "2023-03-18", "contact:email": "aqeidelstedt@gmail.com", "contact:fax": "+49 40 57 25 91 96", "contact:phone": "+49 40 59 35 44 69", "contact:website": "http://asiaquick.lieferprofi.de/eidelstedt", "cuisine": "asian;chinese;noodles;sushi;indian;curry", "delivery": "yes", "diet:vegetarian": "yes", "name": "Asia Quick", "opening_hours": "Mo,We-Fr 11:00-21:00; Tu off; Sa 12:00-21:30; Su,PH 12:00-22:00", "operator": "Asia Eidelstedt GmbH"}}, {"type": "node", "id": 8285098570, "lat": 53.59969, "lon": 9.9154852, "tags": {"addr:city": "Hamburg", "addr:country": "DE", "addr:floor": "0", "addr:housenumber": "577d", "addr:postcode": "22525", "addr:street": "Kieler Stra\u00dfe", "brand": "Denns BioMarkt", "brand:wikidata": "Q48883773", "brand:wikipedia": "de:Denn\u2019s Biomarkt", "check_date": "2025-01-04", "check_date:opening_hours": "2025-01-04", "contact:phone": "+49 40 54709858", "contact:website": "https://www.biomarkt.de/hamburg-kieler-str-561-573/marktseite", "name": "Denns BioMarkt", "opening_hours": "Mo-Sa 08:00-20:00; PH off", "operator": "Dennree GmbH", "operator:wikidata": "Q1189641", "organic": "only", "payment:contactless": "yes", "payment:credit_cards": "yes", "payment:visa": "yes", "shop": "supermarket"}}, {"type": "node", "id": 8564430295, "lat": 53.6028994, "lon": 9.9111176, "tags": {"amenity": "fast_food", "check_date": "2023-03-18", "check_date:opening_hours": "2024-06-08", "contact:email": "info@yoko.de", "contact:phone": "+49 40 27 889 488", "contact:website": "https://www.yoko.de", "cuisine": "sushi;asian;japanese", "delivery": "yes", "diet:vegan": "yes", "diet:vegetarian": "yes", "drive_through": "no", "name": "Yoko Sushi", "opening_hours": "Mo-Fr 11:00-22:00; Sa,Su 12:00-22:00"}}, {"type": "node", "id": 8564430296, "lat": 53.6030106, "lon": 9.9109462, "tags": {"alt_name": "Cigk\u00f6fte", "amenity": "fast_food", "check_date": "2023-03-18", "check_date:opening_hours": "2024-06-08", "contact:phone": "+49 152 54 18 39 46", "diet:vegan": "yes", "diet:vegetarian": "yes", "name": "\u00c7i\u011fk\u00f6fte", "opening_hours": "Fr-Sa 17:00-21:00; Su 15:00-19:00; Mo-Th off", "wheelchair": "limited"}}, {"type": "node", "id": 8997232044, "lat": 53.6161409, "lon": 9.9052297, "tags": {"addr:city": "Hamburg", "addr:postcode": "22523", "addr:street": "H\u00f6rgensweg", "amenity": "fast_food", "check_date:opening_hours": "2024-05-30", "cuisine": "kebab", "indoor_seating": "no", "name": "D\u00f6ner 58", "opening_hours": "Mo-Sa 11:00-20:00", "outdoor_seating": "no", "start_date": "2020", "takeaway": "only"}}, {"type": "node", "id": 9143881855, "lat": 53.6088024, "lon": 9.9017292, "tags": {"addr:city": "Hamburg", "addr:housenumber": "11", "addr:postcode": "22523", "addr:street": "Lohkampstra\u00dfe", "check_date": "2024-06-22", "name": "Punjab Shop", "opening_hours": "Mo-Sa 09:30-19:30", "payment:cash": "yes", "payment:debit_cards": "yes", "phone": "+494057204942", "shop": "supermarket"}}, {"type": "node", "id": 9171671718, "lat": 53.6084574, "lon": 9.9028612, "tags": {"addr:city": "Hamburg", "addr:country": "DE", "addr:housenumber": "3", "addr:postcode": "22523", "addr:street": "Ekenknick", "name": "Halk Pazari", "opening_hours:signed": "no", "shop": "supermarket", "website": "https://halk-pazari.edan.io/"}}, {"type": "node", "id": 9171671719, "lat": 53.6085635, "lon": 9.9026239, "tags": {"addr:city": "Hamburg", "addr:country": "DE", "addr:housenumber": "11", "addr:postcode": "22523", "addr:street": "Lohkampstra\u00dfe", "amenity": "fast_food", "check_date": "2024-06-22", "cuisine": "kebab", "drive_through": "no", "name": "Kings D\u00f6ner", "opening_hours": "Mo-Sa 10:00-22:30; Su 10:00-22:00", "outdoor_seating": "yes", "payment:credit_cards": "yes", "payment:girocard": "yes", "payment:mastercard": "yes", "payment:visa": "yes", "reservation": "no", "smoking": "outside", "takeaway": "yes", "wheelchair": "yes"}}, {"type": "node", "id": 9229553959, "lat": 53.6065509, "lon": 9.9015434, "tags": {"check_date": "2025-05-11", "description": "Arabische Spezialit\u00e4ten", "name": "Nabulsi Markt", "shop": "convenience"}}, {"type": "node", "id": 9254550192, "lat": 53.5931316, "lon": 9.9279385, "tags": {"amenity": "fast_food", "contact:email": "info@soulsushi.de", "contact:phone": "+49 40 429 346 880", "contact:website": "https://soulsushi.de/", "cuisine": "sushi", "delivery": "yes", "diet:pescetarian": "yes", "diet:vegan": "yes", "diet:vegetarian": "yes", "name": "Soul Sushi", "opening_hours": "Mo-Th 11:00-21:30; Fr 11:00-22:00; Sa,Su,PH 12:00-22:00", "payment:cash": "yes", "payment:edenred_card": "yes", "payment:edenred_voucher": "yes", "payment:girocard": "yes", "payment:maestro": "yes", "payment:mastercard": "yes", "payment:sodexo": "yes", "payment:visa": "yes", "takeaway": "yes", "wheelchair": "yes"}}, {"type": "node", "id": 10765936559, "lat": 53.5916719, "lon": 9.9214775, "tags": {"addr:city": "Hamburg", "addr:housenumber": "44-46", "addr:postcode": "22525", "addr:street": "Volksparkstra\u00dfe", "amenity": "fuel", "brand": "Shell", "brand:wikidata": "Q110716465", "compressed_air": "yes", "fuel:diesel": "yes", "fuel:e10": "yes", "fuel:lpg": "no", "mapillary": "969616430455238", "survey:date": "2021-04-09"}}, {"type": "node", "id": 11034562925, "lat": 53.6130974, "lon": 9.8980932, "tags": {"addr:housenumber": "1c", "addr:street": "Baumacker", "amenity": "fast_food", "brand": "Smiley's", "brand:wikidata": "Q60998945", "check_date": "2023-07-08", "cuisine": "pizza", "delivery": "yes", "drive_through": "no", "name": "Smiley's", "opening_hours": "11:00-23:00", "outdoor_seating": "no", "takeaway": "yes", "website": "https://www.smileys.de/bestellen/Hamburg-Eidelstedt-Mitte"}}, {"type": "node", "id": 12022357482, "lat": 53.5902057, "lon": 9.9183696, "tags": {"amenity": "fast_food", "name": "Crepes", "takeaway": "only"}}, {"type": "node", "id": 12033949143, "lat": 53.6066141, "lon": 9.9018006, "tags": {"addr:city": "Hamburg", "addr:housenumber": "32", "addr:postcode": "22523", "addr:street": "Elbgaustra\u00dfe", "amenity": "fast_food", "drive_through": "no", "name": "Gurbet Baklavalari"}}, {"type": "node", "id": 12919210013, "lat": 53.6080156, "lon": 9.9044493, "tags": {"amenity": "fast_food", "name": "Eidels Kebap"}}, {"type": "way", "id": 33165685, "center": {"lat": 53.6000487, "lon": 9.9141366}, "nodes": [375414398, 3441284018, 3441284019, 3441284021, 3441284020, 375414400, 375414401, 1283190375, 1283190420, 1283190398, 1283190384, 375414402, 375414398], "tags": {"addr:city": "Hamburg", "addr:housenumber": "595a", "addr:postcode": "22525", "addr:street": "Kieler Stra\u00dfe", "brand": "Lidl", "brand:wikidata": "Q151954", "brand:wikipedia": "en:Lidl", "building": "retail", "check_date": "2024-06-26", "name": "Lidl", "opening_hours": "Mo-Sa 07:00-21:00", "roof:shape": "gabled", "shop": "supermarket", "wheelchair": "yes"}}, {"type": "way", "id": 119141612, "center": {"lat": 53.5997143, "lon": 9.9178749}, "nodes": [10656075451, 1339476706, 1339476698, 1339476613, 1339476576, 1339476580, 10656075452, 1339476694, 10656075451], "tags": {"amenity": "fuel", "brand": "Aral", "brand:wikidata": "Q565734", "brand:wikipedia": "en:Aral AG", "check_date": "2025-06-26", "compressed_air": "yes", "contact:fax": "+49 40 5406436", "contact:phone": "+49 40 545652", "contact:website": "https://tankstelle.aral.de/hamburg/kieler-strasse-560/28133100", "fuel:GTL_diesel": "yes", "fuel:diesel": "yes", "fuel:e10": "yes", "fuel:octane_102": "yes", "fuel:octane_95": "yes", "landuse": "retail", "name": "Aral", "opening_hours": "Mo-Fr 05:30-22:00; Sa 06:00-22:00; Su 08:00-22:00", "self_service": "yes", "tenant": "Maike Jovanov"}}, {"type": "way", "id": 119778566, "center": {"lat": 53.6143295, "lon": 9.905818}, "nodes": [1347609266, 1344849065, 1344849013, 8914691196, 1344848769, 1347609266], "tags": {"addr:city": "Hamburg", "addr:country": "DE", "addr:housenumber": "55", "addr:postcode": "22523", "addr:street": "Holsteiner Chaussee", "amenity": "fuel", "brand": "Aral", "brand:wikidata": "Q565734", "brand:wikipedia": "en:Aral AG", "building": "retail", "building:levels": "1", "compressed_air": "yes", "contact:fax": "+49 40 5708813", "contact:phone": "+49 40 5706132", "contact:website": "https://tankstelle.aral.de/hamburg/holsteiner-chaussee-55/13067400", "fuel:diesel": "yes", "fuel:e10": "yes", "fuel:octane_95": "yes", "name": "Aral", "opening_hours": "24/7", "operator": "Thorsten Jacobs", "payment:american_express": "yes", "payment:cash": "yes", "payment:coins": "yes", "payment:contactless": "yes", "payment:credit_cards": "yes", "payment:debit_cards": "yes", "payment:diners_club": "yes", "payment:dkv": "yes", "payment:girocard": "yes", "payment:maestro": "yes", "payment:mastercard": "yes", "payment:uta": "yes", "payment:v_pay": "yes", "payment:visa": "yes", "payment:visa_debit": "yes", "payment:westfalen_card": "yes", "roof:levels": "0", "roof:shape": "flat", "wheelchair": "limited"}}, {"type": "way", "id": 301644048, "center": {"lat": 53.5929881, "lon": 9.9231872}, "nodes": [3057247455, 3057247436, 3057247433, 3057247449, 8403246110, 3057247455], "tags": {"addr:city": "Hamburg", "addr:housenumber": "34", "addr:postcode": "22525", "addr:street": "Volksparkstra\u00dfe", "brand": "Netto Marken-Discount", "brand:wikidata": "Q879858", "brand:wikipedia": "de:Netto Marken-Discount", "building": "retail", "name": "Netto Marken-Discount", "opening_hours": "Mo-Sa 07:00-22:00", "roof:shape": "flat", "shop": "supermarket", "website": "https://www.netto-online.de/filialen/Hamburg/Volksparkstr-34/2503/", "wheelchair": "yes"}}, {"type": "way", "id": 485204866, "center": {"lat": 53.6139657, "lon": 9.9044598}, "nodes": [4779778359, 4779778358, 4779778357, 4779778356, 4779778355, 4779778354, 4779778353, 4779778359], "tags": {"air_conditioning": "no", "amenity": "fast_food", "check_date": "2023-09-09", "drive_through": "no", "indoor_seating": "yes", "internet_access": "no", "name": "Imbiss", "opening_hours": "Mo-Sa 10:00-18:00; Su off", "outdoor_seating": "yes", "payment:girocard": "yes", "wheelchair": "yes"}}, {"type": "way", "id": 867269871, "center": {"lat": 53.5994565, "lon": 9.9148947}, "nodes": [8084280487, 8077497523, 8084280486, 8567422532, 8498052559, 6036870286, 6036870285, 8084280487], "tags": {"addr:city": "Hamburg", "addr:country": "DE", "addr:housenumber": "561-573", "addr:postcode": "22525", "addr:street": "Kieler Stra\u00dfe", "brand": "ALDI Nord", "brand:wikidata": "Q41171373", "brand:wikipedia": "en:Aldi", "building": "supermarket", "name": "ALDI Nord", "opening_hours": "Mo-Sa 07:00-21:00; PH off", "payment:cash": "yes", "payment:coins": "yes", "payment:contactless": "yes", "payment:credit_cards": "yes", "payment:debit_cards": "yes", "payment:girocard": "yes", "payment:maestro": "yes", "payment:mastercard": "yes", "payment:v_pay": "yes", "payment:visa": "yes", "payment:visa_debit": "yes", "shop": "supermarket", "website": "https://www.aldi-nord.de/tools/filialen-und-oeffnungszeiten/hamburg/stellingen/kieler-strasse-561-573.html"}}, {"type": "way", "id": 867269873, "center": {"lat": 53.5987795, "lon": 9.9135555}, "nodes": [8498052539, 8084280493, 8084280492, 9472916749, 9472916748, 9472916747, 9472916750, 8498052538, 5168732923, 8567393911, 10771465320, 8498052539], "tags": {"addr:city": "Hamburg", "addr:country": "DE", "addr:housenumber": "579", "addr:postcode": "22525", "addr:street": "Kieler Stra\u00dfe", "brand": "REWE", "brand:wikidata": "Q16968817", "brand:wikipedia": "de:Rewe", "building": "supermarket", "check_date": "2023-11-16", "contact:phone": "+49 40 743260100", "contact:website": "https://www.rewe.de/marktseite/hamburg-stellingen/531458/rewe-markt-kieler-str-579/", "name": "REWE", "opening_hours": "Mo-Sa 07:00-22:00; PH off", "operator": "REWE Markt GmbH", "shop": "supermarket", "wheelchair": "yes"}}]