[{"type": "node", "id": 156774142, "lat": 53.5540037, "lon": 10.0866624, "tags": {"addr:city": "Hamburg", "addr:country": "DE", "addr:housenumber": "34a", "addr:postcode": "22111", "addr:street": "Rennbahnstra\u00dfe", "brand": "Rewe", "brand:wikidata": "Q16968817", "brand:wikipedia": "en:REWE", "check_date:opening_hours": "2024-10-29", "contact:phone": "+49 40 65900131", "contact:website": "https://www.rewe.de/marktseite.html?wwident=540627", "internet_access": "wlan", "internet_access:fee": "no", "level": "0", "name": "REWE", "opening_hours": "Mo-Sa 07:00-23:00; PH off", "shop": "supermarket", "wheelchair": "yes"}}, {"type": "node", "id": 269184906, "lat": 53.5511122, "lon": 10.0800273, "tags": {"addr:city": "Hamburg", "addr:country": "DE", "addr:housenumber": "20", "addr:postcode": "22111", "addr:street": "Bauerberg", "brand": "PENNY", "brand:wikidata": "Q284688", "brand:wikipedia": "en:Penny (supermarket)", "check_date:opening_hours": "2024-06-19", "name": "PENNY", "name:fa": "\u067e\u0646\u06cc", "opening_hours": "Mo-Sa 07:00-22:00; PH off", "shop": "supermarket", "wheelchair": "yes"}}, {"type": "node", "id": 282661693, "lat": 53.5537587, "lon": 10.0647372, "tags": {"addr:city": "Hamburg", "addr:country": "DE", "addr:housenumber": "220", "addr:postcode": "20537", "addr:street": "Hammer Landstra\u00dfe", "brand": "Penny", "brand:wikidata": "Q284688", "brand:wikipedia": "en:Penny (supermarket)", "check_date": "2025-05-01", "name": "PENNY", "name:fa": "\u067e\u0646\u06cc", "opening_hours": "Mo-Sa 08:00-22:00; PH off", "shop": "supermarket", "wheelchair": "yes"}}, {"type": "node", "id": 343207058, "lat": 53.5540684, "lon": 10.0630627, "tags": {"addr:city": "Hamburg", "addr:country": "DE", "addr:housenumber": "204", "addr:postcode": "20537", "addr:street": "Hammer Landstra\u00dfe", "amenity": "fuel", "brand": "TotalEnergies", "brand:wikidata": "Q154037", "brand:wikipedia": "fr:Total (entreprise)", "check_date": "2025-05-01", "compressed_air": "yes", "contact:fax": "+49 40 212063", "contact:phone": "+49 40 211533", "contact:website": "https://store.totalenergies.de/de_DE/ND036996", "fuel:1_25": "no", "fuel:1_50": "no", "fuel:GTL_diesel": "no", "fuel:HGV_diesel": "no", "fuel:biodiesel": "no", "fuel:biogas": "no", "fuel:cng": "no", "fuel:diesel": "yes", "fuel:e10": "yes", "fuel:e85": "no", "fuel:electricity": "no", "fuel:lpg": "no", "fuel:octane_100": "no", "fuel:octane_91": "no", "fuel:octane_95": "yes", "fuel:octane_98": "yes", "opening_hours": "24/7", "wheelchair": "yes"}}, {"type": "node", "id": 610844360, "lat": 53.5536852, "lon": 10.0628171, "tags": {"addr:city": "Hamburg", "addr:country": "DE", "addr:housenumber": "25", "addr:postcode": "20537", "addr:street": "Droopweg", "brand": "Penny", "brand:wikidata": "Q284688", "brand:wikipedia": "en:Penny (supermarket)", "name": "Penny", "name:fa": "\u067e\u0646\u06cc", "opening_hours": "Mo-Sa 7:00-22:00; PH off", "shop": "supermarket", "wheelchair": "yes"}}, {"type": "node", "id": 928371750, "lat": 53.5497577, "lon": 10.0663779, "tags": {"addr:city": "Hamburg", "addr:country": "DE", "addr:housenumber": "664b", "addr:postcode": "20537", "addr:street": "Eiffestra\u00dfe", "brand": "REWE", "brand:wikidata": "Q16968817", "brand:wikipedia": "en:REWE", "check_date:opening_hours": "2023-09-24", "name": "REWE", "opening_hours": "Mo-Sa 07:00-22:00", "phone": "+49 40 28801461", "shop": "supermarket", "wheelchair": "yes"}}, {"type": "node", "id": 1280186495, "lat": 53.5556486, "lon": 10.0632068, "tags": {"addr:city": "Hamburg", "addr:country": "DE", "addr:housenumber": "66", "addr:postcode": "20535", "addr:street": "Horner Weg", "amenity": "fast_food", "check_date:opening_hours": "2024-07-06", "cuisine": "pizza", "diet:vegetarian": "yes", "name": "Hamm'er Pizza", "opening_hours": "Mo-Su,PH 12:00-22:00", "phone": "+49 40 21986904;+49 40 21986905", "website": "https://www.hamm-erpizza.de/", "wheelchair": "no"}}, {"type": "node", "id": 1642126676, "lat": 53.5537693, "lon": 10.0654977, "tags": {"addr:city": "Hamburg", "addr:country": "DE", "addr:housenumber": "234", "addr:postcode": "20537", "addr:street": "Hammer Landstra\u00dfe", "amenity": "fast_food", "check_date": "2025-01-03", "check_date:opening_hours": "2025-01-03", "contact:phone": "+49 40 213711", "cuisine": "greek", "diet:vegetarian": "no", "name": "Akropolis", "opening_hours": "Mo-Fr 11:00-23:00; Sa,Su,PH 12:00-23:00", "wheelchair": "limited"}}, {"type": "node", "id": 2378389056, "lat": 53.5517761, "lon": 10.0868171, "tags": {"addr:city": "Hamburg", "addr:country": "DE", "addr:housenumber": "14a", "addr:postcode": "22111", "addr:street": "Washingtonallee", "amenity": "fast_food", "contact:phone": "+49 40 65999825", "cuisine": "asian", "drive_through": "no", "name": "Mr. Wok", "opening_hours": "Mo-Fr 11:30-22:00; Su,PH 11:30-22:00", "website": "https://www.mrwok-food.de/"}}, {"type": "node", "id": 2492741756, "lat": 53.5509297, "lon": 10.0880147, "tags": {"addr:city": "Hamburg", "addr:country": "DE", "addr:housenumber": "30", "addr:postcode": "22111", "addr:street": "Washingtonallee", "amenity": "fast_food", "check_date": "2024-04-09", "contact:phone": "+49 40 67109224", "contact:website": "https://pizza-e-vino.de", "cuisine": "italian_pizza", "diet:vegan": "no", "diet:vegetarian": "yes", "name": "\"Pizza e Vino\"", "opening_hours": "Mo-Fr 15:00-23:00; Sa 14:30-23:00; PH,Su 12:30-23:00", "smoking": "outside", "takeaway": "yes", "wheelchair": "yes"}}, {"type": "node", "id": 2494518518, "lat": 53.554524, "lon": 10.0849254, "tags": {"amenity": "fast_food", "check_date:opening_hours": "2023-11-17", "cuisine": "kebab", "diet:vegetarian": "yes", "indoor_seating": "yes", "name": "Bereket D\u00f6ner", "opening_hours:signed": "no", "outdoor_seating": "yes"}}, {"type": "node", "id": 3717549368, "lat": 53.5497876, "lon": 10.0802955, "tags": {"addr:city": "Hamburg", "addr:country": "DE", "addr:housenumber": "193a", "addr:postcode": "22111", "addr:street": "Horner Landstra\u00dfe", "amenity": "fast_food", "brand": "burgerme", "brand:wikidata": "Q108866856", "check_date:opening_hours": "2021-10-11", "contact:website": "http://www.burgerme.de/hamburg-horn/", "cuisine": "burger", "delivery": "yes", "diet:vegan": "yes", "diet:vegetarian": "yes", "name": "burgerme", "opening_hours": "Mo-Fr 11:00-22:30; PH,Sa,Su 12:00-22:30", "takeaway": "yes", "website": "https://www.burgerme.de/standorte/hamburg/horn/", "wheelchair": "yes"}}, {"type": "node", "id": 3830449681, "lat": 53.5540567, "lon": 10.08485, "tags": {"brand": "U-Store", "brand:wikidata": "Q113290511", "check_date:opening_hours": "2025-02-14", "name": "U-Store", "opening_hours": "Mo-Fr 04:15-22:00; Sa 06:00-22:00; Su 08:00-22:00", "opening_hours:signed": "no", "shop": "convenience", "wheelchair": "yes"}}, {"type": "node", "id": 3928670186, "lat": 53.55376, "lon": 10.0653189, "tags": {"addr:city": "Hamburg", "addr:country": "DE", "addr:housenumber": "232", "addr:postcode": "20537", "addr:street": "Hammer Landstra\u00dfe", "amenity": "fast_food", "check_date": "2025-05-01", "cuisine": "kebab", "diet:vegan": "no", "diet:vegetarian": "yes", "name": "Harput D\u00f6ner", "opening_hours": "Mo-Su,PH 07:00-23:00", "wheelchair": "no"}}, {"type": "node", "id": 3978869611, "lat": 53.5538993, "lon": 10.0851709, "tags": {"addr:city": "Hamburg", "addr:country": "DE", "addr:housenumber": "38c", "addr:postcode": "22111", "addr:street": "Rennbahnstra\u00dfe", "amenity": "fast_food", "check_date:opening_hours": "2024-10-30", "cuisine": "kebab", "name": "Volkan\u00b4s Grillhaus", "opening_hours:signed": "no", "payment:credit_cards": "no", "payment:debit_cards": "yes", "phone": "+49 40 65990532", "wheelchair": "yes"}}, {"type": "node", "id": 4717146468, "lat": 53.5497541, "lon": 10.0803304, "tags": {"addr:city": "Hamburg", "addr:country": "DE", "addr:housenumber": "195", "addr:postcode": "22111", "addr:street": "Horner Landstra\u00dfe", "amenity": "fast_food", "check_date": "2021-05-20", "contact:phone": "+49 40 65064970", "contact:website": "https://www.bombaybistro.de", "cuisine": "indian", "diet:vegetarian": "yes", "name": "Bombay Bistro", "opening_hours": "Mo-Fr 11:00-22:30; PH,Sa,Su 12:00-22:30"}}, {"type": "node", "id": 5186803222, "lat": 53.5540896, "lon": 10.0860667, "tags": {"amenity": "fast_food", "check_date:opening_hours": "2023-11-07", "cuisine": "kebab", "indoor_seating": "yes", "level": "0", "name": "Antep Lahmacun D\u00f6ner & mehr", "opening_hours:signed": "no", "outdoor_seating": "no", "takeaway": "yes", "wheelchair": "yes"}}, {"type": "node", "id": 5726047966, "lat": 53.5493966, "lon": 10.0802886, "tags": {"addr:city": "Hamburg", "addr:country": "DE", "addr:housenumber": "204", "addr:postcode": "22111", "addr:street": "Horner Landstra\u00dfe", "amenity": "fast_food", "check_date": "2024-06-23", "contact:phone": "+49 40 6502999", "contact:website": "https://chinaservice-wu.de/", "drive_through": "no", "name": "China Imbiss Wu", "opening_hours": "Mo-Fr 11:00-22:30; Sa 12:30-22:30; PH,Su 12:00-22:30"}}, {"type": "node", "id": 9221058618, "lat": 53.5502046, "lon": 10.0779971, "tags": {"amenity": "fast_food", "cuisine": "kebab", "diet:vegetarian": "yes", "name": "Ada D\u00f6ner", "opening_hours": "Mo-Sa 11:00-22:00; Su 12:00-22:00", "website": "https://www.adadoener.de/", "wheelchair": "no"}}, {"type": "way", "id": 30179666, "center": {"lat": 53.5510682, "lon": 10.0748038}, "nodes": [332546483, 332546484, 3175082080, 1881731905, 1881731899, 332546485, 2628325820, 2628325806, 332546487, 1881731920, 332546483], "tags": {"addr:city": "Hamburg", "addr:country": "DE", "addr:housenumber": "110", "addr:postcode": "22111", "addr:street": "Horner Landstra\u00dfe", "brand": "ALDI Nord", "brand:wikidata": "Q41171373", "brand:wikipedia": "en:Aldi", "building": "retail", "building:levels": "1", "contact:website": "https://www.aldi-nord.de/tools/filialen-und-oeffnungszeiten/hamburg/horn/horner-landstrasse-110.html", "name": "ALDI Nord", "opening_hours": "Mo-Sa 07:00-21:00; PH off", "shop": "supermarket", "wheelchair": "yes"}}, {"type": "way", "id": 30571392, "center": {"lat": 53.5613357, "lon": 10.079136}, "nodes": [337829379, 1886733734, 1886733733, 337829388, 337829392, 337829400, 3930018100, 337829403, 337829397, 337829379], "tags": {"addr:city": "Hamburg", "addr:country": "DE", "addr:housenumber": "115", "addr:postcode": "22111", "addr:street": "Rennbahnstra\u00dfe", "brand": "Lidl", "brand:wikidata": "Q151954", "brand:wikipedia": "en:Lidl", "building": "retail", "building:levels": "1", "name": "Lidl", "opening_hours": "Mo-Sa 07:00-21:00", "roof:levels": "1", "roof:shape": "gabled", "shop": "supermarket", "wheelchair": "yes"}}, {"type": "way", "id": 69980051, "center": {"lat": 53.556583, "lon": 10.0800212}, "nodes": [836214974, 1884912919, 836214970, 836214968, 1885136706, 1885136709, 836214973, 836214974], "tags": {"addr:city": "Hamburg", "addr:country": "DE", "addr:housenumber": "185", "addr:postcode": "22111", "addr:street": "Sievekingsallee", "brand": "PENNY", "brand:wikidata": "Q284688", "brand:wikipedia": "en:Penny (supermarket)", "building": "retail", "building:levels": "1", "check_date": "2024-12-16", "diet:kosher": "no", "name": "PENNY", "name:fa": "\u067e\u0646\u06cc", "opening_hours": "Mo-Sa 08:00-22:00; PH off", "roof:levels": "0", "roof:shape": "flat", "shop": "supermarket", "wheelchair": "yes"}}, {"type": "way", "id": 700949181, "center": {"lat": 53.5669234, "lon": 10.0753498}, "nodes": [6582698890, 6582698889, 6582698888, 6582698887, 1554874295, 1554874293, 6582698886, 6582698885, 6582698890], "tags": {"amenity": "fuel", "brand": "Shell", "brand:wikidata": "Q154950", "brand:wikipedia": "en:Royal Dutch Shell", "check_date": "2025-04-03", "compressed_air": "yes", "fuel:GTL_diesel": "yes", "fuel:diesel": "yes", "fuel:e10": "yes", "fuel:lpg": "yes", "fuel:octane_100": "yes", "fuel:octane_95": "yes", "fuel:octane_98": "no", "landuse": "retail", "mapillary": "1023280588574119", "name": "Shell", "opening_hours": "24/7", "operator": "Erol Geyik GmbH", "phone": "+49 40 681447"}}]