[{"type": "node", "id": 310934049, "lat": 53.6216447, "lon": 9.9995349, "tags": {"amenity": "fuel", "brand": "Shell", "brand:wikidata": "Q110716465", "brand:wikipedia": "en:Royal Dutch Shell", "compressed_air": "yes", "fuel:cng": "yes", "name": "Shell", "opening_hours": "24/7"}}, {"type": "node", "id": 4539867930, "lat": 53.6190616, "lon": 10.0008682, "tags": {"addr:city": "Hamburg", "addr:housenumber": "72", "addr:postcode": "22335", "addr:street": "Sportallee", "description": "Verkauf nur an Flughafen- und Airlinemitarbeiter", "name": "Ringeltaube", "opening_hours": "Mo-Fr 09:00-19:00, Sa 10:00-15:00", "shop": "convenience", "website": "https://www.ringeltaube.de/", "wheelchair": "yes"}}, {"type": "node", "id": 5773665286, "lat": 53.6220041, "lon": 10.0004572, "tags": {"amenity": "fuel", "compressed_air": "no", "fuel:lpg": "yes", "name": "Autogas"}}, {"type": "node", "id": 5907994566, "lat": 53.6155796, "lon": 10.0007826, "tags": {"addr:city": "Hamburg", "addr:housenumber": "41", "addr:postcode": "22335", "addr:street": "Sportallee", "amenity": "fast_food", "cuisine": "asian", "fixme": "weitere Details", "name": "Sai-Gon Nhi"}}, {"type": "node", "id": 6055863153, "lat": 53.6173297, "lon": 10.000927, "tags": {"addr:city": "Hamburg", "addr:housenumber": "60", "addr:postcode": "22335", "addr:street": "Sportallee", "amenity": "fast_food", "cuisine": "chinese;kebab", "description": "Befindet sich nur in einem Teil des EG dieses Einfamilienhauses.", "fixme": "Name, weitere Details", "name": "Fr\u00fchling Bistro"}}, {"type": "node", "id": 11308531493, "lat": 53.6206725, "lon": 10.0055706, "tags": {"addr:city": "Hamburg", "addr:housenumber": "3", "addr:postcode": "22335", "addr:street": "Geschwister-Besch\u00fctz-Bogen", "amenity": "fast_food", "cuisine": "german", "fixme": "\u00d6ffnungszeiten gesch\u00e4tzt, hat zur Mittagszeit auf.", "name": "Harald's Imbiss", "opening_hours": "Do 12-16", "website": "http://haralds-imbiss.de/"}}, {"type": "way", "id": 60407078, "center": {"lat": 53.6155304, "lon": 10.0023627}, "nodes": [751953249, 6051732575, 751953316, 6051734714, 473403389, 751953216, 3067575931, 6051732576, 3067575930, 751953249], "tags": {"addr:city": "Hamburg", "addr:housenumber": "309", "addr:postcode": "22297", "addr:street": "Alsterkrugchaussee", "brand": "Lidl", "brand:wikidata": "Q151954", "brand:wikipedia": "en:Lidl", "building": "yes", "name": "Lidl", "opening_hours": "Mo-Sa 07:00-21:00", "shop": "supermarket", "wheelchair": "limited"}}, {"type": "way", "id": 302506462, "center": {"lat": 53.6161568, "lon": 10.0035741}, "nodes": [3067575933, 4697607294, 4697607293, 4697607292, 4697607291, 3067575937, 4525394992, 4525394991, 4525394989, 4525394990, 451660253, 3067575936, 3067575935, 3067575934, 3067575933], "tags": {"addr:city": "Hamburg", "addr:housenumber": "333", "addr:postcode": "22297", "addr:street": "Alsterkrugchaussee", "amenity": "fast_food", "brand": "Burger King", "brand:wikidata": "Q177054", "brand:wikipedia": "en:Burger King", "building": "yes", "cuisine": "burger", "name": "Burger King", "takeaway": "yes", "wheelchair": "yes"}}]