[{"type": "node", "id": 26010623, "lat": 53.5327177, "lon": 9.8790636, "tags": {"addr:city": "Hamburg", "addr:country": "DE", "addr:housenumber": "16", "addr:postcode": "21129", "addr:street": "Steendiek", "brand": "Rewe", "brand:wikidata": "Q16968817", "brand:wikipedia": "en:REWE", "name": "Rewe", "opening_hours": "Mo-Sa 07:00-23:00", "phone": "+49 40 74211741", "shop": "supermarket", "wheelchair": "yes"}}, {"type": "node", "id": 3840023568, "lat": 53.5335275, "lon": 9.8735803, "tags": {"addr:city": "Hamburg", "addr:country": "DE", "addr:housenumber": "71", "addr:postcode": "21129", "addr:street": "Finkenwerder Norderdeich", "amenity": "fast_food", "cuisine": "italian", "name": "Viva L\u00b4Italia", "opening_hours": "Mo-Fr 11:00-14:30,17:00-22:00;Sa-Su 14:00-22:00", "phone": "+49 40 74212744", "website": "https://www.viva-litalia.de/"}}, {"type": "node", "id": 4364767514, "lat": 53.5333417, "lon": 9.876757, "tags": {"amenity": "fast_food", "cuisine": "kebab", "name": "Grill @ D\u00f6ner", "wheelchair": "no"}}, {"type": "node", "id": 5783045584, "lat": 53.532457, "lon": 9.8800729, "tags": {"amenity": "fast_food", "cuisine": "kebab;turkish", "level": "1", "name": "KEBABHAUS", "takeaway": "yes", "wheelchair": "no"}}, {"type": "node", "id": 6806404839, "lat": 53.5322189, "lon": 9.8785557, "tags": {"name": "\u00d6zdemirs Laden", "shop": "supermarket"}}, {"type": "way", "id": 97658172, "center": {"lat": 53.5334872, "lon": 9.8812091}, "nodes": [1130649716, 2712110889, 2712110899, 2712110891, 2712110896, 1130649712, 1130649713, 2712110892, 6403957810, 6403957811, 2712110895, 1130649715, 1130649716], "tags": {"addr:city": "Hamburg", "addr:country": "DE", "addr:housenumber": "7", "addr:postcode": "21129", "addr:street": "K\u00f6hlfleet-Hauptdeich", "brand": "Aldi Nord", "brand:wikidata": "Q41171373", "brand:wikipedia": "en:Aldi", "building": "supermarket", "contact:website": "https://www.aldi-nord.de/tools/filialen-und-oeffnungszeiten/hamburg/finkenwerder/koehlfleet-hauptdeich-7.html", "name": "Aldi Nord", "opening_hours": "Mo-Sa 07:00-21:00; PH off", "operator": "ALDI GmbH & Co. KG Seevetal", "shop": "supermarket", "wheelchair": "limited"}}, {"type": "way", "id": 158941849, "center": {"lat": 53.5358861, "lon": 9.8782452}, "nodes": [1710576236, 11805603284, 1710576228, 1710576224, 1710576232, 1710576236], "tags": {"addr:city": "Hamburg", "addr:country": "DE", "addr:housenumber": "7", "addr:postcode": "21129", "addr:street": "Benittstra\u00dfe", "amenity": "fast_food", "building": "retail", "building:levels": "1", "cuisine": "german;regional", "delivery": "no", "internet_access": "no", "name": "Dampferimbiss", "outdoor_seating": "yes", "payment:cash": "yes", "payment:credit_cards": "no", "payment:cryptocurrencies": "no", "payment:debit_cards": "no", "payment:electronic_purses": "no", "roof:levels": "0", "roof:shape": "flat", "smoking": "outside", "takeaway": "yes", "toilets": "yes", "toilets:access": "customers", "wheelchair": "no"}}, {"type": "way", "id": 265564872, "center": {"lat": 53.5337519, "lon": 9.8820737}, "nodes": [2712110887, 6206200219, 6206200220, 2712110894, 6206200061, 6206200059, 6206200058, 6206200060, 4368699107, 4368699106, 2712110900, 6206200221, 2712110886, 6206200218, 6206200217, 6206200216, 6206200062, 6206200063, 6206200064, 6206200065, 6206200214, 6206200215, 2712110887], "tags": {"addr:city": "Hamburg", "addr:country": "DE", "addr:housenumber": "7", "addr:postcode": "21129", "addr:street": "K\u00f6hlfleet-Hauptdeich", "brand": "EDEKA", "brand:wikidata": "Q701755", "building": "supermarket", "contact:phone": "+49 40 319770060", "contact:website": "https://www.edeka.de/eh/nord/edeka-bobsien-inh.-jana-walus-k%C3%B6hlfleet-hauptdeich-7/index.jsp", "name": "Edeka Bobsien", "opening_hours": "Mo-Sa 07:00-20:00; PH off", "operator": "EDEKA ZENTRALE AG & Co. KG", "shop": "supermarket", "toilets:wheelchair": "yes", "wheelchair": "yes"}}, {"type": "way", "id": 683961547, "center": {"lat": 53.526558, "lon": 9.8848508}, "nodes": [6407061976, 6407061975, 6407061974, 6407061973, 6407061972, 6407061971, 6407061970, 6407061969, 6407061968, 6407061976], "tags": {"amenity": "fuel", "brand": "Aral", "brand:wikidata": "Q565734", "car_wash": "yes", "fuel:GTL_diesel": "yes", "fuel:diesel": "yes", "fuel:e10": "yes", "fuel:octane_102": "yes", "fuel:octane_95": "yes", "fuel:octane_98": "yes", "opening_hours": "24/7", "operator": "Eckhard Loitz", "phone": "+49 407428605"}}, {"type": "way", "id": 683961565, "center": {"lat": 53.5267049, "lon": 9.8863663}, "nodes": [6407062063, 6407062062, 2441106896, 2441106898, 4557748061, 6407062061, 6407062060, 6407062059, 6407062058, 6407062057, 6407062056, 6407062055, 6407062054, 6407062053, 6407062052, 6407062051, 6407062050, 6407062049, 6407062048, 6407062047, 6407062063], "tags": {"amenity": "fuel", "brand": "Esso", "brand:wikidata": "Q867662", "compressed_air": "yes", "contact:phone": "+49 40 7426830", "contact:website": "https://www.esso.de/de-de/find-station/esso-hamburg-essostationhamburgostfrieslandstrasse-100150411", "fuel:diesel": "yes", "fuel:e10": "yes", "fuel:octane_95": "yes", "fuel:octane_98": "yes", "opening_hours": "24/7", "operator": "Thomas Schittkaeker", "shop": "yes", "wheelchair": "yes"}}]