[{"type": "node", "id": 1475015125, "lat": 53.6139625, "lon": 10.0756187, "tags": {"addr:city": "Hamburg", "addr:country": "DE", "addr:housenumber": "251", "addr:postcode": "22177", "addr:street": "Bramfelder Chaussee", "amenity": "fast_food", "contact:email": "ilyas.aktag23@gmail.com", "contact:mobile": "+49 178 4475624", "contact:website": "https://www.eat-standbul.de/", "indoor_seating": "yes", "name": "eatstanbul", "outdoor_seating": "yes", "wheelchair": "yes"}}, {"type": "node", "id": 2088614266, "lat": 53.6176494, "lon": 10.089393, "tags": {"addr:housenumber": "58", "addr:postcode": "22175", "addr:street": "Berner Chaussee", "alt_name": "Bramfelder Laterne", "name": "Welt Laden Bramfeld", "opening_hours": "Mo-Fr 15:00-18:00, We,Sa 10:00-13:00", "shop": "convenience", "website": "https://bramfelderlaterne.de/Weltladen.html", "wheelchair": "no"}}, {"type": "node", "id": 3339458678, "lat": 53.6222247, "lon": 10.0841065, "tags": {"brand": "Shell", "brand:wikidata": "Q110716465", "name": "Shell", "operator": "Shell", "shop": "convenience"}}, {"type": "node", "id": 3640279711, "lat": 53.6170176, "lon": 10.0781811, "tags": {"addr:city": "Hamburg", "addr:country": "DE", "addr:housenumber": "296", "addr:postcode": "22177", "addr:street": "Bramfelder Chaussee", "amenity": "fast_food", "cuisine": "pizza", "name": "Mundfein - Pizzawerksatt", "opening_hours": "Mo-Th 11:00-23:00; Fr-Sa 11:00-23:30; PH,Su 12:00-23:00", "phone": "+49 40 63314390", "website": "https://www.mundfein.de/"}}, {"type": "node", "id": 5914861546, "lat": 53.6140576, "lon": 10.0756873, "tags": {"addr:city": "Hamburg", "addr:country": "DE", "addr:housenumber": "251", "addr:postcode": "22177", "addr:street": "Bramfelder Chaussee", "contact:mobile": "+49 172 4315049", "name": "Mas Market", "shop": "supermarket"}}, {"type": "node", "id": 6180599672, "lat": 53.6187256, "lon": 10.0807064, "tags": {"addr:city": "Hamburg", "addr:housenumber": "322", "addr:postcode": "22177", "addr:street": "Bramfelder Chaussee", "branch": "Woytke", "brand": "EDEKA", "brand:wikidata": "Q701755", "brand:wikipedia": "de:Edeka", "check_date:opening_hours": "2023-05-20", "fax": "+49 40 63295858", "name": "EDEKA", "opening_hours": "Mo-Sa 07:00-21:00", "phone": "+49 40 20974519", "shop": "supermarket", "website": "https://www.edeka.de/eh/nord/edeka-woytke-bramfelder-chaussee-312-326/index.jsp", "wheelchair": "yes"}}, {"type": "node", "id": 8000485088, "lat": 53.6212089, "lon": 10.0820884, "tags": {"amenity": "fast_food", "name": "Croque & Crepes", "takeaway": "yes"}}, {"type": "node", "id": 8000485089, "lat": 53.6213353, "lon": 10.0822387, "tags": {"amenity": "fast_food", "cuisine": "asian", "level": "0", "name": "Mr. Asia", "opening_hours": "Tu-Su 11:30-20:15; PH open", "operator": "K. Tappa", "phone": "+49 40 63648189", "takeaway": "yes", "toilets": "no", "wheelchair": "no"}}, {"type": "node", "id": 8002695777, "lat": 53.6205058, "lon": 10.0822043, "tags": {"amenity": "fast_food", "cuisine": "japanese;sushi", "name": "Yoko Sushi", "opening_hours": "Mo-Fr 11:00-22:00; Sa-Su 12:00-22:00", "operator": "Manpreet Singh Chahal", "phone": "+49 40 63970577", "takeaway": "yes", "website": "https://yoko.de"}}, {"type": "node", "id": 8002695781, "lat": 53.6199274, "lon": 10.0817, "tags": {"addr:city": "Hamburg", "addr:housenumber": "340", "addr:postcode": "22175", "addr:street": "Bramfelder Chaussee", "amenity": "fast_food", "brand": "Domino's", "brand:wikidata": "Q839466", "brand:wikipedia": "en:Domino's Pizza", "contact:email": "info@dominos.de", "contact:phone": "+49 40 63 64 616", "contact:website": "https://www.dominos.de/kaufhaus/de-hamburgbramfeldnord-34039", "cuisine": "pizza", "name": "Domino's", "opening_hours": "Mo-Su 11:00-23:00", "takeaway": "yes"}}, {"type": "node", "id": 9343920428, "lat": 53.619531, "lon": 10.0806602, "tags": {"addr:housenumber": "345", "addr:street": "Bramfelder Chaussee", "amenity": "fast_food", "description": "Lieferdienst", "name": "Kelms K\u00fcche", "opening_hours": "Mo-Fr 11:30-21:30; Su 12:00-21:30", "phone": "+49046412045", "website": "http://www.kelmsk\u00fcche.de"}}, {"type": "node", "id": 10106572763, "lat": 53.6113027, "lon": 10.0736718, "tags": {"addr:city": "Hamburg", "addr:country": "DE", "addr:postcode": "22177", "addr:street": "Bramfelder Chaussee", "amenity": "fast_food", "name": "Burger Lounge"}}, {"type": "node", "id": 10996914219, "lat": 53.6136871, "lon": 10.0780428, "tags": {"amenity": "fast_food", "changing_table": "no", "cuisine": "german", "diet:vegetarian": "no", "indoor_seating": "yes", "name": "Fr\u00fchst\u00fcck & Mittagstisch Imbiss", "opening_hours": "Mo-Fr 07:00-17:00; PH closed", "outdoor_seating": "no", "takeaway": "yes", "toilets": "no", "wheelchair": "yes"}}, {"type": "node", "id": 11228201233, "lat": 53.6110248, "lon": 10.0735878, "tags": {"addr:city": "Hamburg", "addr:country": "DE", "addr:housenumber": "211", "addr:postcode": "22177", "addr:street": "Bramfelder Chaussee", "contact:email": "shop@kauf-city-bramfeld.de", "contact:phone": "+49 40 71627338", "contact:website": "https://kauf-city-bramfeld.de/", "name": "Kaufcity", "shop": "supermarket"}}, {"type": "node", "id": 11305470187, "lat": 53.6179597, "lon": 10.0792386, "tags": {"addr:city": "Hamburg", "addr:country": "DE", "addr:housenumber": "308", "addr:postcode": "22177", "addr:street": "Bramfelder Chaussee", "amenity": "fast_food", "contact:website": "https://www.lieferando.de/speisekarte/hansel-und-gretel-hamburg-bramfelder-chaussee", "cuisine": "sushi", "name": "H\u00e4nsel und Gretel"}}, {"type": "node", "id": 11305470188, "lat": 53.6179032, "lon": 10.0791715, "tags": {"addr:city": "Hamburg", "addr:country": "DE", "addr:housenumber": "308", "addr:postcode": "22177", "addr:street": "Bramfelder Chaussee", "amenity": "fast_food", "brand": "Smiley's", "brand:wikidata": "Q60998945", "cuisine": "pizza", "name": "Smiley's Pizza", "website": "https://www.smileys.de/bestellen/Hamburg-Bramfeld"}}, {"type": "node", "id": 11701536788, "lat": 53.617276, "lon": 10.0776306, "tags": {"addr:city": "Hamburg", "addr:housenumber": "291", "addr:postcode": "22177", "addr:street": "Bramfelder Chaussee", "branch": "Bramfeld", "brand": "PENNY", "brand:wikidata": "Q284688", "delivery": "yes", "delivery:partner": "Bringoo", "name": "PENNY", "opening_hours": "Mo-Sa 07:00-21:00; PH off", "payment:american_express": "yes", "payment:cash": "yes", "payment:maestro": "yes", "payment:mastercard": "yes", "payment:payback_app": "yes", "payment:visa": "yes", "phone": "+49 221 20199959", "shop": "supermarket", "website": "https://www.penny.de/markt/hamburg/440783/penny-bramfeld-bramfelder-chaussee-291"}}, {"type": "way", "id": 39407854, "center": {"lat": 53.6216552, "lon": 10.0835505}, "nodes": [472145207, 472145208, 4130947001, 4131058674, 4130947002, 4130946998, 4130947000, 4130947003, 4130947004, 472145209, 4130947005, 4130947006, 4130947008, 4130947007, 4130947010, 4130947009, 472145210, 472145207], "tags": {"addr:city": "Hamburg", "addr:country": "DE", "addr:housenumber": "366", "addr:postcode": "22175", "addr:street": "Bramfelder Chaussee", "amenity": "fast_food", "brand": "Burger King", "brand:wikidata": "Q177054", "brand:wikipedia": "en:Burger King", "building": "commercial", "building:levels": "1", "changing_table": "yes", "changing_table:location": "wheelchair_toilet", "cuisine": "burger", "diet:vegan": "yes", "diet:vegetarian": "yes", "internet_access": "wlan", "internet_access:fee": "no", "name": "Burger King", "opening_hours": "Mo-Su 10:00-24:00; Sa, Su 00:00-03:00; Mo-Fr 00:00-01:00", "operator": "DFM Hamburg GmbH & Co. KG", "outdoor_seating": "yes", "payment:cash": "yes", "payment:credit_cards": "yes", "payment:girocard": "yes", "payment:maestro": "yes", "phone": "+49 40 46630085", "smoking": "no", "takeaway": "yes", "wheelchair": "yes"}}, {"type": "way", "id": 39889126, "center": {"lat": 53.6124135, "lon": 10.0780404}, "nodes": [478697116, 5207098337, 5207098397, 5218230101, 5218230102, 5218230100, 5218230098, 5218230097, 9503434192, 11196344780, 4082015361, 4082015360, 5206765613, 4082015355, 4082015357, 478697151, 4082015358, 4082015356, 4082015359, 4082015362, 5206765616, 4082015364, 5206765610, 4082015366, 4082015365, 478697116], "tags": {"addr:city": "Hamburg", "addr:country": "DE", "addr:housenumber": "18", "addr:postcode": "22179", "addr:street": "Bramfelder Dorfplatz", "brand": "Kaufland", "brand:wikidata": "Q685967", "brand:wikipedia": "en:Kaufland", "building": "retail", "building:levels": "3", "building:material": "brick", "check_date": "2022-02-03", "contact:phone": "+49 40 870853270", "contact:website": "https://filiale.kaufland.de/service/filiale.storeName=DE7000.html", "name": "Kaufland", "opening_hours": "Mo-Sa 07:00-22:00; PH off", "operator": "Kaufland Vertrieb KDST GmbH & Co. KG", "roof:material": "concrete", "shop": "supermarket", "wheelchair": "yes"}}, {"type": "way", "id": 131405971, "center": {"lat": 53.6181114, "lon": 10.0825354}, "nodes": [1446247388, 1446247387, 1446247383, 6193617496, 6193617497, 1446247384, 1446247388], "tags": {"addr:city": "Hamburg", "addr:country": "DE", "addr:housenumber": "16", "addr:postcode": "22175", "addr:street": "Berner Chaussee", "brand": "ALDI Nord", "brand:wikidata": "Q41171373", "brand:wikipedia": "en:Aldi", "building": "supermarket", "building:levels": "1", "building:material": "brick", "fixme": "payment:visa_debit Website:DEBIT?", "name": "ALDI Nord", "opening_hours": "Mo-Sa 07:00-21:00; PH off", "payment:cash": "yes", "payment:girocard": "yes", "payment:maestro": "yes", "payment:mastercard": "yes", "payment:visa": "yes", "payment:visa_debit": "no", "payment:visa_electron": "no", "roof:colour": "black", "roof:levels": "1", "roof:material": "roof_tiles", "roof:shape": "gabled", "shop": "supermarket", "website": "https://www.aldi-nord.de/tools/filialen-und-oeffnungszeiten/hamburg/bramfeld/berner-chaussee-16.html", "wheelchair": "yes"}}, {"type": "way", "id": 445915980, "center": {"lat": 53.6122115, "lon": 10.0767932}, "nodes": [4432632924, 4432632933, 4432632944, 4432699279, 4432632959, 4432632960, 4432632949, 4432632956, 4432632941, 4432632937, 4432632924], "tags": {"addr:city": "Hamburg", "addr:country": "DE", "addr:housenumber": "230", "addr:postcode": "22177", "addr:street": "Bramfelder Chaussee", "amenity": "fast_food", "cuisine": "burger", "indoor": "room", "level": "0", "name": "Wonder Kitchen", "opening_hours": "Mo-Sa 10:00-20:00"}}, {"type": "way", "id": 445915992, "center": {"lat": 53.612193, "lon": 10.0768572}, "nodes": [4432632917, 4432632924, 4432632937, 4432632941, 4432632956, 4432632961, 4432699278, 4432632922, 4432632919, 4432632917], "tags": {"addr:city": "Hamburg", "addr:country": "DE", "addr:housenumber": "230", "addr:postcode": "22177", "addr:street": "Bramfelder Chaussee", "amenity": "fast_food", "cuisine": "italian", "indoor": "room", "level": "0", "name": "neovii", "opening_hours": "Mo-Sa 10:00-20:00"}}, {"type": "way", "id": 445915994, "center": {"lat": 53.6122263, "lon": 10.0766869}, "nodes": [4432632933, 4432632942, 4432632957, 4432632958, 4432632959, 4432699279, 4432632944, 4432632933], "tags": {"addr:city": "Hamburg", "addr:country": "DE", "addr:housenumber": "230", "addr:postcode": "22177", "addr:street": "Bramfelder Chaussee", "amenity": "fast_food", "cuisine": "kebab", "indoor": "room", "indoor_seating": "yes", "level": "0", "name": "Manzara - The Kebab Culture", "opening_hours": "Mo-Sa 10:00-20:00", "outdoor_seating": "no"}}, {"type": "way", "id": 445916021, "center": {"lat": 53.6122707, "lon": 10.0766514}, "nodes": [4432632942, 4432632954, 4432632976, 4432632977, 4432632965, 4432632964, 4432632958, 4432632957, 4432632942], "tags": {"addr:city": "Hamburg", "addr:country": "DE", "addr:housenumber": "230", "addr:postcode": "22177", "addr:street": "Bramfelder Chaussee", "amenity": "fast_food", "cuisine": "italian", "indoor": "room", "level": "0", "name": "Pommeswerk"}}, {"type": "way", "id": 445916022, "center": {"lat": 53.6121226, "lon": 10.0769367}, "nodes": [4432632909, 4432632917, 4432632919, 4432632922, 4432632925, 4432632915, 4432632912, 4432632909], "tags": {"addr:city": "Hamburg", "addr:country": "DE", "addr:housenumber": "230", "addr:postcode": "22177", "addr:street": "Bramfelder Chaussee", "amenity": "fast_food", "cuisine": "asian", "diet:vegetarian": "yes", "indoor": "room", "indoor_seating": "yes", "level": "0", "name": "mai-mai", "opening_hours": "Mo-Sa 10:00-20:00", "outdoor_seating": "no"}}, {"type": "way", "id": 445922044, "center": {"lat": 53.61238, "lon": 10.0764431}, "nodes": [4432700452, 4432700458, 4432700457, 4432700461, 4432700464, 4432700463, 4432700460, 4432700459, 4432700428, 4432700431, 622515744, 4432700410, 4432700172, 4432700171, 4432700170, 4432700176, 4432700181, 4432700436, 4432700440, 4432700454, 4432700453, 4432700452], "tags": {"atm": "yes", "brand": "REWE", "brand:wikidata": "Q16968817", "brand:wikipedia": "de:Rewe", "contact:website": "https://www.rewe.de/marktseite/hamburg/540183/rewe-markt-bramfelder-chaussee-230/", "indoor": "room", "level": "-1", "name": "REWE", "opening_hours": "Mo-Sa 07:00-21:00; PH off", "operator": "Rewe Christian Beushausen oHG", "phone": "+49 40 63318693", "shop": "supermarket", "wheelchair": "yes"}}, {"type": "way", "id": 445928833, "center": {"lat": 53.6120908, "lon": 10.076053}, "nodes": [4432632930, 4432699252, 4432699233, 4432699232, 4432699240, 4432699239, 4432632927, 4432632930], "tags": {"indoor": "room", "level": "1", "name": "Engelhard", "opening_hours": "Mo-Fr 10:00-20:00; Sa 09:30-20:00", "shop": "convenience"}}, {"type": "way", "id": 445928840, "center": {"lat": 53.6122501, "lon": 10.0762916}, "nodes": [4432699287, 4432699270, 4432699275, 4432699282, 4432699283, 4432699287], "tags": {"amenity": "fast_food", "cuisine": "italian", "indoor": "area", "indoor_seating": "yes", "level": "1", "name": "Neovii", "opening_hours": "Mo-Sa 10:00-20:00", "outdoor_seating": "no"}}, {"type": "way", "id": 579403654, "center": {"lat": 53.6222588, "lon": 10.0841041}, "nodes": [545726727, 545726724, 1059897728, 1059897713, 545726722, 1059897695, 545726727], "tags": {"addr:city": "Hamburg", "addr:country": "DE", "addr:housenumber": "382", "addr:postcode": "22175", "addr:street": "Bramfelder Chaussee", "amenity": "fuel", "brand": "Shell", "brand:wikidata": "Q110716465", "brand:wikipedia": "en:Royal Dutch Shell", "building": "retail", "building:levels": "1", "compressed_air": "yes", "fuel:GTL_diesel": "yes", "fuel:HGV_diesel": "yes", "fuel:LH2": "yes", "fuel:diesel": "yes", "fuel:octane_95": "yes", "fuel:octane_98": "yes", "name": "Shell", "opening_hours": "24/7", "operator": "Royal Dutch Shell plc", "roof:levels": "0"}}]