[{"type": "node", "id": 719391895, "lat": 53.6327949, "lon": 9.9113477, "tags": {"addr:city": "Hamburg", "addr:country": "DE", "addr:housenumber": "2", "addr:postcode": "22457", "addr:street": "Oldesloer Stra\u00dfe", "amenity": "fast_food", "changing_table": "no", "check_date": "2024-06-23", "contact:facebook": "https://www.facebook.com/D%C3%B6ner-Pavillon-Schnelsen-1587484798160838/", "cuisine": "kebab", "diet:vegetarian": "yes", "drive_through": "no", "email": "doenerpavillon@web.de", "name": "D\u00f6ner Pavillion", "opening_hours": "Mo-Su 09:00-22:30", "outdoor_seating": "yes", "payment:cash": "yes", "payment:coins": "yes", "payment:ec": "yes", "phone": "+49 40 53261233", "takeaway": "yes", "toilets": "yes", "website": "https://doenerpavillion.eatbu.com", "wheelchair": "yes"}}, {"type": "node", "id": 1802002365, "lat": 53.6305165, "lon": 9.9259635, "tags": {"addr:city": "Hamburg", "addr:country": "DE", "addr:housenumber": "78d", "addr:postcode": "22459", "addr:street": "Frohmestra\u00dfe", "amenity": "fast_food", "check_date:opening_hours": "2021-05-04", "contact:phone": "+49 40 5592047", "contact:website": "https://www.call-a-pizza.de/hamburg_schnelsen/", "cuisine": "pizza;burger;ice_cream;Salat;pasta", "delivery": "yes", "diet:vegan": "yes", "diet:vegetarian": "yes", "name": "Call a Pizza", "opening_hours": "Mo-Th 11:00-22:30; Fr 11:00-23:00; Sa 13:00-23:00; Su 12:00-22:30", "payment:cash": "yes", "payment:debit_cards": "yes", "takeaway": "yes", "wheelchair": "yes"}}, {"type": "node", "id": 1862001240, "lat": 53.6404014, "lon": 9.9482786, "tags": {"addr:city": "Hamburg", "addr:country": "DE", "addr:housenumber": "17", "addr:postcode": "22455", "addr:street": "Nordalbingerweg", "addr:suburb": "Niendorf", "amenity": "fast_food", "cuisine": "sandwich", "name": "Croque Point", "opening_hours": "Mo-Fr 12:00-22:00; Su 13:00-22:00", "source": "website", "website": "http://www.croque-point.de"}}, {"type": "node", "id": 1897701703, "lat": 53.629547, "lon": 9.9299299, "tags": {"addr:city": "Hamburg", "addr:country": "DE", "addr:housenumber": "99", "addr:postcode": "22459", "addr:street": "Frohmestra\u00dfe", "brand": "Lidl", "brand:wikidata": "Q151954", "brand:wikipedia": "en:Lidl", "check_date": "2023-12-03", "contact:website": "https://www.lidl.de/f/hamburg/schnelsen-frohmestr-99-105.html", "name": "Lidl", "opening_hours": "Mo-Sa 07:00-21:00; PH off", "shop": "supermarket", "wheelchair": "yes"}}, {"type": "node", "id": 1996944892, "lat": 53.6299825, "lon": 9.9270633, "tags": {"addr:city": "Hamburg", "addr:country": "DE", "addr:housenumber": "86", "addr:postcode": "22459", "addr:street": "Frohmestra\u00dfe", "amenity": "fast_food", "branch": "Hamburg Schnelsen", "brand": "Domino's", "brand:wikidata": "Q839466", "cuisine": "pizza", "delivery": "yes", "diet:vegan": "yes", "diet:vegetarian": "yes", "indoor_seating": "yes", "name": "Domino's", "opening_hours": "Su-Th 11:00-22:00, Fr-Sa 11:00-23:00", "outdoor_seating": "no", "phone": "+49 40 593 543 00", "source": "Local Knowledge", "takeaway": "yes", "website": "https://www.dominos.de/filiale/de-hamburgschnelsen-34047", "wheelchair": "yes"}}, {"type": "node", "id": 2029181892, "lat": 53.6320313, "lon": 9.9221887, "tags": {"amenity": "fast_food", "contact:phone": "+49 40 55 07 225", "contact:website": "https://www.raritapizzamanufakturhamburg.de/", "cuisine": "kebab;pizza;burger;german;italian;pasta", "delivery": "yes", "diet:vegan": "no", "diet:vegetarian": "yes", "name": "Oliva Pizza-D\u00f6ner", "opening_hours": "Mo-Su 11:00-23:00", "wheelchair": "no"}}, {"type": "node", "id": 2031980363, "lat": 53.6350889, "lon": 9.9184416, "tags": {"addr:city": "Hamburg", "addr:country": "DE", "addr:housenumber": "14", "addr:postcode": "22457", "addr:street": "Gli\u00dfmannweg", "branch": "Schnelsen", "brand": "REWE", "brand:wikidata": "Q16968817", "brand:wikipedia": "de:Rewe", "name": "REWE", "opening_hours": "Mo-Sa 07:00-22:00", "organic": "yes", "phone": "+49 40 55981601", "shop": "supermarket", "website": "https://www.rewe.de/marktseite/hamburg-schnelsen/540505/rewe-markt-glissmannweg-4/", "wheelchair": "yes"}}, {"type": "node", "id": 2562187774, "lat": 53.6405989, "lon": 9.9477877, "tags": {"amenity": "fast_food", "name": "City D\u00f6ner & Pizza", "opening_hours": "Mo-Fr 11:00-22:00; PH,Sa,Su 12:00-22:00"}}, {"type": "node", "id": 5385223799, "lat": 53.624457, "lon": 9.9371751, "tags": {"amenity": "fast_food", "opening_hours": "Th-Su 14:00-19:30"}}, {"type": "node", "id": 6344514816, "lat": 53.635252, "lon": 9.9194109, "tags": {"addr:city": "Hamburg", "addr:country": "DE", "addr:housenumber": "11", "addr:postcode": "22457", "addr:street": "Frohmestra\u00dfe", "brand": "denn's Biomarkt", "brand:wikidata": "Q48883773", "brand:wikipedia": "de:Dennree", "check_date": "2024-12-20", "contact:phone": "+49 40 53303448", "contact:website": "https://www.biomarkt.de/hamburg-frohmestr-11/marktseite", "name": "denn's Biomarkt", "opening_hours": "Mo-Sa 08:00-20:00; PH off", "organic": "only", "shop": "supermarket", "wheelchair": "yes"}}, {"type": "node", "id": 6367302350, "lat": 53.6406331, "lon": 9.950527, "tags": {"addr:city": "Hamburg", "addr:country": "DE", "addr:housenumber": "23-31", "addr:postcode": "22455", "addr:street": "Nordalbingerweg", "addr:suburb": "Niendorf", "brand": "REWE", "brand:wikidata": "Q16968817", "brand:wikipedia": "en:REWE", "check_date:opening_hours": "2025-04-30", "name": "REWE", "opening_hours": "Mo-Sa 07:00-22:00; PH off", "operator": "Rewe Markt GmbH", "phone": "+49 40 55581931", "shop": "supermarket", "source": "website", "website": "https://www.rewe.de/marktseite/hamburg-niendorf/540594/rewe-markt-nordalbinger-weg-23-31/", "wheelchair": "yes"}}, {"type": "node", "id": 7644359502, "lat": 53.6402803, "lon": 9.9481764, "tags": {"addr:city": "Hamburg", "addr:country": "DE", "addr:housenumber": "17a", "addr:postcode": "22455", "addr:street": "Nordalbingerweg", "amenity": "fast_food", "check_date:opening_hours": "2025-05-11", "cuisine": "kebab", "name": "Next Level Grill", "opening_hours": "Mo-Th 12:00-21:30; Fr-Sa 12:00-22:30; Su 12:00-21:30", "website": "https://www.next-level-grill.de"}}, {"type": "node", "id": 8992645898, "lat": 53.6366616, "lon": 9.9172627, "tags": {"addr:city": "Hamburg", "addr:housenumber": "1", "addr:postcode": "22457", "addr:street": "Burgwedel", "name": "GohMo Asiatische Lebensmittel & Sushi", "opening_hours": "Th,Fr 10:00-19:00; Tu,We 10:00-18:00; Sa 10:00-16:00; Su,Mo off", "phone": "+49 40 57709181", "shop": "supermarket"}}, {"type": "node", "id": 9155601436, "lat": 53.6222496, "lon": 9.9511147, "tags": {"addr:city": "Hamburg", "addr:housenumber": "5", "addr:postcode": "22459", "addr:street": "Paul-Sorge-Stra\u00dfe", "amenity": "fast_food", "check_date:opening_hours": "2023-03-27", "cuisine": "sandwich", "drive_through": "no", "name": "Croque Lounge - Hamburg", "opening_hours": "Tu-Sa 11:30-22:00; PH,Su 12:00-22:00", "payment:cash": "yes", "payment:girocard": "yes", "payment:klarna": "yes", "payment:paypal": "yes", "phone": "+49 40 58951440", "takeaway": "yes", "website": "https://www.croquelounge-hamburg.de"}}, {"type": "node", "id": 9590198679, "lat": 53.6344782, "lon": 9.914858, "tags": {"addr:city": "Hamburg", "addr:housenumber": "50", "addr:postcode": "22457", "addr:street": "Oldesloer Stra\u00dfe", "brand": "ALDI Nord", "brand:wikidata": "Q41171373", "brand:wikipedia": "en:Aldi", "check_date:opening_hours": "2023-05-14", "name": "Aldi", "opening_hours": "Mo-Sa 07:00-21:00", "shop": "supermarket", "website": "https://www.aldi-nord.de/filialen-und-oeffnungszeiten.html/l/hamburg/oldesloer-strasse-50/3182294", "wheelchair": "yes"}}, {"type": "node", "id": 10680798305, "lat": 53.6413524, "lon": 9.9168565, "tags": {"brand": "REWE To Go", "brand:wikidata": "Q85224313", "name": "REWE To Go", "shop": "convenience"}}, {"type": "node", "id": 11881614108, "lat": 53.6407386, "lon": 9.9482308, "tags": {"addr:city": "Hamburg", "addr:housenumber": "3", "addr:postcode": "22455", "addr:street": "Rudolf-Klug-Weg", "addr:suburb": "Niendorf", "level": "0", "name": "Mega Markt", "shop": "supermarket"}}, {"type": "node", "id": 11881666090, "lat": 53.6405903, "lon": 9.9476065, "tags": {"addr:city": "Hamburg", "addr:housenumber": "7", "addr:postcode": "22455", "addr:street": "Rudolf-Klug-Weg", "addr:suburb": "Niendorf", "amenity": "fast_food", "branch": "Niendorf Nord EKZ", "cuisine": "turkish", "diet:halal": "yes", "diet:pescetarian": "yes", "diet:vegetarian": "yes", "drive_through": "no", "name": "Cigkoftem", "not:brand:wikidata": "Q106597459", "website": "https://cigkoftem.eu/"}}, {"type": "node", "id": 11905013121, "lat": 53.6355725, "lon": 9.918189, "tags": {"name": "Amir Supermarkt", "opening_hours": "Mo-Sa 08:00-20:00", "shop": "convenience"}}, {"type": "node", "id": 12033804625, "lat": 53.6314674, "lon": 9.9200541, "tags": {"amenity": "fast_food", "check_date": "2024-07-04", "cuisine": "Croques;salad", "delivery": "yes", "drive_through": "no", "name": "Mr. Fresh", "opening_hours": "12:00-22:00", "outdoor_seating": "yes", "phone": "+49405583400", "takeaway": "yes", "website": "http://mrfresh-schnelsen.de/"}}, {"type": "way", "id": 64156535, "center": {"lat": 53.6313588, "lon": 9.9266517}, "nodes": [790769673, 790769675, 790769677, 790769678, 790769679, 790769682, 790769673], "tags": {"addr:city": "Hamburg", "addr:country": "DE", "addr:housenumber": "77", "addr:postcode": "22459", "addr:street": "Frohmestra\u00dfe", "brand": "Netto Marken-Discount", "brand:wikidata": "Q879858", "brand:wikipedia": "de:Netto Marken-Discount", "building": "supermarket", "name": "Netto Marken-Discount", "opening_hours": "Mo-Sa 08:00-22:00", "shop": "supermarket", "website": "https://www.netto-online.de/filialen/Hamburg/Frohmestr-77/7112/", "wheelchair": "yes"}}, {"type": "way", "id": 76747458, "center": {"lat": 53.6333202, "lon": 9.9073923}, "nodes": [904205579, 904205597, 904205582, 6344530789, 904205570, 8757802405, 8757802404, 8757802403, 904205556, 904205592, 904205577, 3939952062, 904205565, 2765792264, 904205579], "tags": {"addr:housenumber": "16", "addr:street": "Pinneberger Stra\u00dfe", "brand": "Lidl", "brand:wikidata": "Q151954", "brand:wikipedia": "en:Lidl", "building": "retail", "building:levels": "1", "check_date:opening_hours": "2022-07-31", "diet:halal": "no", "diet:kosher": "no", "name": "Lidl", "opening_hours": "Mo-Sa 07:00-21:00", "roof:shape": "flat", "shop": "supermarket", "wheelchair": "yes"}}, {"type": "way", "id": 86751914, "center": {"lat": 53.6340469, "lon": 9.9116995}, "nodes": [1009156527, 1009156531, 1009156520, 1329627623, 3383987831, 1009156557, 3383987843, 3383987844, 1009156527], "tags": {"addr:city": "Hamburg", "addr:housenumber": "274", "addr:postcode": "22457", "addr:street": "Holsteiner Chaussee", "brand": "PENNY", "brand:wikidata": "Q284688", "brand:wikipedia": "en:Penny (supermarket)", "building": "retail", "building:levels": "1", "name": "PENNY", "opening_hours": "Mo-Sa 7:00-22:00", "roof:colour": "red", "roof:levels": "1", "roof:shape": "gabled", "shop": "supermarket", "wheelchair": "yes"}}, {"type": "way", "id": 141504396, "center": {"lat": 53.6362002, "lon": 9.9172006}, "nodes": [1548772582, 1548772577, 1548772573, 1548772579, 2679613148, 1548772582], "tags": {"addr:city": "Hamburg", "addr:country": "DE", "addr:housenumber": "41", "addr:postcode": "22457", "addr:street": "Oldesloer Stra\u00dfe", "amenity": "fast_food", "building": "yes", "cuisine": "kebab", "name": "Schnelsener Kebap House", "opening_hours:signed": "no", "wheelchair": "yes"}}, {"type": "way", "id": 156376869, "center": {"lat": 53.6351882, "lon": 9.9430773}, "nodes": [1686302460, 1686302452, 1686302462, 1686302466, 1686302460], "tags": {"addr:city": "Hamburg", "addr:country": "DE", "addr:housenumber": "2", "addr:postcode": "22453", "addr:street": "Gottschalkweg", "addr:suburb": "Niendorf", "amenity": "fast_food", "building": "yes", "cuisine": "asian", "delivery": "yes", "name": "Asia K\u00fcche Niendorf", "opening_hours": "Mo,Tu,Th,Fr 11:00-21:30; Sa 15:00-21:30; PH,Su 12:00-21:30; We off", "operator": "Van Tien Nguyen", "phone": "+49 40 57261664", "source": "website", "website": "https://www.tienasiahamburg.de"}}, {"type": "way", "id": 175468220, "center": {"lat": 53.639851, "lon": 9.9467751}, "nodes": [11787592239, 9391782943, 9391751490, 9391782944, 9391782945, 9391782946, 11787592234, 9391782950, 11787592238, 9391782951, 11787592240, 11787592231, 11787592230, 11787592229, 11787592241, 11787592239], "tags": {"addr:city": "Hamburg", "addr:country": "DE", "addr:housenumber": "11", "addr:postcode": "22455", "addr:street": "Nordalbingerweg", "addr:suburb": "Niendorf", "brand": "Penny", "brand:wikidata": "Q284688", "brand:wikipedia": "en:Penny (supermarket)", "check_date:opening_hours": "2025-04-21", "indoor": "room", "level": "0", "name": "PENNY", "opening_hours": "Mo-Sa 07:00-21:00; PH off", "operator": "Penny-Markt GmbH", "room": "shop", "shop": "supermarket", "source": "website", "website": "https://www.penny.de/marktsuche/", "wheelchair": "yes"}}, {"type": "way", "id": 309592890, "center": {"lat": 53.6324613, "lon": 9.9103328}, "nodes": [8032510512, 3149271604, 3149271605, 3149271606, 8032510509, 8032510512], "tags": {"addr:city": "Hamburg", "addr:housenumber": "1-3", "addr:postcode": "22457", "addr:street": "Pinneberger Stra\u00dfe", "amenity": "fuel", "brand": "Aral", "brand:wikidata": "Q565734", "brand:wikipedia": "en:Aral AG", "building": "commercial", "building:levels": "1", "compressed_air": "yes", "fuel:diesel": "yes", "fuel:octane_95": "yes", "fuel:octane_98": "yes", "name": "Aral", "opening_hours": "24/7", "roof:levels": "0", "roof:shape": "flat", "wheelchair": "limited"}}, {"type": "way", "id": 330837338, "center": {"lat": 53.6413469, "lon": 9.9168063}, "nodes": [3378424906, 11937536099, 3378424901, 3378424900, 3378424897, 2469157335, 3378424906], "tags": {"addr:city": "Hamburg", "addr:housenumber": "173", "addr:postcode": "22457", "addr:street": "Schleswiger Damm", "amenity": "fuel", "brand": "Aral", "brand:wikidata": "Q565734", "brand:wikipedia": "en:Aral AG", "building": "yes", "compressed_air": "yes", "name": "Aral", "opening_hours": "24/7", "wheelchair": "yes"}}, {"type": "way", "id": 332180207, "center": {"lat": 53.6248519, "lon": 9.9099185}, "nodes": [3392949008, 3392949007, 3392949000, 3392949001, 3392949006, 3392949008], "tags": {"addr:city": "Hamburg", "addr:housenumber": "182", "addr:postcode": "22457", "addr:street": "Holsteiner Chaussee", "amenity": "fuel", "brand": "Star", "brand:wikidata": "Q2031095", "brand:wikipedia": "de:Orlen Deutschland", "building": "retail", "compressed_air": "yes", "fuel:HGV_diesel": "yes", "fuel:diesel": "yes", "fuel:e10": "yes", "fuel:lpg": "yes", "fuel:octane_95": "yes", "fuel:octane_98": "yes", "name": "Star", "opening_hours": "Mo-Su 06:00-22:00", "roof:shape": "flat"}}]