[{"type": "node", "id": 523283733, "lat": 53.559557, "lon": 9.8864397, "tags": {"brand": "REWE", "brand:wikidata": "Q16968817", "check_date:opening_hours": "2025-04-15", "name": "A. Glasmeyer", "opening_hours": "Mo-Sa 08:00-20:00", "opening_hours:signed": "no", "payment:american_express": "yes", "payment:cash": "yes", "payment:cryptocurrencies": "no", "payment:electronic_purses": "no", "payment:girocard": "yes", "payment:maestro": "yes", "payment:mastercard": "yes", "payment:v_pay": "yes", "payment:visa": "yes", "shop": "supermarket", "website": "https://www.glasco.de", "wheelchair": "yes"}}, {"type": "node", "id": 982699802, "lat": 53.5680043, "lon": 9.8890414, "tags": {"check_date": "2024-05-16", "check_date:opening_hours": "2024-05-25", "currency:EUR": "yes", "internet_access": "no", "name": "Kiosk&Backshop", "opening_hours": "Mo-Fr 06:00-20:00; Sa 08:00-18:00; Su 12:00-17:00", "opening_hours:signed": "no", "organic": "no", "payment:cash": "yes", "payment:credit_cards": "yes", "payment:debit_cards": "yes", "shop": "convenience", "toilets": "no", "toilets:wheelchair": "no", "wheelchair": "no"}}, {"type": "node", "id": 1482107948, "lat": 53.5591789, "lon": 9.8857008, "tags": {"brand": "ServiceStore DB", "brand:wikidata": "Q84482517", "check_date:opening_hours": "2025-04-15", "name": "ServiceStore DB", "opening_hours": "Mo-Fr 05:00-20:00; Sa,Su,PH off", "payment:cash": "yes", "payment:girocard": "yes", "shop": "convenience", "wheelchair": "no"}}, {"type": "node", "id": 1588109760, "lat": 53.570102, "lon": 9.8761116, "tags": {"amenity": "fuel", "brand": "bft", "brand:wikidata": "Q1009104", "brand:wikipedia": "de:Bundesverband freier Tankstellen", "check_date": "2025-02-16", "check_date:opening_hours": "2025-02-16", "compressed_air": "yes", "fuel:diesel": "yes", "fuel:e10": "yes", "fuel:lpg": "yes", "fuel:octane_95": "yes", "fuel:octane_98": "yes", "mapillary": "1948836275281752", "name": "bft", "opening_hours": "Mo-Fr 07:00-21:00; Sa 08:00-20:00; Su 09:00-20:00", "shop": "yes", "wheelchair": "yes"}}, {"type": "node", "id": 1613188119, "lat": 53.5595478, "lon": 9.8813442, "tags": {"addr:city": "Hamburg", "addr:country": "DE", "addr:housenumber": "32", "addr:postcode": "22607", "addr:street": "Waitzstra\u00dfe", "check_date:opening_hours": "2025-04-15", "contact:phone": "+49 40 8993638", "contact:website": "http://natuerlich-naturkost.de/", "name": "Natrlich-Naturkost Sass", "opening_hours": "Mo-Fr 08:30-18:00; Sa 08:00-13:00", "opening_hours:signed": "no", "organic": "yes", "payment:credit_cards": "no", "payment:debit_cards": "yes", "shop": "convenience", "wheelchair": "yes"}}, {"type": "node", "id": 1613188299, "lat": 53.5595688, "lon": 9.8818334, "tags": {"amenity": "fast_food", "brand": "vomFASS", "brand:wikidata": "Q2533008", "indoor_seating": "yes", "name": "Jayjay's Bowls, Juices & more", "opening_hours": "Mo-Fr 11:30-19:30", "outdoor_seating": "yes", "wheelchair": "no"}}, {"type": "node", "id": 1728060693, "lat": 53.5704244, "lon": 9.8625914, "tags": {"addr:city": "Hamburg", "addr:country": "DE", "addr:housenumber": "133-135", "addr:postcode": "22609", "addr:street": "Osdorfer Landstra\u00dfe", "amenity": "fast_food", "brand": "Nordsee", "brand:wikidata": "Q74866", "brand:wikipedia": "en:Nordsee", "check_date": "2024-02-18", "contact:fax": "+49 40 80783702", "contact:phone": "+49 40 80783700", "contact:website": "https://www.nordsee.com/de/filialen/detail/store/nordsee-hamburg-elbe-einkaufs-zentrum-207/", "cuisine": "seafood", "indoor_seating": "yes", "level": "0", "name": "Nordsee", "opening_hours": "Mo-Sa 10:00-20:00; PH off", "outdoor_seating": "no", "smoking": "no", "takeaway": "yes", "wheelchair": "yes"}}, {"type": "node", "id": 2390101799, "lat": 53.5719877, "lon": 9.8634586, "tags": {"amenity": "fast_food", "check_date:opening_hours": "2025-04-12", "indoor_seating": "yes", "name": "elbe Kebap House", "opening_hours": "PH,Mo-Su 11:00-21:00", "opening_hours:signed": "no", "outdoor_seating": "yes", "wheelchair": "yes"}}, {"type": "node", "id": 3236967057, "lat": 53.5701661, "lon": 9.8645474, "tags": {"amenity": "fast_food", "brand": "Domino's", "brand:wikidata": "Q839466", "brand:wikipedia": "en:Domino's Pizza", "contact:email": "info@dominos.de", "contact:phone": "+49 40 80 99 440", "contact:website": "https://www.dominos.de/kaufhaus/dehh-hamburgosdorf-33751", "cuisine": "pizza", "delivery": "yes", "diet:vegetarian": "yes", "indoor_seating": "yes", "level": "0", "name": "Domino's", "opening_hours": "Mo-Su 11:00-23:00", "operator": "Domino's Pizza Deutschland GmbH", "outdoor_seating": "no", "smoking": "outside", "takeaway": "yes", "wheelchair": "yes"}}, {"type": "node", "id": 4530908845, "lat": 53.5724068, "lon": 9.853928, "tags": {"addr:city": "Hamburg", "addr:country": "DE", "addr:housenumber": "170-172", "addr:postcode": "22549", "addr:street": "Osdorfer Landstra\u00dfe", "amenity": "fuel", "brand": "JET", "brand:wikidata": "Q568940", "brand:wikipedia": "en:Jet (brand)", "compressed_air": "yes", "contact:phone": "+49 40 80783892", "contact:website": "https://www.jet-tankstellen.de/kraftstoff/filialfinder/XJ00590/", "fuel:GTL_diesel": "no", "fuel:diesel": "yes", "fuel:e10": "yes", "fuel:octane_95": "yes", "fuel:octane_98": "yes", "name": "JET", "opening_hours": "24/7", "operator": "JET Tankstellen Deutschland GmbH", "payment:cash": "yes", "payment:cryptocurrencies": "no", "payment:dkv": "yes", "payment:girocard": "yes", "payment:maestro": "yes", "payment:mastercard": "yes", "payment:uta": "yes", "payment:visa": "yes", "shop": "yes", "tenant": "Davoud Ghanbari", "wheelchair": "yes"}}, {"type": "node", "id": 5204621034, "lat": 53.5697839, "lon": 9.8770523, "tags": {"addr:city": "Hamburg", "addr:country": "DE", "addr:housenumber": "1", "addr:postcode": "22607", "addr:street": "Osdorfer Landstra\u00dfe", "amenity": "fuel", "brand": "Shell", "brand:wikidata": "Q154950", "brand:wikipedia": "en:Royal Dutch Shell", "compressed_air": "yes", "fuel:GTL_diesel": "yes", "fuel:diesel": "yes", "fuel:e10": "yes", "fuel:octane_100": "yes", "fuel:octane_95": "yes", "name": "Shell", "opening_hours": "24/7", "phone": "+49 40 826743", "self_service": "yes", "shop": "yes", "toilets": "yes", "website": "https://find.shell.com/de/fuel/10026999-hamburg-osdorfer-landstr-1/de_DE", "wheelchair": "yes"}}, {"type": "node", "id": 6178466312, "lat": 53.5691738, "lon": 9.8795827, "tags": {"addr:city": "Hamburg", "addr:housenumber": "2", "addr:postcode": "22607", "addr:street": "Osdorfer Landstra\u00dfe", "brand": "denn's Biomarkt", "brand:wikidata": "Q48883773", "brand:wikipedia": "de:Dennree", "check_date:opening_hours": "2025-02-16", "name": "denn's Biomarkt", "opening_hours": "Mo-Sa 08:00-20:00", "organic": "only", "phone": "+494085382898", "shop": "supermarket", "website": "https://www.denns-biomarkt.de", "wheelchair": "yes"}}, {"type": "node", "id": 9041974663, "lat": 53.57023, "lon": 9.8623876, "tags": {"amenity": "fast_food", "brand": "Subway", "brand:wikidata": "Q244457", "brand:wikipedia": "en:Subway (restaurant)", "contact:facebook": "https://www.facebook.com/subwaydeutschland", "contact:instagram": "https://www.instagram.com/subway_de/", "contact:twitter": "https://twitter.com/Subway_DE", "cuisine": "sandwich", "delivery": "no", "drive_through": "no", "indoor_seating": "yes", "level": "0", "name": "Subway", "opening_hours": "Mo-Sa 10:00-20:00; Su off", "outdoor_seating": "no", "phone": "+49 40 86624042", "smoking": "no", "takeaway": "yes", "website": "https://restaurants.subway.com/de/deutschland/hh/hamburg/osdorfer-landstr-131-135", "wheelchair": "yes"}}, {"type": "way", "id": 25027168, "center": {"lat": 53.5704105, "lon": 9.8769248}, "nodes": [272226041, 8849942028, 8849942027, 8849942029, 8849942030, 272226042, 272226043, 272226044, 272226045, 272226046, 272226047, 272226048, 272226041], "tags": {"addr:city": "Hamburg", "addr:country": "DE", "addr:housenumber": "8-10", "addr:postcode": "22607", "addr:street": "Osdorfer Landstra\u00dfe", "brand": "Lidl", "brand:wikidata": "Q151954", "brand:wikipedia": "en:Lidl", "building": "retail", "building:levels": "1", "check_date:opening_hours": "2025-02-16", "diet:halal": "yes", "name": "Lidl", "opening_hours": "Mo-Sa 07:00-21:00; Su,PH off", "roof:levels": "1", "roof:shape": "flat", "shop": "supermarket", "wheelchair": "yes"}}, {"type": "way", "id": 33872286, "center": {"lat": 53.5734669, "lon": 9.8462348}, "nodes": [388075101, 6708039918, 388075103, 1016735979, 1016735050, 1016735835, 388075114, 388075104, 388075105, 388075106, 388075107, 388075108, 388075109, 1016735661, 1016735958, 1016734730, 1016735138, 388075101], "tags": {"addr:city": "Hamburg", "addr:housenumber": "7", "addr:postcode": "22549", "addr:street": "Rugenbarg", "brand": "REWE", "brand:wikidata": "Q16968817", "brand:wikipedia": "en:REWE", "building": "retail", "building:levels": "1", "check_date:opening_hours": "2024-05-08", "name": "REWE", "opening_hours": "Mo-Sa 07:00-22:00", "operator": "REWE Markt GmbH", "phone": "+49 40 80781521", "roof:levels": "2", "roof:shape": "half-hipped", "shop": "supermarket", "website": "https://www.rewe.de/marktseite/hamburg/540725/rewe-markt-rugenbarg-7/", "wheelchair": "yes"}}, {"type": "way", "id": 42221927, "center": {"lat": 53.5656786, "lon": 9.8806392}, "nodes": [526079146, 3688347990, 3688347996, 526079268, 526079300, 526079330, 259716360, 1271994211, 526079409, 526079146], "tags": {"addr:city": "Hamburg", "addr:country": "DE", "addr:housenumber": "90", "addr:postcode": "22607", "addr:street": "Kalckreuthweg", "building": "retail", "building:levels": "1", "check_date:opening_hours": "2024-04-21", "name": "Glasmeyer im Landhaus", "opening_hours": "Mo-Sa 08:00-20:00", "roof:levels": "2", "roof:shape": "many", "shop": "supermarket", "wheelchair": "yes"}}, {"type": "way", "id": 50018370, "center": {"lat": 53.5726889, "lon": 9.8512478}, "nodes": [635356205, 635356209, 635356211, 635356214, 635356205], "tags": {"addr:city": "Hamburg", "addr:housenumber": "196", "addr:postcode": "22549", "addr:street": "Osdorfer Landstra\u00dfe", "air_conditioning": "no", "amenity": "fast_food", "brand": "Smiley's", "brand:wikidata": "Q60998945", "building": "yes", "cuisine": "pizza", "diet:vegan": "yes", "diet:vegetarian": "yes", "drive_through": "no", "indoor_seating": "no", "name": "Smiley's Pizza Profis Wedel", "opening_hours": "Mo-Su 11:00-23:00", "operator": "Smiley's Pizza Profis", "outdoor_seating": "no", "phone": "040 8708910", "takeaway": "only", "website": "https://www.smileys.de/bestellen/Hamburg-Blankenese", "wheelchair": "no"}}, {"type": "way", "id": 53063132, "center": {"lat": 53.5721623, "lon": 9.8622371}, "nodes": [671931630, 11263398541, 11263398544, 11263398539, 671931794, 671931733, 671931648, 671931630], "tags": {"addr:city": "Hamburg", "addr:housenumber": "118", "addr:postcode": "22549", "addr:street": "Osdorfer Landstra\u00dfe", "brand": "PENNY", "brand:wikidata": "Q284688", "brand:wikipedia": "en:Penny (supermarket)", "building": "retail", "building:levels": "3", "check_date:opening_hours": "2025-04-12", "level": "1", "name": "PENNY", "opening_hours": "Mo-Sa 07:00-22:00", "operator": "Penny Markt GmbH", "roof:shape": "flat", "shop": "supermarket", "wheelchair": "yes"}}, {"type": "way", "id": 53063144, "center": {"lat": 53.5696441, "lon": 9.8617614}, "nodes": [671931676, 6313202085, 4100646325, 671931670, 6314375479, 4100646324, 4100646321, 6313202088, 4100646322, 11608234837, 671931772, 671931808, 671931676], "tags": {"addr:city": "Hamburg", "addr:country": "DE", "addr:housenumber": "5a", "addr:postcode": "22609", "addr:street": "Julius-Brecht-Stra\u00dfe", "brand": "EDEKA", "brand:wikidata": "Q701755", "brand:wikipedia": "de:Edeka", "building": "retail", "building:levels": "3", "currency:EUR": "yes", "name": "EDEKA", "opening_hours": "Mo-Sa 08:00-21:00; PH off", "operator": "Volker Klein", "payment:cash": "yes", "payment:cryptocurrencies": "no", "payment:electronic_purses": "no", "payment:girocard": "yes", "payment:mastercard": "yes", "payment:visa": "yes", "roof:levels": "0", "roof:shape": "flat", "shop": "supermarket", "website": "https://edeka-volker-klein.de/", "wheelchair": "yes"}}, {"type": "way", "id": 57015709, "center": {"lat": 53.558691, "lon": 9.8871028}, "nodes": [711643238, 711643455, 711643220, 711644045, 711643785, 1281745562, 1281745366, 711643367, 711644170, 711643481, 1281745530, 1281745560, 711643238], "tags": {"addr:city": "Hamburg", "addr:country": "DE", "addr:housenumber": "5", "addr:postcode": "22605", "addr:street": "Statthalterplatz", "amenity": "fast_food", "building": "retail", "building:levels": "1", "check_date:opening_hours": "2025-04-15", "cuisine": "burger", "diet:vegan": "yes", "diet:vegetarian": "yes", "indoor_seating": "yes", "internet_access": "wlan", "internet_access:fee": "no", "name": "Jim Block Othmarschen", "opening_hours": "Su-Th 11:30-22:00, Fr,Sa 11:30-23:00", "outdoor_seating": "yes", "roof:shape": "flat", "smoking": "outside", "takeaway": "yes", "toilets": "yes", "toilets:wheelchair": "yes", "website": "https://www.jim-block.de/restaurants/othmarschen/", "wheelchair": "yes"}}, {"type": "way", "id": 84074340, "center": {"lat": 53.5693957, "lon": 9.877574}, "nodes": [978036459, 2117469107, 2117469106, 919804657, 2117469091, 2117469090, 919804626, 978036468, 2117469102, 2117469103, 978036459], "tags": {"addr:city": "Hamburg", "addr:country": "DE", "addr:housenumber": "1a", "addr:postcode": "22607", "addr:street": "Osdorfer Landstra\u00dfe", "brand": "Aldi", "brand:wikidata": "Q125054", "brand:wikipedia": "en:Aldi", "building": "retail", "building:levels": "1", "check_date": "2025-02-16", "check_date:opening_hours": "2025-02-16", "contact:website": "https://www.aldi-nord.de/tools/filialen-und-oeffnungszeiten/hamburg/gross-flottbek/osdorfer-landstrasse-1-a.html", "diet:halal": "yes", "name": "Aldi", "opening_hours": "Mo-Sa 07:00-21:00; PH off", "roof:levels": "1", "roof:shape": "flat", "shop": "supermarket", "wheelchair": "yes"}}, {"type": "way", "id": 112477995, "center": {"lat": 53.570734, "lon": 9.8721845}, "nodes": [1278334493, 1278334675, 1278334688, 1278334755, 1278334616, 1278334785, 1278334420, 1278334765, 3902503276, 1278334479, 1278334592, 1278334493], "tags": {"addr:city": "Hamburg", "addr:country": "DE", "addr:housenumber": "25", "addr:postcode": "22607", "addr:street": "Osdorfer Landstra\u00dfe", "amenity": "fast_food", "brand": "Burger King", "brand:wikidata": "Q177054", "brand:wikipedia": "en:Burger King", "building": "yes", "check_date": "2023-04-22", "check_date:opening_hours": "2024-05-04", "contact:phone": "+49 40 18233861", "contact:website": "https://www.burgerking.de/kingfinder/14155?id=1008", "cuisine": "burger", "indoor_seating": "yes", "name": "Burger King", "opening_hours": "Mo-Sa 10:30-22:00; Su 11:00-22:00", "outdoor_seating": "yes", "roof:shape": "flat", "takeaway": "yes", "wheelchair": "limited"}}, {"type": "way", "id": 112847477, "center": {"lat": 53.5591208, "lon": 9.886893}, "nodes": [6259722074, 6259722080, 6259722081, 1281745568, 711643922, 6259722079, 6259722078, 6259722076, 6259722074], "tags": {"addr:city": "Hamburg", "addr:country": "DE", "addr:housenumber": "4", "addr:postcode": "22605", "addr:street": "Statthalterplatz", "amenity": "fast_food", "building": "yes", "changing_table": "no", "cuisine": "kebab", "delivery": "yes", "diet:vegan": "yes", "diet:vegetarian": "yes", "indoor_seating": "yes", "name": "K&R Grillhouse", "opening_hours": "Mo-Sa 09:00-24:00; PH,Su 10:00-23:00", "outdoor_seating": "yes", "payment:credit_cards": "yes", "payment:debit_cards": "yes", "smoking": "outside", "takeaway": "yes", "toilets": "yes", "toilets:wheelchair": "yes", "website": "https://www.kr-grillhouse.de/", "wheelchair": "limited"}}, {"type": "way", "id": 251154992, "center": {"lat": 53.5701323, "lon": 9.8621709}, "nodes": [2574326170, 2574326168, 2574275423, 2573176895, 2573176909, 2573176905, 2574326170], "tags": {"amenity": "fast_food", "brand": "Burger King", "brand:wikidata": "Q177054", "brand:wikipedia": "en:Burger King", "building:part": "room", "cuisine": "burger", "indoor_seating": "yes", "level": "0", "name": "Burger King", "opening_hours": "Mo-Sa 10:00-20:00", "outdoor_seating": "no", "smoking": "no", "takeaway": "yes", "website": "https://www.burgerking.de/store-locator/store/restaurant_9180", "wheelchair": "yes"}}, {"type": "way", "id": 251154998, "center": {"lat": 53.570278, "lon": 9.8621372}, "nodes": [2574326190, 2574326188, 2574326184, 2574326186, 2574326190], "tags": {"amenity": "fast_food", "brand": "Pommesfreunde", "brand:wikidata": "Q117083946", "building:part": "room", "contact:phone": "+49 40 67598338", "contact:website": "https://pommesfreunde.de/", "cuisine": "fries", "indoor_seating": "yes", "level": "0", "name": "Pommesfreunde", "opening_hours": "Mo-Sa 10:00-20:00", "outdoor_seating": "no", "smoking": "no", "takeaway": "yes", "wheelchair": "yes"}}, {"type": "way", "id": 251155004, "center": {"lat": 53.5701921, "lon": 9.8625314}, "nodes": [2574326174, 2574326172, 2574326164, 2574326166, 2574326174], "tags": {"amenity": "fast_food", "brand": "Asia Hung", "brand:wikidata": "Q100406310", "buildingpart": "room", "cuisine": "asian", "indoor_seating": "yes", "level": "0", "name": "Asia Hung", "opening_hours": "Mo-Sa 10:00-20:00", "outdoor_seating": "no", "smoking": "no", "takeaway": "yes", "wheelchair": "yes"}}, {"type": "way", "id": 251155009, "center": {"lat": 53.570213, "lon": 9.8621371}, "nodes": [2574326182, 2574326180, 2574326168, 2574326170, 2574326182], "tags": {"amenity": "fast_food", "building:part": "room", "check_date": "2025-04-16", "cuisine": "sushi", "indoor_seating": "yes", "level": "0", "name": "Chaya", "opening_hours": "Mo-Sa 11:30-20:00", "outdoor_seating": "no", "phone": "+494030390606", "smoking": "no", "wheelchair": "yes"}}, {"type": "way", "id": 251155013, "center": {"lat": 53.5702597, "lon": 9.8625312}, "nodes": [2574326174, 2574326172, 2574326192, 2574326194, 2574326174], "tags": {"amenity": "fast_food", "brand": "Chutney Indian Food", "buildingpart": "room", "cuisine": "indian", "indoor_seating": "yes", "level": "0", "name": "Chutney Indian Food", "opening_hours": "Mo-Sa 10:00-20:00", "outdoor_seating": "no", "smoking": "no", "website": "https://www.chutney-food.de/hamburg-elbe-einkaufszentrum/", "wheelchair": "yes"}}, {"type": "way", "id": 251155025, "center": {"lat": 53.57015, "lon": 9.8624965}, "nodes": [2574326166, 2574326164, 2574326160, 2574326162, 2573176912, 2573176914, 2574326166], "tags": {"amenity": "fast_food", "brand": "immergr\u00fcn", "brand:wikidata": "Q62589254", "buildingpart": "room", "cuisine": "juice", "indoor_seating": "yes", "level": "0", "name": "immergr\u00fcn", "opening_hours": "Mo-Sa 10:00-20:00", "outdoor_seating": "no", "smoking": "no", "takeaway": "yes", "wheelchair": "yes"}}, {"type": "way", "id": 251168717, "center": {"lat": 53.570373, "lon": 9.8637493}, "nodes": [671931758, 671931817, 2574326216, 2574326214, 2573176932, 414655743, 2573176925, 671931761, 671931678, 3558313195, 671931812, 1124869090, 1124869202, 185453380, 671931758], "tags": {"addr:city": "Hamburg", "addr:country": "DE", "addr:housenumber": "131", "addr:postcode": "22609", "addr:street": "Osdorfer Landstra\u00dfe", "brand": "REWE", "brand:wikidata": "Q16968817", "brand:wikipedia": "de:Rewe", "building:levels": "3", "building:part": "yes", "buildingpart": "room", "contact:phone": "+49 40 2260360", "contact:website": "https://www.rewe.de/marktseite/hamburg-osdorf/540350/rewe-center-osdorfer-landstr-131/", "level": "0", "name": "REWE", "opening_hours": "Mo-Sa 08:00-21:00; PH off", "roof:levels": "0", "roof:shape": "flat", "shop": "supermarket", "wheelchair": "yes"}}]