[{"type": "node", "id": 253029096, "lat": 53.5761024, "lon": 9.8133718, "tags": {"addr:city": "Hamburg", "addr:country": "DE", "addr:housenumber": "19", "addr:postcode": "22589", "addr:street": "Heidrehmen", "brand": "EDEKA", "brand:wikidata": "Q701755", "contact:phone": "+49 40 872964", "contact:website": "https://www.edeka.de/eh/nord/frischemarkt-eisenmann-frommholz-heidrehmen-19/index.jsp", "name": "Edeka", "opening_hours": "Mo- Fr 07:00-13:00, 14:30-18:00; Sa 07:00-13:00; PH off", "shop": "supermarket", "wheelchair": "limited"}}, {"type": "node", "id": 1811289832, "lat": 53.5763773, "lon": 9.8201785, "tags": {"addr:city": "Hamburg", "addr:country": "DE", "addr:housenumber": "13", "addr:postcode": "22589", "addr:street": "S\u00fclldorfer Landstra\u00dfe", "check_date": "2023-12-29", "contact:phone": "+49 40 86693540", "contact:website": "https://www.erdkorn.de/filialen/erdkorn-hamburg-iserbrook/", "name": "Erdkorn", "opening_hours": "Mo-Fr 09:00-19:00; Sa 09:00-16:00; PH off", "organic": "only", "shop": "supermarket", "wheelchair": "yes", "wheelchair:description": "Zugang vom P-Platz ohne Stufen, Keine Stufen im Markt"}}, {"type": "node", "id": 6175011618, "lat": 53.5807785, "lon": 9.7952368, "tags": {"amenity": "fast_food", "cuisine": "asian", "name": "Asia Pham"}}, {"type": "node", "id": 12005735163, "lat": 53.5778316, "lon": 9.8096363, "tags": {"brand": "REWE To Go", "brand:wikidata": "Q85224313", "name": "REWE To Go", "opening_hours": "24/7", "shop": "convenience"}}, {"type": "way", "id": 23693615, "center": {"lat": 53.580589, "lon": 9.7977356}, "nodes": [256568539, 256568540, 256568541, 256568542, 256568543, 1244652967, 6449058500, 256568545, 256568546, 256568539], "tags": {"addr:city": "Hamburg", "addr:country": "DE", "addr:housenumber": "188", "addr:postcode": "22589", "addr:street": "S\u00fclldorfer Landstra\u00dfe", "brand": "Lidl", "brand:wikidata": "Q151954", "brand:wikipedia": "en:Lidl", "building": "supermarket", "check_date:opening_hours": "2025-05-09", "name": "Lidl", "opening_hours": "Mo-Sa 07:00-21:00; PH closed", "shop": "supermarket", "wheelchair": "yes"}}, {"type": "way", "id": 108487785, "center": {"lat": 53.5800074, "lon": 9.8020744}, "nodes": [1244653162, 1244653264, 3657340040, 3657340034, 3657340024, 3657340026, 10758338684, 1244653113, 1244653491, 3657340029, 3657340030, 3657340042, 3657340043, 1244653550, 2166027844, 2166027843, 1244653162], "tags": {"addr:city": "Hamburg", "addr:country": "DE", "addr:housenumber": "160", "addr:postcode": "22589", "addr:street": "S\u00fclldorfer Landstra\u00dfe", "brand": "Aldi Nord", "brand:wikidata": "Q41171373", "building": "yes", "name": "Aldi", "opening_hours": "Mo-Sa 08:00-20:00", "shop": "supermarket", "website": "https://www.aldi-nord.de/filialen-und-oeffnungszeiten.html/l/hamburg/sulldorfer-landstrasse-158-162/3182403", "wheelchair": "yes"}}, {"type": "way", "id": 155167744, "center": {"lat": 53.5757302, "lon": 9.8245449}, "nodes": [353943106, 6986417878, 6986417879, 6986417880, 6986417881, 6986417882, 6986417883, 6986417874, 6986417875, 6986417876, 6986417877, 6986417884, 6986425585, 6986425586, 6986425587, 6986417871, 829901381, 353943101, 569460167, 829901077, 353943104, 353943106], "tags": {"addr:city": "Hamburg", "addr:housenumber": "403", "addr:postcode": "22589", "addr:street": "Osdorfer Landstra\u00dfe", "brand": "Lidl", "brand:wikidata": "Q151954", "building": "supermarket", "name": "Lidl", "opening_hours": "Mo-Sa 07:00-21:00; PH closed", "shop": "supermarket", "wheelchair": "yes"}}, {"type": "way", "id": 173506676, "center": {"lat": 53.581224, "lon": 9.8097613}, "nodes": [1843037841, 1843037843, 6817585184, 1843037842, 1843037840, 1843037841], "tags": {"addr:city": "Hamburg", "addr:country": "DE", "addr:housenumber": "2b", "addr:postcode": "22589", "addr:street": "Op'n Hainholt", "brand": "Nahkauf", "brand:wikidata": "Q57515238", "building": "yes", "building:levels": "1", "contact:phone": "+49 40 43267967", "contact:website": "https://www.nahkauf.de/maerkte/hamburg-41611819-nuray-karol-op-n-hainholt-2b", "name": "Nahkauf Karol", "opening_hours": "Mo-Sa 07:00-20:00; Su 08:00-12:00; PH off", "operator": "Nuray Karol", "roof:shape": "flat", "shop": "supermarket", "wheelchair": "limited"}}, {"type": "way", "id": 892417913, "center": {"lat": 53.577894, "lon": 9.8095162}, "nodes": [5462690721, 8294411254, 8294411253, 832461276, 5462690725, 5462690721], "tags": {"amenity": "fuel", "brand": "Aral", "brand:wikidata": "Q565734", "compressed_air": "yes", "fuel:1_25": "no", "fuel:1_50": "no", "fuel:GTL_diesel": "yes", "fuel:HGV_diesel": "no", "fuel:biodiesel": "no", "fuel:biogas": "no", "fuel:cng": "no", "fuel:diesel": "yes", "fuel:e10": "yes", "fuel:e85": "no", "fuel:electricity": "no", "fuel:lpg": "no", "fuel:octane_100": "no", "fuel:octane_102": "yes", "fuel:octane_91": "no", "fuel:octane_95": "yes", "fuel:octane_98": "no", "landuse": "retail", "name": "Aral", "opening_hours": "24/7", "operator": "Daniela Lameyer", "phone": "+49 40 873813", "website": "https://www.aral.de/tankstelle/hamburg/suelldorfer_landstrasse/28133300.html", "wheelchair": "yes"}}]