[{"type": "node", "id": 985215261, "lat": 53.5817966, "lon": 9.7596481, "tags": {"addr:city": "Hamburg", "addr:country": "DE", "addr:housenumber": "16-19", "addr:postcode": "22559", "addr:street": "Wedeler Landstra\u00dfe", "brand": "REWE", "brand:wikidata": "Q16968817", "brand:wikipedia": "en:REWE", "check_date": "2025-06-29", "name": "REWE", "opening_hours": "Mo-Sa 07:00-22:00; PH off", "phone": "+49 40 81960090", "shop": "supermarket", "toilets:wheelchair": "no", "website": "https://www.rewe.de/marktseite/rewe-markt-hamburg-wedeler-landstra%C3%9Fe-16/", "wheelchair": "yes"}}, {"type": "node", "id": 985215273, "lat": 53.5823539, "lon": 9.7549086, "tags": {"addr:city": "Hamburg", "addr:country": "DE", "addr:housenumber": "52-56", "addr:postcode": "22559", "addr:street": "Wedeler Landstra\u00dfe", "alt_name": "Edeka", "brand": "EDEKA", "brand:wikidata": "Q701755", "check_date:opening_hours": "2025-01-25", "name": "EDEKA Schlemmer Markt Struve", "opening_hours": "Mo-Fr 08:00-20:00; Sa 08:00-18:00; PH off", "phone": "+49 40 818610", "shop": "supermarket", "website": "https://edeka-struve.de/de/home", "wheelchair": "yes"}}, {"type": "node", "id": 985216777, "lat": 53.5815992, "lon": 9.7546565, "tags": {"amenity": "fast_food", "cuisine": "burger", "name": "Burger Lounge", "opening_hours": "Mo-Fr 11:00-23:00; Sa,Su 13:00-23:00"}}, {"type": "node", "id": 1334359099, "lat": 53.5818928, "lon": 9.7563502, "tags": {"amenity": "fast_food", "cuisine": "turkish", "name": "Mir", "opening_hours": "Mo-Su 11:30-20:30", "toilets:wheelchair": "no", "wheelchair": "no"}}, {"type": "node", "id": 1334359100, "lat": 53.5817791, "lon": 9.7546392, "tags": {"addr:city": "Hamburg", "addr:country": "DE", "addr:housenumber": "53f", "addr:postcode": "22559", "addr:street": "Rissener Dorfstra\u00dfe", "amenity": "fast_food", "check_date": "2025-06-29", "cuisine": "pizza", "email": "muharrem_mor@live.de", "name": "Pizza Johlo", "opening_hours": "We 11:00-22:45", "operator": "Ayfer Mor", "phone": "+49 40 818185", "ref:vatin": "DE325627433", "website": "https://www.johlo-food.de"}}, {"type": "node", "id": 1334359103, "lat": 53.5826284, "lon": 9.7541776, "tags": {"addr:city": "Hamburg", "addr:country": "DE", "addr:housenumber": "58", "addr:postcode": "22559", "addr:street": "Wedeler Landstra\u00dfe", "amenity": "fast_food", "brand": "Domino's", "brand:wikidata": "Q839466", "brand:wikipedia": "en:Domino's Pizza", "check_date": "2025-06-29", "contact:email": "info@dominos.de", "contact:phone": "+49 40 8 19 98 10", "contact:website": "https://www.dominos.de/kaufhaus/dehh-hamburgrissen-33806", "cuisine": "pizza", "delivery": "yes", "name": "Domino's", "opening_hours": "Mo-Su 11:00-23:00", "takeaway": "yes", "wheelchair": "yes"}}, {"type": "node", "id": 2153657219, "lat": 53.5823353, "lon": 9.7555964, "tags": {"addr:city": "Hamburg", "addr:country": "DE", "addr:housenumber": "23", "addr:postcode": "22559", "addr:street": "Am Rissener Bahnhof", "brand": "Alnatura", "brand:wikidata": "Q876811", "brand:wikipedia": "en:Alnatura", "check_date": "2024-08-11", "contact:phone": "+49 40 68877904", "contact:website": "hhttps://www.alnatura.de/de-de/maerkte/marktseiten/hamburg/hamburg-alnatura-super-natur-markt-hh087/", "name": "Alnatura Super Natur Markt", "opening_hours": "Mo-Sa 08:00-20:00; PH off", "organic": "only", "shop": "supermarket", "short_name": "Alnatura", "wheelchair": "yes"}}, {"type": "node", "id": 4984199972, "lat": 53.5813738, "lon": 9.7538801, "tags": {"brand": "Penny", "brand:wikidata": "Q284688", "brand:wikipedia": "en:Penny (supermarket)", "name": "Penny", "opening_hours": "Mo-Sa 07:00-22:00", "shop": "supermarket", "toilets:wheelchair": "no", "wheelchair": "yes"}}, {"type": "node", "id": 9983954520, "lat": 53.5810714, "lon": 9.7636297, "tags": {"amenity": "fuel", "brand": "Esso", "brand:wikidata": "Q867662", "brand:wikipedia": "en:Esso", "name": "Esso", "opening_hours": "Mo-Fr 06:00-22:00; Sa 07:00-21:00; Su 08:00-21:00", "toilets:wheelchair": "no", "wheelchair": "limited"}}, {"type": "node", "id": 12961589437, "lat": 53.5826528, "lon": 9.7559203, "tags": {"name": "Dnipro Markt", "opening_hours": "Mo-Sa 10:00-19:00", "payment:credit_cards": "yes", "payment:debit_cards": "yes", "shop": "supermarket"}}, {"type": "node", "id": 12961596546, "lat": 53.5818575, "lon": 9.7549069, "tags": {"amenity": "fast_food", "name": "Asia Mekong", "opening_hours": "Mo-Th 11:00-21:00; Fr,Sa 11:00-21:30; Su,PH 12:00-21:00"}}, {"type": "node", "id": 12961617768, "lat": 53.581701, "lon": 9.7546678, "tags": {"amenity": "fast_food", "cuisine": "kebab", "name": "Rissener D\u00f6ner Pavillon", "payment:credit_cards": "no", "payment:debit_cards": "no"}}]