[{"type": "node", "id": 253238282, "lat": 53.6289767, "lon": 10.0231052, "tags": {"addr:city": "Hamburg", "addr:housenumber": "43", "addr:postcode": "22335", "addr:street": "Erdkampsweg", "brand": "Penny", "brand:wikidata": "Q284688", "brand:wikipedia": "en:Penny (supermarket)", "check_date": "2024-10-13", "name": "Penny", "opening_hours": "Mo-Sa 07:00-22:00", "payment:american_express": "yes", "payment:cash": "yes", "payment:mastercard": "yes", "payment:payback_pay": "yes", "payment:visa": "yes", "shop": "supermarket", "website": "https://www.penny.de/markt/hamburg/530022/penny-erdkampsweg-erdkampsweg-43", "wheelchair": "yes"}}, {"type": "node", "id": 287705465, "lat": 53.6125391, "lon": 10.025185, "tags": {"addr:city": "Hamburg", "addr:country": "DE", "addr:housenumber": "8", "addr:postcode": "22297", "addr:street": "Alsterdorfer Markt", "brand": "EDEKA", "brand:wikidata": "Q701755", "check_date:opening_hours": "2024-07-25", "drink:club-mate": "yes", "email": "info@edeka-ecks.de", "fax": "+49 40 50090233", "name": "EDEKA", "opening_hours": "Mo-Sa 07:00-21:00", "operator": "Gabriele Ecks", "phone": "+49 40 50090459", "shop": "supermarket", "website": "https://www.edeka-ecks.de/", "wheelchair": "yes"}}, {"type": "node", "id": 288249885, "lat": 53.6124106, "lon": 10.024801, "tags": {"addr:city": "Hamburg", "addr:country": "DE", "addr:housenumber": "4", "addr:postcode": "22297", "addr:street": "Alsterdorfer Markt", "brand": "ALDI Nord", "brand:wikidata": "Q41171373", "check_date:opening_hours": "2025-06-28", "contact:website": "https://www.aldi-nord.de/filialen-und-oeffnungszeiten.html/l/hamburg/alsterdorfer-markt-4/3182025", "name": "Aldi", "opening_hours": "PH off; Mo-Sa 07:00-21:00", "operator": "Aldi GmbH & Co. KG", "shop": "supermarket", "wheelchair": "yes"}}, {"type": "node", "id": 788452552, "lat": 53.6271582, "lon": 10.0239819, "tags": {"addr:city": "Hamburg", "addr:housenumber": "9-11", "addr:postcode": "22335", "addr:street": "Hummelsb\u00fctteler Landstra\u00dfe", "branch": "Schlemmermarkt Struve", "brand": "EDEKA", "brand:wikidata": "Q701755", "brand:wikipedia": "de:Edeka", "check_date:opening_hours": "2022-12-04", "fax": "+49 40 502302", "name": "EDEKA", "opening_hours": "Mo-Sa 08:00-20:00", "operator": "Struve GmbH", "phone": "+49 40 503641", "shop": "supermarket", "website": "https://edeka-struve.de/de/marktdetailseite/schlemmer-markt-struve-in-fuhlsbuettel-6", "wheelchair": "yes"}}, {"type": "node", "id": 1149418654, "lat": 53.6284727, "lon": 10.0237924, "tags": {"addr:city": "Hamburg", "addr:housenumber": "35a", "addr:postcode": "22335", "addr:street": "Erdkampsweg", "amenity": "fast_food", "check_date": "2023-06-04", "cuisine": "kebab", "drive_through": "no", "name": "Kebab For Friends", "opening_hours": "Mo-Su 11:00-22:00", "operator": "Inan Kilinc", "phone": "+49 40 52385505", "website": "https://www.kebabforfriends-food.de", "wheelchair": "limited"}}, {"type": "node", "id": 1805471320, "lat": 53.6266249, "lon": 10.0235743, "tags": {"amenity": "fast_food", "check_date": "2025-06-02", "contact:email": "info@reisprinzennord.de", "contact:instagram": "reisprinzen", "contact:phone": "+49 40 61192397", "cuisine": "sushi", "delivery": "yes", "drive_through": "no", "name": "Reisprinzen", "opening_hours": "Mo-Fr 11:30-22:00; Sa,Su,PH 14:00-22:00", "takeaway": "yes", "website": "https://www.reisprinzen.de/hamburg-nord/", "wheelchair": "yes"}}, {"type": "node", "id": 2368202023, "lat": 53.6331079, "lon": 10.0062238, "tags": {"addr:city": "Hamburg", "addr:country": "DE", "addr:housenumber": "1-3", "addr:postcode": "22335", "addr:street": "Flughafenstra\u00dfe", "amenity": "fast_food", "check_date": "2024-10-24", "check_date:opening_hours": "2024-10-24", "drink:club-mate": "yes", "indoor_seating": "yes", "name": "scoom", "opening_hours:signed": "no", "outdoor_seating": "no", "phone": "+49 40 50752506", "toilets:wheelchair": "yes", "wheelchair": "yes"}}, {"type": "node", "id": 3709765890, "lat": 53.628016, "lon": 10.0243272, "tags": {"addr:city": "Hamburg", "addr:housenumber": "29", "addr:postcode": "22335", "addr:street": "Erdkampsweg", "brand": "REWE", "brand:wikidata": "Q16968817", "brand:wikipedia": "de:Rewe", "check_date:opening_hours": "2024-08-30", "construction:shop": "supermarket", "name": "REWE City", "opening_hours": "Mo-Sa 07:00-22:00", "operator": "Rewe Ivica Pobric oHG", "phone": "+49 4050048254", "shop": "supermarket", "toilets:wheelchair": "no", "wheelchair": "yes"}}, {"type": "node", "id": 3710974982, "lat": 53.6326093, "lon": 10.0260714, "tags": {"addr:city": "Hamburg", "addr:housenumber": "10", "addr:postcode": "22339", "addr:street": "Kleekamp", "amenity": "fast_food", "cuisine": "kebab", "indoor_seating": "yes", "name": "Istanbul Kebabhaus", "opening_hours": "Mo-Fr 11:30-22:30; Sa 13:00-22:30; Su off", "operator": "Faruk Karaman", "outdoor_seating": "yes", "phone": "+49 40 55203991", "source": "https://hamburg.stadtbranchenbuch.com/7485825.html", "website": "https://www.istanbulkebab-hamburg.de/", "wheelchair": "limited"}}, {"type": "node", "id": 4525371821, "lat": 53.6304391, "lon": 10.0145736, "tags": {"amenity": "fast_food", "cuisine": "kebab", "name": "Esmeyeli D\u00f6ner"}}, {"type": "node", "id": 4734859753, "lat": 53.6304719, "lon": 10.014589, "tags": {"amenity": "fast_food", "name": "Gomo Grill", "toilets:wheelchair": "no", "wheelchair": "yes"}}, {"type": "node", "id": 4838840054, "lat": 53.6237427, "lon": 10.0137979, "tags": {"amenity": "fast_food", "diet:vegetarian": "yes", "name": "Hanse Bistro", "opening_hours": "Mo-Fr 11:00-14:00", "wheelchair": "no"}}, {"type": "node", "id": 4838845646, "lat": 53.6238052, "lon": 10.0134577, "tags": {"check_date": "2025-06-25", "name": "Hanse-Kiosk", "opening_hours": "Mo-Fr 05:30-19:00; Sa 06:00-19:00", "shop": "convenience", "wheelchair": "yes"}}, {"type": "node", "id": 10706440588, "lat": 53.6190776, "lon": 10.0146406, "tags": {"addr:city": "Hamburg", "addr:country": "DE", "addr:housenumber": "100", "addr:postcode": "22335", "addr:street": "Sengelmannstra\u00dfe", "brand": "EDEKA", "brand:wikidata": "Q701755", "check_date": "2024-08-07", "contact:fax": "+49 40 883651599", "contact:phone": "+49 40 883651580", "contact:website": "https://edeka-struve.de/schlemmer-markt-in-der-sengelmannstrasse", "name": "EDEKA", "opening_hours": "Mo-Sa 07:00-20:00; PH off", "operator": "Struve", "shop": "supermarket", "wheelchair": "yes"}}, {"type": "node", "id": 12285919361, "lat": 53.6312887, "lon": 10.0063061, "tags": {"amenity": "fast_food", "name": "Sashimi Sushi"}}, {"type": "way", "id": 97405668, "center": {"lat": 53.6281542, "lon": 10.0127215}, "nodes": [2081442435, 1128089742, 1128089728, 2081442425, 2081442422, 4837390553, 2081442423, 2081442421, 2081442424, 2081442429, 1128089727, 2081442432, 2081442433, 2081442434, 2081442435], "tags": {"addr:city": "Hamburg", "addr:country": "DE", "addr:housenumber": "535", "addr:postcode": "22335", "addr:street": "Alsterkrugchaussee", "brand": "Netto Marken-Discount", "brand:wikidata": "Q879858", "brand:wikipedia": "en:Netto Marken-Discount", "building": "retail", "building:levels": "1", "check_date:opening_hours": "2021-05-25", "name": "Netto Marken-Discount", "opening_hours": "Mo-Sa 07:00-22:00", "roof:shape": "gabled", "shop": "supermarket", "toilets:wheelchair": "no", "website": "https://www.netto-online.de/filialen/Hamburg/Alsterkrugchaussee-535/2395/", "wheelchair": "yes"}}, {"type": "way", "id": 115021354, "center": {"lat": 53.6210996, "lon": 10.0097856}, "nodes": [1301247486, 3190745623, 1301247196, 1599013821, 1301247594, 1301247486], "tags": {"addr:city": "Hamburg", "addr:housenumber": "431", "addr:postcode": "22335", "addr:street": "Alsterkrugchaussee", "amenity": "fuel", "brand": "Shell", "brand:wikidata": "Q110716465", "brand:wikipedia": "en:Royal Dutch Shell", "building": "yes", "compressed_air": "yes", "fuel:diesel": "yes", "fuel:e10": "yes", "fuel:lpg": "yes", "fuel:octane_100": "yes", "fuel:octane_95": "yes", "fuel:octane_98": "no", "name": "Shell", "opening_hours": "24/7", "source": "Bing"}}, {"type": "way", "id": 234159679, "center": {"lat": 53.6320978, "lon": 10.0270111}, "nodes": [2424579779, 2424579771, 2424579763, 2424579762, 2424579777, 7061674292, 2424579779], "tags": {"addr:city": "Hamburg", "addr:country": "DE", "addr:housenumber": "3", "addr:postcode": "22339", "addr:street": "Fuhlsb\u00fcttler Passage", "amenity": "fast_food", "brand": "Call a Pizza", "brand:wikidata": "Q1027107", "building": "retail", "cuisine": "pizza", "drive_through": "no", "name": "Call a Pizza", "opening_hours": "Mo-Su 11:00-23:00", "operator": "Call a Pizza (Ahmad Tamim Nabil)", "website": "https://www.call-a-pizza.de/hamburg_fuhlsbuettel"}}]