[{"type": "node", "id": 68424433, "lat": 53.6492729, "lon": 10.1638408, "tags": {"addr:housenumber": "6", "addr:street": "Claus-Ferck-Stra\u00dfe", "amenity": "fast_food", "name": "deFries express", "wheelchair": "no"}}, {"type": "node", "id": 539480803, "lat": 53.6502298, "lon": 10.1627591, "tags": {"access:covid19": "yes", "amenity": "fast_food", "check_date": "2023-07-08", "cuisine": "kebab", "drive_through:covid19": "no", "name": "Mega D\u00f6ner", "opening_hours": "PH,Mo-Su 12:00-24:00", "phone": "+49 40 70702986", "takeaway:covid19": "yes", "toilets:wheelchair": "no", "wheelchair": "no"}}, {"type": "node", "id": 841651287, "lat": 53.6479863, "lon": 10.1636295, "tags": {"access:covid19": "yes", "addr:city": "Hamburg", "addr:country": "DE", "addr:housenumber": "1", "addr:postcode": "22359", "addr:street": "Wei\u00dfe Rose", "check_date:opening_hours": "2024-12-13", "delivery:covid19": "yes", "drive_through:covid19": "no", "email": "info@frischemarkt-weisserose.de", "fax": "+49 40 24189910", "level": "0", "name": "Simon Frischemarkt", "opening_hours": "Mo-Fr 08:00-19:00; Sa 08:00-16:00; Su,PH off", "operator": "Anja und Heiko B\u00f6hmermann", "phone": "+49 40 2418990", "shop": "supermarket", "website": "https://frischemarkt-weisserose.de/", "wheelchair": "yes"}}, {"type": "node", "id": 901536388, "lat": 53.6478387, "lon": 10.1688097, "tags": {"brand": "Edeka", "brand:wikidata": "Q701755", "brand:wikipedia": "de:Edeka", "check_date:opening_hours": "2025-04-29", "name": "Edeka", "opening_hours": "Mo-Fr 08:00-20:00; Sa 07:00-20:00", "shop": "supermarket", "wheelchair": "yes"}}, {"type": "node", "id": 4842648823, "lat": 53.6473482, "lon": 10.1641677, "tags": {"addr:city": "Hamburg", "addr:country": "DE", "addr:housenumber": "6", "addr:postcode": "22359", "addr:street": "Groten Hoff", "check_date:opening_hours": "2023-12-29", "contact:phone": "+49 40 55619710", "contact:website": "https://www.erdkorn.de/filialen/erdkorn-hamburg-volksdorf/", "name": "Erdkorn", "opening_hours": "Mo-Fr 08:00-19:00; Sa 08:00-16:00; PH,Su off", "organic": "only", "shop": "supermarket", "wheelchair": "yes"}}, {"type": "node", "id": 5385223129, "lat": 53.6504959, "lon": 10.1659428, "tags": {"amenity": "fast_food", "check_date": "2023-09-03", "name": "Bistro", "wheelchair": "yes"}}, {"type": "node", "id": 5909547417, "lat": 53.6513487, "lon": 10.1629843, "tags": {"addr:city": "Hamburg", "addr:country": "DE", "addr:housenumber": "1c", "addr:postcode": "22359", "addr:street": "Kattjahren", "check_date": "2024-12-06", "contact:phone": "+49 40 35985103", "contact:website": "https://www.ohnegedoenshamburg.de/", "name": "Ohne Ged\u00f6ns", "opening_hours": "Mo-Tu 09:00-18:30; We 09:00-14:30; Th-Fr 09:00-18:30; Sa 09:30-14:30; PH off", "shop": "supermarket", "wheelchair": "yes", "zero_waste": "only"}}, {"type": "node", "id": 6314466841, "lat": 53.6487152, "lon": 10.167325, "tags": {"addr:city": "Hamburg", "addr:country": "DE", "addr:housenumber": "2", "addr:postcode": "22359", "addr:street": "Wiesenh\u00f6fen", "amenity": "fast_food", "cuisine": "kebab", "name": "Bizim D\u00f6ner"}}, {"type": "way", "id": 26683100, "center": {"lat": 53.6526706, "lon": 10.1872844}, "nodes": [292638443, 1119207470, 2427916775, 1119207424, 292638444, 2427916771, 2427916770, 292638445, 2427916760, 2427916759, 2427916757, 2427916754, 1119207502, 1119207420, 2427916750, 1119207496, 2427916753, 2427916756, 2427916758, 2091632842, 292638443], "tags": {"addr:city": "Hamburg", "addr:country": "DE", "addr:housenumber": "94", "addr:postcode": "22359", "addr:street": "Buchenkamp", "brand": "Aldi", "brand:wikidata": "Q125054", "brand:wikipedia": "en:Aldi", "building": "retail", "name": "Aldi", "opening_hours": "Mo-Sa 07:00-21:00", "shop": "supermarket", "wheelchair": "yes"}}, {"type": "way", "id": 30143273, "center": {"lat": 53.6474863, "lon": 10.16131}, "nodes": [332176553, 2122527297, 332176555, 11366003347, 332176468, 332176471, 332176473, 7282070889, 332176475, 332176478, 332176480, 332176553], "tags": {"addr:city": "Hamburg", "addr:housenumber": "21", "addr:postcode": "22359", "addr:street": "Groten Hoff", "brand": "Netto Marken-Discount", "brand:wikidata": "Q879858", "brand:wikipedia": "de:Netto Marken-Discount", "building": "commercial", "building:colour": "#f9ff80", "building:levels": "2", "building:material": "plaster", "height": "8", "name": "Netto Marken-Discount", "opening_hours": "Mo-Sa 07:00-22:00", "roof:colour": "gray", "roof:shape": "flat", "shop": "supermarket", "website": "https://www.netto-online.de/filialen/Hamburg/Groten-Hoff-21/2055/", "wheelchair": "yes"}}, {"type": "way", "id": 71589230, "center": {"lat": 53.6548571, "lon": 10.1750557}, "nodes": [851497948, 851497951, 851497919, 851497954, 851497948], "tags": {"addr:city": "Hamburg", "addr:country": "DE", "addr:housenumber": "49", "addr:postcode": "22359", "addr:street": "Ahrensburger Weg", "building": "yes", "name": "G\u00fcltepe Market", "opening_hours": "Mo-Fr 08:00-18:00; Sa 08:00-13:00", "shop": "convenience", "wheelchair": "no"}}, {"type": "way", "id": 71881868, "center": {"lat": 53.6518818, "lon": 10.1649165}, "nodes": [854329178, 3671866229, 854329148, 854329157, 2683930844, 2683930843, 854329159, 2683930839, 2683930837, 854329163, 3671865317, 854329178], "tags": {"brand": "Lidl", "brand:wikidata": "Q151954", "brand:wikipedia": "en:Lidl", "building": "supermarket", "check_date": "2023-07-08", "name": "Lidl", "shop": "supermarket", "toilets:wheelchair": "no", "wheelchair": "yes"}}, {"type": "way", "id": 262738504, "center": {"lat": 53.6517775, "lon": 10.1643858}, "nodes": [2683930847, 2683930842, 2683930836, 2683930834, 2683930835, 2683930847], "tags": {"addr:housenumber": "31", "addr:street": "Claus-Ferck-Stra\u00dfe", "amenity": "fuel", "brand": "Shell", "brand:wikidata": "Q154950", "brand:wikipedia": "en:Royal Dutch Shell", "check_date": "2023-07-08", "compressed_air": "yes", "fuel:GTL_diesel": "yes", "fuel:diesel": "yes", "fuel:e10": "yes", "fuel:octane_100": "yes", "fuel:octane_95": "yes", "name": "Shell", "operator": "Shell Deutschland Oil GmbH", "wheelchair": "yes"}}, {"type": "way", "id": 1382415576, "center": {"lat": 53.6477223, "lon": 10.1707238}, "nodes": [1078590606, 12798800240, 12798800242, 12798800241, 12798800244, 840456473, 11281777389, 11281777388, 12798800243, 1078590600, 1078590606], "tags": {"amenity": "fuel", "brand": "Shell", "car_wash": "yes", "check_date": "2025-04-11", "compressed_air": "yes", "name": "Shell", "operator": "Shell"}}]