[{"type": "node", "id": 476565555, "lat": 53.7075547, "lon": 10.1100833, "tags": {"addr:city": "Hamburg", "addr:housenumber": "48", "addr:postcode": "22397", "addr:street": "Duvenstedter Damm", "amenity": "fuel", "brand": "Hoyer", "check_date": "2022-10-28", "contact:phone": "+49 40 6070310", "fuel:biogas": "no", "fuel:cng": "no", "fuel:diesel": "yes", "fuel:electricity": "no", "fuel:gasoline": "no", "fuel:lpg": "no", "fuel:octane_95": "yes", "fuel:octane_98": "yes", "fuel:propane": "yes", "internet_access": "no", "name": "Hoyer Tank-Treff Hamburg-Duvenstedt", "note": "Propane/Butan 95/5", "opening_hours": "24/7", "payment:american_express": "no", "payment:cash": "yes", "payment:coins": "no", "payment:credit_cards": "yes", "payment:girocard": "yes", "payment:mastercard": "yes", "payment:visa": "yes", "self_service": "yes", "wheelchair": "limited"}}, {"type": "node", "id": 2176840165, "lat": 53.7046586, "lon": 10.1040745, "tags": {"brand": "Lidl", "brand:wikidata": "Q151954", "brand:wikipedia": "en:Lidl", "name": "Lidl", "opening_hours": "Mo-Sa 08:00-21:00", "shop": "supermarket", "wheelchair": "yes"}}, {"type": "node", "id": 12230458912, "lat": 53.7080784, "lon": 10.1086973, "tags": {"amenity": "fast_food", "cuisine": "kebab", "name": "D\u00f6ner Platz"}}, {"type": "way", "id": 32468681, "center": {"lat": 53.686842, "lon": 10.0931086}, "nodes": [8664210594, 365022275, 365022225, 8664210593, 8664210592, 8664210591, 8664210590, 8664210589, 8664210588, 8664210587, 8664210586, 8664210585, 8664210594], "tags": {"addr:city": "Hamburg", "addr:country": "DE", "addr:housenumber": "60a", "addr:postcode": "22397", "addr:street": "Tannenhof", "brand": "Edeka", "brand:wikidata": "Q701755", "building": "retail", "contact:phone": "+49 40 6080024", "name": "Edeka Radtke", "opening_hours": "Mo-Sa 07:30-21:00", "shop": "supermarket", "wheelchair": "yes"}}, {"type": "way", "id": 32871103, "center": {"lat": 53.6711367, "lon": 10.1252588}, "nodes": [370262583, 11734208816, 2685292141, 11734208817, 2685292145, 489258761, 370262584, 1077039678, 1077039668, 1077039599, 370262585, 489258764, 370262586, 2685292122, 11734208819, 11734208821, 11734208820, 11734208818, 11734208815, 370262583], "tags": {"addr:housenumber": "271", "addr:postcode": "22395", "addr:street": "Volksdorfer Damm", "brand": "EDEKA", "brand:wikidata": "Q701755", "brand:wikipedia": "de:Edeka", "building": "apartments", "building:levels": "1", "name": "Edeka", "opening_hours": "Mo-Sa 07:00-20:00", "operator": "Jessen", "roof:levels": "2", "roof:shape": "gabled", "shop": "supermarket", "wheelchair": "yes"}}, {"type": "way", "id": 32871279, "center": {"lat": 53.6783638, "lon": 10.1441921}, "nodes": [370265839, 7677305480, 1549614542, 1549614550, 3914808327, 3914808323, 370265840, 1549614539, 1549614537, 1549614526, 370265841, 370265842, 370265839], "tags": {"brand": "ALDI Nord", "brand:wikidata": "Q41171373", "brand:wikipedia": "en:Aldi", "building": "supermarket", "building:levels": "1", "name": "ALDI Nord", "opening_hours": "Mo-Sa 08:00-21:00", "operator": "Aldi", "shop": "supermarket", "wheelchair": "yes"}}, {"type": "way", "id": 40151410, "center": {"lat": 53.671431, "lon": 10.1262243}, "nodes": [483410830, 1077290842, 483410833, 483410835, 483410841, 483410830], "tags": {"addr:city": "Hamburg", "addr:country": "DE", "addr:housenumber": "270", "addr:postcode": "22395", "addr:street": "Volksdorfer Damm", "building": "yes", "name": "Kaufhaus Hillmer", "opening_hours": "Mo-Fr 09:00-18:00; Sa 09:00-13:00", "shop": "convenience", "website": "https://www.kaufhaus-hillmer.de/", "wheelchair": "no"}}, {"type": "way", "id": 40665927, "center": {"lat": 53.673744, "lon": 10.1317938}, "nodes": [493914828, 493508199, 1077594746, 493914830, 493914828], "tags": {"addr:city": "Hamburg", "addr:country": "DE", "addr:housenumber": "175", "addr:postcode": "22395", "addr:street": "Bergstedter Chaussee", "building": "retail", "operator": "JET", "shop": "convenience"}}, {"type": "way", "id": 53857037, "center": {"lat": 53.7082966, "lon": 10.1073775}, "nodes": [679987063, 679987064, 679987054, 679987056, 679987730, 679987733, 679987735, 679987063], "tags": {"addr:city": "Hamburg", "addr:country": "DE", "addr:housenumber": "49 / 51", "addr:postcode": "22397", "addr:street": "Duvenstedter Damm", "building": "yes", "name": "Nahkauf", "opening_hours": "Mo-Sa 07:00-20:00", "shop": "supermarket"}}, {"type": "way", "id": 141094750, "center": {"lat": 53.678944, "lon": 10.1453327}, "nodes": [1544548352, 7677305478, 1544548380, 2075216639, 2075216638, 1544548416, 1544548395, 2075216651, 2075216642, 1544548352], "tags": {"addr:city": "Ammersbek", "addr:country": "DE", "addr:housenumber": "2-6", "addr:postcode": "22949", "addr:street": "Ferdinand-Harten-Stra\u00dfe", "brand": "Lidl", "brand:wikidata": "Q151954", "brand:wikipedia": "en:Lidl", "building": "supermarket", "building:colour": "white", "building:levels": "1", "building:material": "metal", "building:wall:material": "plaster", "name": "Lidl", "opening_hours": "Mo-Sa 08:00-21:00", "roof:colour": "maroon", "roof:material": "roof_tiles", "roof:shape": "gabled", "shop": "supermarket", "wheelchair": "yes"}}, {"type": "way", "id": 151043928, "center": {"lat": 53.7035792, "lon": 10.1047764}, "nodes": [1638877990, 1638877989, 1638877988, 1638877991, 3376294437, 3376294434, 3376294433, 1638877993, 1638877990], "tags": {"addr:city": "Hamburg", "addr:country": "DE", "addr:housenumber": "45, 47 a/b", "addr:postcode": "22397", "addr:street": "Poppenb\u00fctteler Chaussee", "brand": "REWE", "brand:wikidata": "Q16968817", "brand:wikipedia": "de:Rewe", "building": "yes", "check_date:opening_hours": "2023-04-17", "internet_access": "no", "name": "REWE", "opening_hours": "Mo-Sa 07:00-22:00", "shop": "supermarket", "wheelchair": "limited"}}, {"type": "way", "id": 999858391, "center": {"lat": 53.6736104, "lon": 10.131569}, "nodes": [488236836, 498817380, 498817378, 498816535, 488236836], "tags": {"addr:city": "Hamburg", "addr:housenumber": "175", "addr:postcode": "22395", "addr:street": "Bergstedter Chaussee", "amenity": "fuel", "brand": "JET", "brand:wikidata": "Q568940", "compressed_air": "no", "contact:phone": "+49 40 60449219", "contact:website": "https://www.jet-tankstellen.de/tankstellen/hamburg/bergstedter-chaussee-175/", "fuel:diesel": "yes", "fuel:e10": "yes", "fuel:lpg": "yes", "fuel:octane_95": "yes", "fuel:octane_98": "yes", "landuse": "retail", "name": "JET", "opening_hours": "Mo-Fr 05:00-23:00, Sa,Su 06:00-23:00", "operator": "ConocoPhillips Germany GmbH", "payment:connected_fueling": "yes", "payment:dkv": "yes", "payment:jet_card": "yes", "payment:logpay": "yes", "payment:novofleet": "yes", "payment:uta": "yes"}}]