[{"type": "node", "id": 308187558, "lat": 53.6445731, "lon": 10.012707, "tags": {"addr:city": "Hamburg", "addr:housenumber": "141", "addr:postcode": "22415", "addr:street": "Langenhorner Chaussee", "amenity": "fuel", "branch": "star", "brand": "star", "brand:wikidata": "Q109930371", "check_date": "2025-05-23", "check_date:compressed_air": "2025-05-23", "compressed_air": "yes", "fuel:diesel": "yes", "fuel:diesel_B": "yes", "fuel:e10": "yes", "fuel:lpg": "yes", "fuel:octane_91": "yes", "fuel:octane_95": "yes", "fuel:octane_98": "yes", "name": "star", "opening_hours": "24/7", "operator": "Ferhat T\u00fcreme", "phone": "+49 40 53320399", "wheelchair": "yes"}}, {"type": "node", "id": 454619034, "lat": 53.646179, "lon": 10.0121032, "tags": {"addr:city": "Hamburg", "addr:housenumber": "159", "addr:postcode": "22415", "addr:street": "Langenhorner Chaussee", "amenity": "fast_food", "brand": "Smiley's", "brand:wikidata": "Q60998945", "cuisine": "pizza;burger;sandwich;salad", "diet:vegetarian": "yes", "name": "Smiley's Pizza Profis Langenhorn", "opening_hours": "Su-Th 11:00-23:00; Fr,Sa 11:00-24:00", "phone": "+49 40 5314344", "takeaway": "only", "website": "https://www.smileys.de/bestellen/Hamburg-Langenhorn", "wheelchair": "limited"}}, {"type": "node", "id": 473403379, "lat": 53.6503264, "lon": 10.0174609, "tags": {"amenity": "fuel", "brand": "OIL!", "brand:wikidata": "Q2007561", "brand:wikipedia": "de:OIL! Tankstellen", "check_date": "2024-10-08", "compressed_air": "yes", "fuel:diesel": "yes", "fuel:e10": "yes", "fuel:octane_91": "yes", "fuel:octane_95": "yes", "fuel:octane_98": "yes", "indoor": "yes", "mapillary": "1536898040037330", "name": "OIL!", "wheelchair": "limited"}}, {"type": "node", "id": 735409821, "lat": 53.6497349, "lon": 10.0140161, "tags": {"amenity": "fast_food", "cuisine": "kebab;chicken;turkish", "delivery": "Mo-We 14:00-21:00;Fr-Su 14:00-21:00", "name": "Reina", "opening_hours": "Mo-Sa 10:00-21:00, Su 11:00-21:00", "payment:cash": "yes", "payment:cryptocurrencies": "no", "payment:electronic_purses": "no", "payment:girocard": "yes", "payment:maestro": "yes", "payment:mastercard": "yes", "payment:v_pay": "yes", "payment:visa": "yes", "phone": "+49 40 53035897", "smoking": "no", "takeaway": "yes", "website": "https://www.restaurantreinahamburg.de/", "wheelchair": "yes"}}, {"type": "node", "id": 1304228770, "lat": 53.6704968, "lon": 10.0204907, "tags": {"amenity": "fast_food", "wheelchair": "yes"}}, {"type": "node", "id": 1304569150, "lat": 53.6483656, "lon": 10.0155145, "tags": {"amenity": "fast_food", "cuisine": "kebab", "indoor_seating": "yes", "name": "Dein D\u00f6ner", "opening_hours": "Mo-Fr 08:30-22:30; Sa 09:15-22:00; Su 09:30-22:00", "outdoor_seating": "yes", "wheelchair": "yes"}}, {"type": "node", "id": 1304569168, "lat": 53.6491746, "lon": 10.0169815, "tags": {"brand": "U-Store", "brand:wikidata": "Q113290511", "name": "U-Store", "shop": "convenience", "wheelchair": "no"}}, {"type": "node", "id": 2400335825, "lat": 53.6497741, "lon": 10.01612, "tags": {"addr:city": "Hamburg", "addr:housenumber": "4", "addr:postcode": "22415", "addr:street": "Krohnstieg", "amenity": "fast_food", "cuisine": "kebab", "level": "0", "name": "Kaya", "opening_hours": "Mo-Sa 07:00-22:00; PH off", "opening_hours:signed": "no", "toilets:wheelchair": "no", "wheelchair": "yes"}}, {"type": "node", "id": 3501644367, "lat": 53.6784436, "lon": 10.0017207, "tags": {"addr:city": "Hamburg", "addr:country": "DE", "addr:housenumber": "666", "addr:postcode": "22419", "addr:street": "Langenhorner Chaussee", "brand": "REWE", "brand:wikidata": "Q16968817", "brand:wikipedia": "en:REWE", "check_date:opening_hours": "2025-03-04", "contact:phone": "+49 40 53104054", "contact:website": "https://www.rewe.de/marktseite/rewe-markt-hamburg-langenhorner-chaussee-666", "currency:EUR": "yes", "internet_access": "wlan", "internet_access:fee": "no", "name": "REWE", "opening_hours": "Mo-Sa 07:00-22:00; PH off", "operator": "REWE Axel Flentje oHG", "organic": "yes", "payment:american_express": "yes", "payment:cash": "yes", "payment:coins": "yes", "payment:contactless": "yes", "payment:credit_cards": "yes", "payment:debit_cards": "yes", "payment:girocard": "yes", "payment:mastercard": "yes", "payment:visa": "yes", "phone": "+49 40 53104054", "shop": "supermarket", "toilets:wheelchair": "yes", "wheelchair": "yes"}}, {"type": "node", "id": 3703816760, "lat": 53.6601542, "lon": 10.002543, "tags": {"addr:city": "Hamburg", "addr:housenumber": "391", "addr:postcode": "22419", "addr:street": "Langenhorner Chaussee", "amenity": "fast_food", "brand": "Papa John's", "brand:wikidata": "Q2759586", "check_date": "2022-11-27", "cuisine": "pizza", "delivery": "yes", "diet:vegan": "yes", "diet:vegetarian": "yes", "drive_through": "no", "name": "Papa John's", "opening_hours": "Mo-Fr 11:00-23:00; PH,Sa,Su 13:00-23:00", "operator": "Papa John's", "phone": "+49 4055869969", "takeaway": "only", "website": "https://www.papajohns.de/papa-johns-hamburg/", "wheelchair": "limited"}}, {"type": "node", "id": 3808222329, "lat": 53.6488474, "lon": 10.0160707, "tags": {"addr:city": "Hamburg", "addr:housenumber": "47", "addr:postcode": "22415", "addr:street": "Tangstedter Landstra\u00dfe", "name": "Jahreszeiten Markt", "shop": "convenience"}}, {"type": "node", "id": 3942110721, "lat": 53.6817074, "lon": 9.9987589, "tags": {"addr:city": "Norderstedt", "addr:country": "DE", "addr:housenumber": "2b", "addr:postcode": "22848", "addr:street": "Am Tarpenufer", "amenity": "fast_food", "cuisine": "kebab", "name": "Kapadokya D\u00f6ner", "wheelchair": "yes"}}, {"type": "node", "id": 3942165409, "lat": 53.6822355, "lon": 9.9970408, "tags": {"addr:city": "Norderstedt", "addr:housenumber": "8", "addr:postcode": "22848", "addr:street": "Ohechaussee", "amenity": "fast_food", "name": "Croquerie Norderstedt"}}, {"type": "node", "id": 3954261597, "lat": 53.6783005, "lon": 10.001015, "tags": {"addr:city": "Hamburg", "addr:country": "DE", "addr:housenumber": "662", "addr:postcode": "22419", "addr:street": "Langenhorner Chaussee", "amenity": "fast_food", "name": "Kebab Lounge", "opening_hours": "Mo-Th 10:00-22:00; Fr,Sa 10:00-23:00; Su 10:00-22:00", "wheelchair": "yes"}}, {"type": "node", "id": 4067286736, "lat": 53.6822998, "lon": 9.998038, "tags": {"addr:city": "Norderstedt", "addr:country": "DE", "addr:housenumber": "1a", "addr:postcode": "22848", "addr:street": "Ohechaussee", "amenity": "fast_food", "name": "Asia Linh Chi", "opening_hours": "Mo-Fr 11:30-20:00; Sa,Su,PH 12:00-20:00", "payment:credit_cards": "no", "payment:debit_cards": "no"}}, {"type": "node", "id": 4067286739, "lat": 53.6822935, "lon": 9.9972119, "tags": {"name": "Phin Thai Asia Shop", "opening_hours": "Mo-Fr 09:00-19:00; Sa 09:00-16:00", "shop": "convenience"}}, {"type": "node", "id": 4106443491, "lat": 53.6485249, "lon": 10.0163835, "tags": {"addr:city": "Hamburg", "addr:housenumber": "40", "addr:postcode": "22415", "addr:street": "Tangstedter Landstra\u00dfe", "check_date": "2022-11-25", "name": "Kaya Markt", "opening_hours": "Mo-Sa 07:00-20:00", "phone": "+49 40 53320192", "shop": "supermarket", "wheelchair": "no"}}, {"type": "node", "id": 4338567954, "lat": 53.6813337, "lon": 9.9983255, "tags": {"addr:city": "Norderstedt", "addr:housenumber": "3-5", "addr:postcode": "22848", "addr:street": "Am Tarpenufer", "brand": "Alnatura", "brand:wikidata": "Q876811", "brand:wikipedia": "en:Alnatura", "check_date:opening_hours": "2024-09-18", "diet:halal": "no", "diet:kosher": "no", "level": "0", "name": "Alnatura Super Natur Markt", "opening_hours": "Mo-Sa 07:00-20:00", "organic": "only", "phone": "+49 40 51310025", "shop": "supermarket", "short_name": "Alnatura", "website": "https://www.alnatura.de/de-de/maerkte/marktseiten/norderstedt/norderstedt-alnatura-super-natur-markt-se123/", "wheelchair": "yes"}}, {"type": "node", "id": 4338567964, "lat": 53.6812298, "lon": 9.9980452, "tags": {"addr:city": "Norderstedt", "addr:housenumber": "3-5", "addr:postcode": "22848", "addr:street": "Am Tarpenufer", "brand": "REWE", "brand:wikidata": "Q16968817", "brand:wikipedia": "en:REWE", "check_date:opening_hours": "2024-04-18", "diet:halal": "no", "diet:kosher": "no", "name": "REWE City", "opening_hours": "Mo-Sa 07:00-22:00", "operator": "REWE Markt GmbH", "phone": "+49 40 51312978", "shop": "supermarket", "website": "https://www.rewe.de/marktseite/norderstedt/531127/rewe-markt-am-tarpenufer-3-5/", "wheelchair": "yes"}}, {"type": "node", "id": 4557867747, "lat": 53.6489779, "lon": 10.0158669, "tags": {"amenity": "fast_food", "check_date": "2022-11-25", "cuisine": "burger", "drive_through": "no", "email": "info@jim-block.de", "indoor_seating": "yes", "name": "Jim Block", "opening_hours": "Su-Th 11:30-22:00, Fr,Sa 11:30-23:00", "outdoor_seating": "yes", "phone": "+49 40 52732874", "takeaway": "yes", "website": "https://www.jim-block.de", "wheelchair": "yes"}}, {"type": "node", "id": 5820808964, "lat": 53.6591125, "lon": 10.0037029, "tags": {"addr:city": "Hamburg", "addr:housenumber": "370", "addr:postcode": "22419", "addr:street": "Langenhorner Chaussee", "amenity": "fast_food", "name": "Europa Food House", "opening_hours": "Mo-Sa 11:00-23:00; PH,Su 12:00-22:30"}}, {"type": "node", "id": 6125050167, "lat": 53.6499362, "lon": 10.0134993, "tags": {"brand": "Denns BioMarkt", "brand:wikidata": "Q48883773", "name": "Denns BioMarkt", "opening_hours": "Mo-Sa 08:00-20:00", "operator": "Dennree GmbH", "operator:wikidata": "Q1189641", "organic": "only", "payment:cards": "yes", "payment:cash": "yes", "phone": "+494068917232", "shop": "supermarket", "wheelchair": "limited"}}, {"type": "node", "id": 6125050175, "lat": 53.6500289, "lon": 10.0124552, "tags": {"amenity": "fast_food", "check_date:opening_hours": "2023-10-18", "cuisine": "turkish", "description:de": "Kumpir ist eine t\u00fcrkische Backkartoffelspezialit\u00e4t", "drive_through": "no", "level": "1", "name": "Miss Kumpir", "opening_hours": "Mo-Fr 11:00-19:00; Sa 11:00-17:00", "outdoor_seating": "yes", "smoking": "no", "takeaway": "yes", "toilets": "no", "wheelchair": "yes"}}, {"type": "node", "id": 6182226991, "lat": 53.6747185, "lon": 10.0268939, "tags": {"amenity": "fast_food", "cuisine": "kebab", "name": "Heidberg D\u00f6ner", "opening_hours": "Mo-Su 11:00-21:00", "wheelchair": "yes"}}, {"type": "node", "id": 7088243950, "lat": 53.6719248, "lon": 10.0002853, "tags": {"addr:city": "Hamburg", "addr:housenumber": "14b", "addr:postcode": "22419", "addr:street": "K\u00e4kenflur", "amenity": "fast_food", "brand": "Domino's", "brand:wikidata": "Q839466", "brand:wikipedia": "en:Domino's Pizza", "check_date": "2022-12-14", "cuisine": "pizza", "email": "info@dominos.de", "name": "Domino's", "opening_hours": "Su-Th 11:00-22:00; Fr-Sa 11:00-23:00", "phone": "+49 40 53908583", "takeaway": "yes", "website": "https://www.dominos.de/kaufhaus/de-hamburglangenhornnord-34044", "wheelchair": "yes"}}, {"type": "node", "id": 7792032377, "lat": 53.6491062, "lon": 10.0141866, "tags": {"brand": "EDEKA", "brand:wikidata": "Q701755", "brand:wikipedia": "de:Edeka", "check_date:opening_hours": "2022-11-25", "email": "hollender.nord@edeka.de", "level": "-1", "name": "Edeka Hollender", "opening_hours": "Mo-Sa 08:00-21:00", "operator": "HOLLENDER Krohnstieg KG", "phone": "+49 40 52572363", "shop": "supermarket", "website": "https://edekahollender.de"}}, {"type": "node", "id": 7855436558, "lat": 53.6490566, "lon": 10.0137462, "tags": {"amenity": "fast_food", "cuisine": "vietnamese", "level": "-1", "name": "VietWOK"}}, {"type": "node", "id": 7855436559, "lat": 53.6490446, "lon": 10.0135974, "tags": {"amenity": "fast_food", "level": "-1", "name": "Kaya"}}, {"type": "node", "id": 10230947318, "lat": 53.6651375, "lon": 9.9993401, "tags": {"description": "2022-12-01 Neuer\u00f6ffnung", "name": "Langenhorner Supermarket", "shop": "convenience"}}, {"type": "node", "id": 12618432626, "lat": 53.6500238, "lon": 10.0122291, "tags": {"addr:city": "Hamburg", "addr:housenumber": "11-13", "addr:postcode": "22415", "addr:street": "Langenhorner Chaussee", "brand": "Netto Marken-Discount", "brand:wikidata": "Q879858", "name": "Netto Marken-Discount", "opening_hours": "Mo-Sa 07:00-22:00", "shop": "supermarket"}}, {"type": "node", "id": 12650765071, "lat": 53.681658, "lon": 9.9956301, "tags": {"shop": "convenience"}}, {"type": "way", "id": 36902209, "center": {"lat": 53.6478839, "lon": 10.0100137}, "nodes": [429168902, 429168903, 429168904, 4558629367, 4558629364, 429168902], "tags": {"addr:city": "Hamburg", "addr:country": "DE", "addr:housenumber": "55", "addr:postcode": "22415", "addr:street": "Krohnstieg", "brand": "Lidl", "brand:wikidata": "Q151954", "brand:wikipedia": "en:Lidl", "building": "retail", "building:levels": "2", "check_date:opening_hours": "2024-08-13", "name": "Lidl", "opening_hours": "Mo-Sa 07:00-21:00", "roof:levels": "0", "roof:shape": "flat", "shop": "supermarket", "wheelchair": "yes"}}, {"type": "way", "id": 62169391, "center": {"lat": 53.6487298, "lon": 10.0167263}, "nodes": [775575993, 775575908, 6218953234, 6218953232, 6218953236, 6218953235, 3123665566, 775575925, 1044523478, 775575993], "tags": {"addr:city": "Hamburg", "addr:country": "DE", "addr:housenumber": "42", "addr:postcode": "22415", "addr:street": "Tangstedter Landstra\u00dfe", "brand": "EDEKA", "brand:wikidata": "Q701755", "brand:wikipedia": "de:Edeka", "building": "retail", "building:levels": "1", "check_date:opening_hours": "2022-11-25", "email": "hollender.nord@edeka.de", "name": "Edeka Hollender", "opening_hours": "Mo-Sa 06:00-22:00", "operator": "HOLLENDER Tangstedter Landstra\u00dfe KG", "phone": "+49 40 5316311", "roof:levels": "0", "roof:shape": "flat", "shop": "supermarket", "website": "https://edekahollender.de/", "wheelchair": "yes"}}, {"type": "way", "id": 74424252, "center": {"lat": 53.6835176, "lon": 10.0113876}, "nodes": [4408900717, 879551755, 4533681343, 879551886, 4165180999, 879551888, 4408900717], "tags": {"addr:city": "Norderstedt", "addr:housenumber": "69-71", "addr:postcode": "22850", "addr:street": "Segeberger Chaussee", "amenity": "fuel", "brand": "Shell", "brand:wikidata": "Q110716465", "brand:wikipedia": "en:Royal Dutch Shell", "building": "yes", "compressed_air": "yes", "fuel:diesel": "yes", "fuel:e10": "yes", "fuel:octane_95": "yes", "name": "Shell", "opening_hours": "24/7", "phone": "+49 40 5479065", "website": "https://find.shell.com/de/fuel/10024076-norderstedt-segeberger-chau"}}, {"type": "way", "id": 74874228, "center": {"lat": 53.6641919, "lon": 10.024631}, "nodes": [2468034908, 884305521, 884305634, 884305720, 2468034894, 884305764, 884305747, 884305502, 2468034910, 2468034908], "tags": {"addr:city": "Hamburg", "addr:country": "DE", "addr:housenumber": "234", "addr:postcode": "22417", "addr:street": "Tangstedter Landstra\u00dfe", "brand": "EDEKA", "brand:wikidata": "Q701755", "brand:wikipedia": "de:Edeka", "building": "yes", "check_date": "2022-12-14", "email": "roeper.nord@edeka.de", "name": "Edeka", "opening_hours": "Mo-Sa 08:00-20:00", "operator": "R\u00f6per", "phone": "+49 40 53048209", "shop": "supermarket"}}, {"type": "way", "id": 78266744, "center": {"lat": 53.6727796, "lon": 10.0286207}, "nodes": [919097840, 919097809, 919097780, 919097843, 919097901, 919097767, 919097893, 919097755, 919097840], "tags": {"addr:housenumber": "1", "addr:street": "Anita-Sellenschloh-Ring", "brand": "Netto Marken-Discount", "brand:wikidata": "Q879858", "brand:wikipedia": "de:Netto Marken-Discount", "building": "retail", "name": "Netto Marken-Discount", "opening_hours": "Mo-Sa 07:00-22:00", "shop": "supermarket", "website": "https://www.netto-online.de/filialen/Hamburg/Anita-Sellenschloh-Ring-1/7066/", "wheelchair": "yes"}}, {"type": "way", "id": 97335994, "center": {"lat": 53.6501765, "lon": 10.0163895}, "nodes": [1127255336, 6129126551, 6129126552, 1127255365, 6129126788, 1127255378, 1127255286, 6397144216, 2661799337, 2661799338, 266899249, 2661799340, 266899252, 2661799336, 1127255338, 1127255337, 6218953204, 6218953203, 737620244, 6218953202, 6218953201, 1304569132, 1304569134, 5969077991, 1127255327, 5969077990, 5969077992, 1127255287, 5969077993, 5969077994, 1127255336], "tags": {"addr:city": "Hamburg", "addr:country": "DE", "addr:housenumber": "70", "addr:postcode": "22415", "addr:street": "Eberhofweg", "brand": "Kaufland", "brand:wikidata": "Q685967", "brand:wikipedia": "en:Kaufland", "building": "retail", "building:levels": "1", "check_date:opening_hours": "2023-11-17", "contact:phone": "+49 40 530541990", "contact:website": "https://filiale.kaufland.de/service/filiale.storeName=DE6680.html", "name": "Kaufland", "opening_hours": "Mo-Sa 07:00-22:00; PH off", "operator": "Kaufland Vertrieb KDST GmbH & Co. KG", "roof:levels": "0", "shop": "supermarket", "wheelchair": "yes"}}, {"type": "way", "id": 112072664, "center": {"lat": 53.6837125, "lon": 10.0121695}, "nodes": [879551906, 1274889919, 1274889933, 1274889889, 1274889903, 1274889876, 1274889888, 1274889906, 879551906], "tags": {"addr:city": "Norderstedt", "addr:housenumber": "73-75", "addr:postcode": "22850", "addr:street": "Segeberger Chaussee", "brand": "PENNY", "brand:wikidata": "Q284688", "brand:wikipedia": "en:Penny (supermarket)", "building": "yes", "name": "PENNY", "opening_hours": "Mo-Fr 07:00-23:00", "payment:american_express": "yes", "payment:apple_pay": "yes", "payment:cash": "yes", "payment:coins": "yes", "payment:contactless": "yes", "payment:credit_cards": "yes", "payment:debit_cards": "yes", "payment:girocard": "yes", "payment:google_pay": "yes", "payment:maestro": "yes", "payment:mastercard": "yes", "payment:payback_pay": "yes", "payment:visa": "yes", "payment:visa_debit": "yes", "shop": "supermarket", "wheelchair": "yes"}}, {"type": "way", "id": 113081761, "center": {"lat": 53.6819946, "lon": 9.9994465}, "nodes": [1283455074, 1283455104, 1283455089, 1283455146, 1283455074], "tags": {"addr:city": "Norderstedt", "addr:housenumber": "3", "addr:postcode": "22848", "addr:street": "Schmuggelstieg", "building": "yes", "name": "S\u00f6nmez Markt", "shop": "supermarket", "wheelchair": "no"}}, {"type": "way", "id": 156295841, "center": {"lat": 53.6773716, "lon": 10.0006406}, "nodes": [1685663895, 1685663896, 1685663894, 1685663893, 1685663895], "tags": {"addr:housenumber": "647", "amenity": "fast_food", "building": "retail", "cuisine": "german", "delivery": "no", "drive_through": "no", "name": "Imbiss Ochsenzoll", "opening_hours": "Mo-Fr 08:00-18:00", "roof:shape": "hipped", "takeaway": "yes", "wheelchair": "yes"}}, {"type": "way", "id": 165518475, "center": {"lat": 53.682525, "lon": 10.0311824}, "nodes": [1770587373, 1770587374, 1770587375, 2578691908, 1770587376, 1770587373], "tags": {"addr:city": "Norderstedt", "addr:country": "DE", "addr:housenumber": "545-547", "addr:postcode": "22851", "addr:street": "Tangstedter Landstra\u00dfe", "alt_name": "schwarzer Netto", "brand": "Netto", "brand:wikidata": "Q552652", "brand:wikipedia": "da:Netto (supermarkedsk\u00e6de)", "building": "supermarket", "check_date:opening_hours": "2024-07-26", "name": "Netto", "opening_hours": "Mo-Sa 07:00-21:00; Su,PH off", "operator": "Netto ApS & Co. KG", "shop": "supermarket"}}, {"type": "way", "id": 179053327, "center": {"lat": 53.6807002, "lon": 9.9939825}, "nodes": [1893904297, 1893904336, 1893904362, 1893904358, 1893904389, 1893904367, 1893904369, 2573479007, 1893904370, 1893904360, 2573479004, 1893904297], "tags": {"addr:city": "Norderstedt", "addr:country": "DE", "addr:housenumber": "26", "addr:postcode": "22848", "addr:street": "Ohechaussee", "brand": "ALDI Nord", "brand:wikidata": "Q41171373", "brand:wikipedia": "en:Aldi", "building": "supermarket", "check_date": "2022-12-17", "name": "ALDI Nord", "opening_hours": "Mo-Sa 07:00-20:00; PH off", "shop": "supermarket", "wheelchair": "yes"}}, {"type": "way", "id": 204579181, "center": {"lat": 53.6602403, "lon": 10.0019884}, "nodes": [2145760150, 2145760129, 2145760127, 907176225, 2145760139, 2145760150], "tags": {"addr:city": "Hamburg", "addr:country": "DE", "addr:housenumber": "393", "addr:postcode": "22419", "addr:street": "Langenhorner Chaussee", "amenity": "fuel", "brand": "JET", "brand:wikidata": "Q568940", "brand:wikipedia": "en:Jet (brand)", "building": "yes", "compressed_air": "yes", "fuel:diesel": "yes", "fuel:octane_91": "yes", "fuel:octane_95": "yes", "fuel:octane_98": "yes", "name": "JET", "opening_hours": "24/7", "website": "https://www.jet-tankstellen.de/tankstellen/hamburg/langenhorner-chaussee-393/", "wheelchair": "yes"}}, {"type": "way", "id": 226284698, "center": {"lat": 53.6482258, "lon": 10.0058615}, "nodes": [2351381320, 2351381304, 2351381298, 5942826256, 2351381292, 2351381284, 2351381308, 2351381311, 2351381320], "tags": {"addr:city": "Hamburg", "addr:country": "DE", "addr:housenumber": "71", "addr:postcode": "22415", "addr:street": "Krohnstieg", "brand": "Total", "brand:wikidata": "Q154037", "building": "retail", "building:levels": "1", "name": "Total", "operator": "Total", "roof:levels": "0", "shop": "convenience"}}, {"type": "way", "id": 247909907, "center": {"lat": 53.6537226, "lon": 10.005421}, "nodes": [2547606499, 2547606502, 2547606498, 2547606509, 2547606511, 2547606520, 2547606522, 2547606525, 2547606536, 2547606526, 2547606518, 2547606508, 2547606506, 2547606504, 2547606500, 2547606501, 2547606499], "tags": {"addr:city": "Hamburg", "addr:country": "DE", "addr:housenumber": "287", "addr:postcode": "22415", "addr:street": "Langenhorner Chaussee", "amenity": "fast_food", "brand": "McDonald's", "brand:wikidata": "Q38076", "brand:wikipedia": "en:McDonald's", "building": "yes", "cuisine": "burger", "delivery": "yes", "diet:vegetarian": "yes", "drive_through": "yes", "email": "service@mcdonalds.de", "fax": "+49 40 53320395", "internet_access": "wlan", "internet_access:fee": "no", "name": "McDonald's", "opening_hours": "Mo-Th 07:00-01:00; Fr-Sa 07:00-02:00; Su 09:00-01:00", "operator": "Amend Restaurantbetrieb Langenhorner Chaussee GmbH & Co. KG", "outdoor_seating": "yes", "payment:cash": "yes", "payment:coins": "yes", "payment:contactless": "yes", "payment:credit_cards": "yes", "payment:debit_cards": "yes", "payment:girocard": "yes", "payment:mastercard": "yes", "payment:visa": "yes", "payment:visa_debit": "yes", "phone": "+49 40 53320394", "roof:shape": "flat", "takeaway": "yes", "toilets:wheelchair": "yes", "website": "https://www.mcdonalds.com/de/de-de/restaurant-suche.html/l/hamburg/langenhorner-chaussee-287/333", "wheelchair": "yes"}}, {"type": "way", "id": 251402946, "center": {"lat": 53.6713321, "lon": 10.0262862}, "nodes": [2576278855, 2576278849, 2576278847, 2576278851, 2576278855], "tags": {"building": "yes", "operator": "Jet", "shop": "convenience", "source": "survey;estimated"}}, {"type": "way", "id": 297798707, "center": {"lat": 53.6652991, "lon": 10.0007319}, "nodes": [3017037359, 9205427408, 9205427409, 3017037360, 8870268632, 3017037361, 3017037362, 3017037363, 3017037364, 9205427411, 9205427410, 3017037366, 3017037367, 3017037368, 3017037359], "tags": {"addr:city": "Hamburg", "addr:country": "DE", "addr:housenumber": "471", "addr:postcode": "22419", "addr:street": "Langenhorner Chaussee", "amenity": "fast_food", "brand": "Burger King", "brand:wikidata": "Q177054", "brand:wikipedia": "en:Burger King", "building": "retail", "check_date": "2022-12-14", "cuisine": "burger", "diet:vegetarian": "yes", "drive_through": "yes", "name": "Burger King", "opening_hours": "Su-Th 09:00-01:00; Fr-Sa 09:00-03:00", "operator": "DFM Nord GmbH & Co. KG", "outdoor_seating": "yes", "payment:cash": "yes", "payment:coins": "yes", "payment:credit_cards": "yes", "payment:debit_cards": "yes", "payment:girocard": "yes", "phone": "+49 40 46646253", "takeaway": "yes", "website": "https://www.burgerking.de/store-locator/store/restaurant_10364", "wheelchair": "limited", "wheelchair:description": "Keine Rolli-Parkpl\u00e4tze"}}, {"type": "way", "id": 366404776, "center": {"lat": 53.649772, "lon": 10.0098555}, "nodes": [3500076861, 3703804462, 3703804463, 775666730, 775592621, 775592589, 775666639, 775592595, 2551297227, 3703804464, 5896081898, 3500076861], "tags": {"addr:city": "Hamburg", "addr:housenumber": "216", "addr:postcode": "22415", "addr:street": "Langenhorner Chaussee", "amenity": "fuel", "brand": "Classic", "brand:wikidata": "Q33127117", "check_date": "2022-11-26", "fuel:adblue": "yes", "fuel:diesel": "yes", "fuel:e10": "yes", "fuel:lpg": "yes", "fuel:octane_95": "yes", "fuel:octane_98": "yes", "landuse": "retail", "name": "Classic", "opening_hours": "Mo-Fr 05:00-22:00; PH,Sa,Su 08:00-22:00", "operator": "L\u00fchmann Tankstellen GmbH & Co. KG.", "website": "https://www.classic-oil.de/tankstellen/classic-tankstelle-hamburg/"}}, {"type": "way", "id": 425415174, "center": {"lat": 53.661546, "lon": 10.0181306}, "nodes": [4247403376, 6330738738, 4247403377, 6330738739, 4247403378, 4247403379, 4247403376], "tags": {"addr:housenumber": "2", "addr:postcode": "22417", "addr:street": "Immenh\u00f6ven", "amenity": "fast_food", "building": "yes", "check_date": "2023-09-10", "name": "Croque H\u00fctte", "opening_hours": "Mo-Sa 17:00-22:00; PH,Su 12:00-22:00", "phone": "+494053326909", "website": "https://www.croque-langenhorn.de/", "wheelchair": "yes"}}, {"type": "way", "id": 545689478, "center": {"lat": 53.67268, "lon": 10.0013473}, "nodes": [5273792462, 7086558377, 5273792461, 5273792460, 5273792455, 5273792454, 5273792459, 5273792457, 5273792458, 5273792462], "tags": {"addr:city": "Hamburg", "addr:country": "DE", "addr:housenumber": "579", "addr:postcode": "22419", "addr:street": "Langenhorner Chaussee", "brand": "ALDI Nord", "brand:wikidata": "Q41171373", "brand:wikipedia": "en:Aldi", "building": "retail", "building:levels": "1", "check_date": "2022-11-26", "currency:EUR": "yes", "name": "ALDI Nord", "opening_hours": "Mo-Sa 07:00-21:00; PH off", "operator": "ALDI GmbH & Co. KG Essen", "organic": "yes", "payment:cash": "yes", "payment:coins": "yes", "payment:contactless": "yes", "payment:credit_cards": "yes", "payment:debit_cards": "yes", "payment:girocard": "yes", "payment:maestro": "yes", "payment:mastercard": "yes", "payment:v_pay": "yes", "payment:visa": "yes", "payment:visa_debit": "yes", "roof:shape": "flat", "shop": "supermarket", "website": "https://www.aldi-nord.de/tools/filialen-und-oeffnungszeiten/hamburg/langenhorn/langenhorner-chaussee-579.html"}}, {"type": "way", "id": 629487898, "center": {"lat": 53.6483108, "lon": 10.0060268}, "nodes": [3491147229, 5942826259, 5942826254, 5942826262, 5942826276, 3491147227, 5942826267, 5942826257, 5942826258, 2351381284, 2351381292, 5942826256, 2351381301, 2351381302, 5942826255, 2351381312, 5942826263, 5942826266, 3491147229], "tags": {"addr:city": "Hamburg", "addr:housenumber": "71-75", "addr:postcode": "22415", "addr:street": "Krohnstieg", "amenity": "fuel", "brand": "Total", "brand:wikidata": "Q154037", "check_date": "2025-05-23", "check_date:compressed_air": "2025-05-23", "compressed_air": "yes", "fax": "+49 40 5324158", "fuel:GTL_diesel": "yes", "fuel:HGV_diesel": "yes", "fuel:diesel": "yes", "fuel:e10": "yes", "fuel:octane_100": "yes", "fuel:octane_98": "yes", "landuse": "retail", "name": "Total", "opening_hours": "Mo-Fr 05:00-23:00; Sa 06:00-23:00; PH,Su 07:00-23:00", "phone": "+49 40 5319690", "website": "https://store.totalenergies.de/de_DE/ND037028", "wheelchair": "yes"}}, {"type": "way", "id": 664443207, "center": {"lat": 53.6489497, "lon": 10.0169339}, "nodes": [6218953233, 775592597, 3123665567, 4970915929, 3123665566, 6218953235, 6218953236, 6218953232, 6218953233], "tags": {"addr:housenumber": "44", "addr:street": "Tangstedter Landstra\u00dfe", "amenity": "fast_food", "building": "retail", "cuisine": "kebab", "delivery": "yes", "indoor_seating": "yes", "name": "Istasyon", "outdoor_seating": "yes", "payment:cash": "yes", "payment:cryptocurrencies": "no", "payment:electronic_purses": "no", "payment:girocard": "yes", "payment:maestro": "yes", "payment:mastercard": "yes", "payment:v_pay": "yes", "payment:visa": "yes", "smoking": "outside", "takeaway": "yes", "wheelchair": "yes"}}, {"type": "way", "id": 1118039306, "center": {"lat": 53.6711722, "lon": 10.026206}, "nodes": [10225450844, 10225450845, 10225450846, 10225450847, 10225450848, 2652930911, 2652930951, 10225450844], "tags": {"addr:city": "Hamburg", "addr:housenumber": "433", "addr:postcode": "22417", "addr:street": "Tangstedter Landstra\u00dfe", "amenity": "fuel", "brand": "JET", "brand:wikidata": "Q568940", "compressed_air": "yes", "diesel": "yes", "fuel:diesel": "yes", "fuel:lpg": "no", "fuel:octane_91": "yes", "fuel:octane_95": "yes", "fuel:octane_98": "yes", "landuse": "retail", "name": "JET", "opening_hours": "24/7", "operator": "Jet", "website": "https://www.jet-tankstellen.de/tankstellen/hamburg/tangstedter-landstrasse-433", "wheelchair": "limited"}}, {"type": "way", "id": 1266548358, "center": {"lat": 53.6675497, "lon": 10.0030247}, "nodes": [11764145167, 11764145168, 11764158875, 11764158869, 10942451244, 1834678335, 11764145167], "tags": {"access": "customers", "amenity": "fast_food", "building": "yes", "diet:halal": "yes", "diet:vegetarian": "yes", "drive_through": "no", "fast_food": "cafeteria", "name": "Schulmensa", "operator": "Schule Neubergerweg"}}]