[{"type": "node", "id": 26113228, "lat": 53.468391, "lon": 9.9923474, "tags": {"amenity": "fuel", "brand": "Hoyer", "brand:wikidata": "Q1606119", "compressed_air": "yes", "contact:phone": "+49 40 76621613", "fuel:HGV_diesel": "yes", "fuel:adblue": "yes", "fuel:diesel": "yes", "fuel:lpg": "yes", "fuel:octane_95": "yes", "fuel:octane_98": "yes", "fuel:propane": "yes", "name": "Hoyer Tank-Treff Harburg", "opening_hours": "Mo-Fr 06:00-21:00; Sa 07:00-15:00", "operator": "Wilhelm Hoyer GmbH & Co.KG", "payment:cash": "yes", "payment:cryptocurrencies": "no", "payment:dkv": "yes", "payment:electronic_purses": "no", "payment:girocard": "yes", "payment:maestro": "yes", "payment:mastercard": "yes", "payment:uta": "yes"}}, {"type": "node", "id": 245564422, "lat": 53.4582281, "lon": 9.9809377, "tags": {"addr:city": "Hamburg", "addr:housenumber": "14", "addr:postcode": "21073", "addr:street": "Bremer Stra\u00dfe", "amenity": "fast_food", "brand": "Yoko", "contact:email": "yokosushi-harburg@hotmail.com", "contact:facebook": "https://de-de.facebook.com/yoko.deutschland", "contact:instagram": "https://instagram.com/yoko_sushi_deutschland/", "contact:phone": "+49 40 80007169", "cuisine": "sushi", "delivery": "yes", "name": "Yoko Sushi Harburg", "opening_hours": "Mo-Fr 11:00-22:00, Sa,Su 12:00-22:00", "phone": "+49 40 800 07169", "takeaway": "yes", "website": "https://www.yoko.de/reservierung-sushi-hamburg-harburg/", "wheelchair": "no"}}, {"type": "node", "id": 288025446, "lat": 53.4518356, "lon": 9.9842496, "tags": {"addr:city": "Hamburg", "addr:housenumber": "10", "addr:postcode": "21073", "addr:street": "Au\u00dfenm\u00fchlenweg", "brand": "Penny", "brand:wikidata": "Q284688", "name": "Penny Au\u00dfenm\u00fchle", "opening_hours": "Mo-Sa 7:00-22:00", "shop": "supermarket", "wheelchair": "yes"}}, {"type": "node", "id": 291167140, "lat": 53.4561239, "lon": 9.9915989, "tags": {"amenity": "fast_food", "changing_table": "no", "indoor_seating": "no", "name": "Mathewes Grill", "opening_hours": "Mo-Fr 05:00-21:00; Sa 05:30-21:00; PH,Su 06:00-21:00", "outdoor_seating": "no", "takeaway": "only", "wheelchair": "no"}}, {"type": "node", "id": 303980149, "lat": 53.4684162, "lon": 9.9672797, "tags": {"addr:city": "Hamburg", "addr:country": "DE", "addr:housenumber": "76-80", "addr:postcode": "21073", "addr:street": "Buxtehuder Stra\u00dfe", "amenity": "fuel", "brand": "JET", "brand:wikidata": "Q568940", "check_date": "2024-07-18", "compressed_air": "no", "contact:phone": "+49 40 76621464", "contact:website": "https://www.jet.de/tankstellen/hamburg/buxtehuder-str-76-80", "name": "JET", "opening_hours": "24/7", "operator": "Hueseyin Sezen"}}, {"type": "node", "id": 313658122, "lat": 53.4281863, "lon": 9.9825479, "tags": {"amenity": "fuel", "brand": "HEM", "brand:wikidata": "Q109930239", "name": "HEM", "wheelchair": "limited"}}, {"type": "node", "id": 417726991, "lat": 53.4568417, "lon": 9.9847163, "tags": {"addr:city": "Hamburg", "addr:country": "DE", "addr:housenumber": "48", "addr:postcode": "21073", "addr:street": "Wilstorfer Stra\u00dfe", "brand": "Lidl", "brand:wikidata": "Q151954", "brand:wikipedia": "en:Lidl", "check_date:opening_hours": "2024-03-06", "name": "Lidl", "opening_hours": "Mo-Sa 07:00-21:00", "shop": "supermarket", "wheelchair": "yes"}}, {"type": "node", "id": 535203408, "lat": 53.4601498, "lon": 9.984205, "tags": {"brand": "Netto Marken-Discount", "brand:wikidata": "Q879858", "brand:wikipedia": "de:Netto Marken-Discount", "check_date:opening_hours": "2023-10-27", "level": "0", "name": "Netto Marken-Discount", "name:fa": "\u0646\u062a\u0648", "opening_hours": "Mo-Sa 07:00-22:00", "shop": "supermarket", "website": "https://www.netto-online.de/filialen/Hamburg/Lauterbachstr-1/7126/", "wheelchair": "yes"}}, {"type": "node", "id": 710567583, "lat": 53.4608891, "lon": 9.9797608, "tags": {"amenity": "fast_food", "contact:facebook": "https://www.facebook.com/donerqueen/", "cuisine": "kebab", "diet:vegetarian": "yes", "indoor_seating": "yes", "name": "D\u00f6ner Queen", "opening_hours:signed": "no", "outdoor_seating": "no", "payment:cash": "yes", "payment:contactless": "yes", "payment:girocard": "yes", "smoking": "no", "takeaway": "yes", "toilets": "yes", "wheelchair": "limited"}}, {"type": "node", "id": 712248053, "lat": 53.4597467, "lon": 9.9826851, "tags": {"addr:city": "Hamburg", "addr:country": "DE", "addr:housenumber": "42", "addr:postcode": "21073", "addr:street": "L\u00fcneburger Stra\u00dfe", "check_date:opening_hours": "2023-09-07", "name": "S\u00f6nmez Markt", "name:fa": "\u0633\u0627\u0646\u0645\u0632 \u0645\u0627\u0631\u06a9\u062a", "opening_hours:signed": "no", "shop": "supermarket", "wheelchair": "limited"}}, {"type": "node", "id": 728489833, "lat": 53.4580107, "lon": 9.9660548, "tags": {"amenity": "fast_food", "check_date:opening_hours": "2023-09-10", "cuisine": "kebab", "name": "Elbd\u00f6ner", "opening_hours": "Mo-Su 11:30-23:00", "outdoor_seating": "yes", "smoking": "outside", "takeaway": "yes", "wheelchair": "no"}}, {"type": "node", "id": 981299533, "lat": 53.4578263, "lon": 9.9875628, "tags": {"addr:city": "Hamburg", "addr:country": "DE", "addr:housenumber": "1", "addr:postcode": "21073", "addr:street": "Seeveplatz", "brand": "Edeka", "brand:wikidata": "Q701755", "check_date:opening_hours": "2024-06-12", "contact:phone": "+49 40 7662690", "contact:website": "https://www.edeka.de/eh/nord/edeka-nord-harburg-seeveplatz-1/index.jsp", "lastcheck": "2023-03-05", "level": "0", "name": "EDEKA Center Harburg", "opening_hours": "Mo-Sa 08:00-20:00; PH off", "operator": "EDEKA Nord", "shop": "supermarket", "wheelchair": "yes"}}, {"type": "node", "id": 981589253, "lat": 53.4573081, "lon": 9.9863114, "tags": {"addr:city": "Hamburg", "addr:housenumber": "3", "addr:postcode": "21073", "addr:street": "Seevepassage", "amenity": "fast_food", "cuisine": "kebab", "indoor_seating": "yes", "name": "Delikato", "outdoor_seating": "yes"}}, {"type": "node", "id": 981645577, "lat": 53.4571985, "lon": 9.9875075, "tags": {"amenity": "fast_food", "indoor_seating": "yes", "name": "Lavas", "outdoor_seating": "yes", "source": "survey"}}, {"type": "node", "id": 983252298, "lat": 53.4568519, "lon": 9.9690175, "tags": {"check_date:opening_hours": "2025-04-01", "contact:phone": "+49 40 41182705", "level": "0", "name": "Vitamin-Ecke", "opening_hours": "PH off; Mo-Sa 08:00-20:00", "organic": "no", "shop": "convenience", "wheelchair": "no"}}, {"type": "node", "id": 984538073, "lat": 53.4601305, "lon": 9.9754085, "tags": {"amenity": "fast_food", "cuisine": "kebab;turkish", "diet:vegetarian": "yes", "indoor_seating": "yes", "name": "Uni Grill D\u00f6ner", "opening_hours:signed": "no", "outdoor_seating": "yes", "toilets:wheelchair": "no", "wheelchair": "yes", "wheelchair:description": "keine Toilette"}}, {"type": "node", "id": 984618253, "lat": 53.4440383, "lon": 9.9989324, "tags": {"addr:city": "Hamburg", "addr:country": "DE", "addr:housenumber": "3", "addr:postcode": "21079", "addr:street": "Mensingstra\u00dfe", "amenity": "fast_food", "branch": "Harburg", "brand": "Pizza Max", "brand:wikidata": "Q114189329", "cuisine": "pizza", "delivery": "Mo-Su, PH 11:00-23:00", "name": "Pizza Max", "opening_hours": "Mo-Th, Su, PH 11:00-23:00; Fr-Sa 11:00-00:00", "phone": "+49 40 79005666", "takeaway": "yes", "website": "https://www.pizzamax.de/hamburg-harburg/"}}, {"type": "node", "id": 997541381, "lat": 53.4613651, "lon": 9.9838685, "tags": {"check_date:opening_hours": "2023-10-27", "contact:fax": "+49 40 76797635", "contact:phone": "+49 40 76755501", "contact:website": "http://www.onur-gmbh.com", "name": "Onur Feinkost - Harburg", "opening_hours:signed": "no", "shop": "supermarket", "wheelchair": "yes"}}, {"type": "node", "id": 1231448950, "lat": 53.4309712, "lon": 9.9826912, "tags": {"amenity": "fuel", "brand": "OIL!", "brand:wikidata": "Q2007561", "fuel:diesel": "yes", "fuel:e10": "yes", "fuel:lpg": "yes", "fuel:octane_95": "yes", "fuel:octane_98": "yes", "name": "OIL!", "payment:american_express": "yes", "payment:cash": "yes", "payment:dkv": "yes", "payment:girocard": "yes", "payment:mastercard": "yes", "payment:uta": "yes", "payment:visa": "yes", "wheelchair": "limited"}}, {"type": "node", "id": 1312105950, "lat": 53.4602512, "lon": 9.9811312, "tags": {"addr:housename": "Harburg Arcaden", "addr:street": "L\u00fcneburger Stra\u00dfe", "brand": "Aldi Nord", "brand:wikidata": "Q41171373", "brand:wikipedia": "de:Aldi", "contact:website": "https://www.aldi-nord.de/tools/filialen-und-oeffnungszeiten/hamburg/harburg/lueneburger-strasse-39.html", "currency:EUR": "yes", "level": "-1", "name": "Aldi", "opening_hours": "Mo-Sa 07:00-20:00; PH off", "payment:american_express": "yes", "payment:cash": "yes", "payment:cryptocurrencies": "no", "payment:electronic_purses": "no", "payment:girocard": "yes", "payment:maestro": "yes", "payment:mastercard": "yes", "payment:v_pay": "yes", "payment:visa": "yes", "shop": "supermarket", "wheelchair": "yes"}}, {"type": "node", "id": 1379951513, "lat": 53.4653152, "lon": 9.9621853, "tags": {"amenity": "fast_food", "cuisine": "kebab", "delivery": "no", "diet:vegan": "no", "diet:vegetarian": "yes", "indoor_seating": "yes", "internet_access": "no", "level": "0", "name": "Hatay", "opening_hours": "Su-We 10:00-01:00, Th-Sa 10:00-03:00", "outdoor_seating": "no", "payment:cash": "yes", "payment:credit_cards": "no", "payment:cryptocurrencies": "no", "payment:debit_cards": "no", "payment:electronic_purses": "no", "smoking": "outside", "surveillance": "indoor", "takeaway": "yes", "wheelchair": "no"}}, {"type": "node", "id": 1452699102, "lat": 53.461213, "lon": 9.9799199, "tags": {"addr:city": "Hamburg", "addr:country": "DE", "addr:housenumber": "27-33", "addr:postcode": "21073", "addr:street": "Sand", "brand": "Edeka", "brand:wikidata": "Q701755", "check_date:opening_hours": "2024-10-01", "diet:gluten_free": "yes", "internet_access": "wlan", "internet_access:fee": "no", "level": "0", "name": "EDEKA Niemerszein am Sand", "opening_hours": "Mo-Sa 07:30-20:00", "phone": "+49 40 772955", "shop": "supermarket", "website": "http://www.niemerszein.de/ihr-markt/sand-31", "wheelchair": "yes"}}, {"type": "node", "id": 1452779237, "lat": 53.4610143, "lon": 9.9814131, "tags": {"addr:city": "Hamburg", "addr:country": "DE", "addr:housenumber": "4", "addr:postcode": "21073", "addr:street": "H\u00f6lertwiete", "check_date:opening_hours": "2025-06-06", "contact:phone": "+49 40 773260", "contact:website": "http://www.reformhaus-fellisch.de", "name": "Reformhaus Fellisch", "opening_hours": "Mo-Fr 09:00-18:00; Sa 09:00-13:00; PH off", "organic": "only", "shop": "convenience", "wheelchair": "yes"}}, {"type": "node", "id": 1656096430, "lat": 53.460485, "lon": 9.9759128, "tags": {"addr:city": "Hamburg", "addr:country": "DE", "addr:housenumber": "16", "addr:postcode": "21073", "addr:street": "Ei\u00dfendorfer Stra\u00dfe", "amenity": "fast_food", "check_date": "2023-08-29", "contact:phone": "+49 40 773930", "contact:website": "https://www.croquemastereissendorfstr.de", "cuisine": "sandwich", "diet:vegetarian": "yes", "indoor_seating": "yes", "name": "Croque Master", "opening_hours": "Su-Fr 11:30-22:00", "outdoor_seating": "yes", "wheelchair": "limited"}}, {"type": "node", "id": 1656096468, "lat": 53.4601221, "lon": 9.9767309, "tags": {"air_conditioning": "no", "amenity": "fast_food", "cuisine": "kebab", "diet:vegan": "no", "diet:vegetarian": "yes", "indoor_seating": "yes", "name": "KebapWelt", "opening_hours": "PH,Mo-Su 10:00-22:00", "outdoor_seating": "yes", "payment:credit_cards": "yes", "payment:debit_cards": "yes", "smoking": "outside", "wheelchair": "yes"}}, {"type": "node", "id": 1855127661, "lat": 53.4565806, "lon": 9.9595269, "tags": {"addr:city": "Hamburg", "addr:country": "DE", "addr:housenumber": "163", "addr:postcode": "21073", "addr:street": "Ei\u00dfendorfer Stra\u00dfe", "contact:phone": "+49 40 7903688", "name": "Bio Specials & Kaffee", "opening_hours": "Mo-Fr 08:30-19:00; Sa 08:30-19:00; PH,Su off", "organic": "only", "shop": "convenience", "wheelchair": "yes"}}, {"type": "node", "id": 1911665652, "lat": 53.4357766, "lon": 9.9788527, "tags": {"amenity": "cafe", "name": "Back und Kios 55", "shop": "convenience"}}, {"type": "node", "id": 2449688737, "lat": 53.4647373, "lon": 9.9642358, "tags": {"amenity": "fast_food", "check_date:opening_hours": "2025-04-06", "cuisine": "kebab", "diet:vegan": "no", "diet:vegetarian": "yes", "indoor_seating": "yes", "internet_access": "no", "name": "D\u00f6ner Connection", "opening_hours": "Mo-Su 10:00-22:30", "outdoor_seating": "no", "payment:american_express": "yes", "payment:cash": "yes", "payment:contactless": "yes", "payment:credit_cards": "yes", "payment:debit_cards": "yes", "payment:girocard": "yes", "payment:maestro": "yes", "payment:mastercard": "yes", "payment:v_pay": "yes", "payment:visa": "yes", "phone": "+49 40 76756668", "smoking": "outside", "takeaway": "yes", "wheelchair": "no"}}, {"type": "node", "id": 2487218790, "lat": 53.4504803, "lon": 9.9885406, "tags": {"amenity": "fast_food", "cuisine": "pizza", "name": "Sofia's"}}, {"type": "node", "id": 2661597248, "lat": 53.4565135, "lon": 9.9788034, "tags": {"addr:city": "Hamburg", "addr:housenumber": "31-33", "addr:postcode": "21073", "addr:street": "Bremer Stra\u00dfe", "brand": "Edeka", "brand:wikidata": "Q701755", "check_date:opening_hours": "2025-04-22", "name": "Edeka Kilic", "opening_hours": "Mo-Sa 07:00-22:00", "payment:girocard": "yes", "phone": "+49 40 76753954", "shop": "supermarket", "website": "https://www.edeka.de/eh/nord/edeka-kilic-bremer-stra%C3%9Fe-31-33/index.jsp", "wheelchair": "yes"}}, {"type": "node", "id": 2674896616, "lat": 53.4603948, "lon": 9.9803436, "tags": {"amenity": "fast_food", "check_date:opening_hours": "2023-11-15", "indoor_seating": "yes", "name": "ALHAYBA", "opening_hours:signed": "no", "outdoor_seating": "no"}}, {"type": "node", "id": 2826998315, "lat": 53.4573486, "lon": 9.9868519, "tags": {"addr:city": "Hamburg", "addr:country": "DE", "addr:housenumber": "1", "addr:postcode": "21073", "addr:street": "Seeveplatz", "amenity": "fast_food", "check_date": "2024-03-14", "indoor_seating": "yes", "level": "0", "name": "Thai Box", "opening_hours": "Mo-Sa 09:00-20:00", "outdoor_seating": "yes", "phone": "+49 40 18029750", "wheelchair": "yes"}}, {"type": "node", "id": 2868197527, "lat": 53.4273519, "lon": 9.9539365, "tags": {"amenity": "fuel", "name": "Tankpool24", "name:de": "Tankpool24", "opening_hours": "24/7"}}, {"type": "node", "id": 3211658070, "lat": 53.4645104, "lon": 9.9653973, "tags": {"addr:postcode": "21075", "amenity": "fast_food", "cuisine": "kebab;pizza", "diet:vegan": "no", "diet:vegetarian": "yes", "indoor_seating": "yes", "level": "0", "name": "Premium Food", "opening_hours": "Mo-Su 11:00-22:00", "operator": "Deutsche Post", "outdoor_seating": "no", "payment:credit_cards": "yes", "payment:debit_cards": "yes", "website": "https://www.premiumfood-harburg.de/", "website:menu": "https://www.premiumfood-harburg.de/"}}, {"type": "node", "id": 3623122522, "lat": 53.4622068, "lon": 9.9831439, "tags": {"addr:city": "Hamburg", "addr:country": "DE", "addr:housenumber": "18", "addr:postcode": "21073", "addr:street": "K\u00fcchgarten", "amenity": "fast_food", "brand": "Call a Pizza", "brand:wikidata": "Q1027107", "contact:phone": "+49 40 30954097", "contact:website": "https://www.call-a-pizza.de/hamburg_harburg/", "cuisine": "pizza", "name": "Call a Pizza", "opening_hours": "Mo-Fr 11:00-23:00; Sa, Su 12:00-23:00", "takeaway": "yes"}}, {"type": "node", "id": 3781926340, "lat": 53.4575059, "lon": 9.9856294, "tags": {"addr:city": "Hamburg", "addr:country": "DE", "addr:housenumber": "8", "addr:postcode": "21073", "addr:street": "Rieckhoffstra\u00dfe", "check_date:opening_hours": "2023-09-13", "level": "0", "name": "Adese Internationaler Supermarkt", "opening_hours": "Mo-Sa 07:00-20:30", "shop": "supermarket", "source": "survey", "wheelchair": "yes"}}, {"type": "node", "id": 3881207134, "lat": 53.455791, "lon": 9.9882686, "tags": {"addr:city": "Hamburg", "addr:country": "DE", "addr:housenumber": "86", "addr:postcode": "21079", "addr:street": "Hannoversche Stra\u00dfe", "brand": "Rewe", "brand:wikidata": "Q16968817", "brand:wikipedia": "en:REWE", "contact:phone": "+49 40 30034754", "contact:website": "https://www.rewe.de/marktseite/hamburg-harburg/540587/rewe-markt-hannoversche-str-86/", "internet_access": "wlan", "internet_access:fee": "no", "lastcheck": "2023-03-05", "level": "0", "name": "REWE", "opening_hours": "Mo-Sa 08:00-20:00; PH off", "operator": "REWE Markt GmbH", "payment:cash": "yes", "payment:cryptocurrencies": "no", "payment:electronic_purses": "no", "payment:girocard": "yes", "payment:maestro": "yes", "payment:mastercard": "yes", "shop": "supermarket", "wheelchair": "yes"}}, {"type": "node", "id": 4021067921, "lat": 53.4462663, "lon": 9.9938903, "tags": {"addr:city": "Hamburg", "addr:country": "DE", "addr:housenumber": "62", "addr:postcode": "21079", "addr:street": "Reeseberg", "branch": "Reeseberg", "brand": "Nahkauf", "brand:wikidata": "Q57515238", "contact:phone": "+49 40 80792955", "contact:website": "https://www.nahkauf.de/maerkte/hamburg-41611922-ali-orhan-demirel-reeseberg-62", "name": "Nahkauf", "opening_hours": "Mo-Fr 07:00-22:00; Sa 07:00-20:00;PH off", "operator": "Ali Orhan Demirel", "shop": "supermarket"}}, {"type": "node", "id": 4062889584, "lat": 53.4615612, "lon": 9.9808036, "tags": {"amenity": "fast_food", "brand": "\u00c7i\u011fk\u00f6ftem", "brand:wikidata": "Q106597459", "check_date": "2023-09-22", "cuisine": "turkish", "delivery": "yes", "diet:vegan": "yes", "diet:vegetarian": "only", "drive_through": "no", "indoor_seating": "yes", "name": "\u00c7i\u011fk\u00f6ftem", "opening_hours": "Mo-Th 11:00-22:00, Fr,Sa 11:00-24:00, Su 12:00-22:00", "outdoor_seating": "no", "smoking": "no", "takeaway": "yes", "wheelchair": "yes"}}, {"type": "node", "id": 4144366167, "lat": 53.4532246, "lon": 9.9876214, "tags": {"amenity": "fast_food", "drive_in": "no", "name": "Nadi's Imbiss", "source": "survey"}}, {"type": "node", "id": 4144366168, "lat": 53.4531076, "lon": 9.987608, "tags": {"name": "Balkanix", "opening_hours": "Mo-Sa 08:30-20:00", "shop": "convenience", "source": "survey"}}, {"type": "node", "id": 4144382812, "lat": 53.4569764, "lon": 9.9858774, "tags": {"addr:city": "Hamburg", "addr:country": "DE", "addr:housenumber": "5", "addr:postcode": "21073", "addr:street": "Moorstra\u00dfe", "amenity": "fast_food", "cuisine": "turkish", "diet:vegetarian": "yes", "indoor_seating": "yes", "name": "The Kumpir", "opening_hours": "Mo-Sa 11:00-22:30; Su 13:00-22:00", "outdoor_seating": "yes", "source": "survey", "wheelchair": "no"}}, {"type": "node", "id": 4144382814, "lat": 53.4571149, "lon": 9.9859051, "tags": {"addr:city": "Hamburg", "addr:country": "DE", "addr:housenumber": "7", "addr:postcode": "21073", "addr:street": "Moorstra\u00dfe", "amenity": "fast_food", "check_date:opening_hours": "2024-05-31", "cuisine": "kebab", "indoor_seating": "yes", "name": "Zaza King", "opening_hours:signed": "no", "outdoor_seating": "yes", "source": "survey"}}, {"type": "node", "id": 4144383877, "lat": 53.4537977, "lon": 9.9875947, "tags": {"addr:city": "Hamburg", "addr:country": "DE", "addr:housenumber": "96", "addr:postcode": "21073", "addr:street": "Wilstorfer Stra\u00dfe", "amenity": "fast_food", "cuisine": "french", "diet:vegetarian": "yes", "drive_through": "no", "name": "Monsieur Croque", "opening_hours": "Mo-Su 16:30-22:00", "phone": "04078050190", "source": "local knowledge"}}, {"type": "node", "id": 4144447589, "lat": 53.456404, "lon": 9.9860512, "tags": {"addr:city": "Hamburg", "addr:country": "DE", "addr:housenumber": "49", "addr:postcode": "21073", "addr:street": "Wilstorfer Stra\u00dfe", "name": "Mas Impex", "shop": "supermarket", "source": "survey"}}, {"type": "node", "id": 4144447592, "lat": 53.4564181, "lon": 9.9853674, "tags": {"addr:city": "Hamburg", "addr:country": "DE", "addr:housenumber": "52", "addr:postcode": "21073", "addr:street": "Wilstorfer Stra\u00dfe", "check_date": "2024-03-12", "name": "Dong Tien Asia-Supermarkt", "opening_hours": "Mo-Sa 10:45-19:00", "shop": "supermarket", "source": "survey", "wheelchair": "yes"}}, {"type": "node", "id": 4144447594, "lat": 53.4563005, "lon": 9.985565, "tags": {"amenity": "fast_food", "brand": "Domino's", "brand:wikidata": "Q839466", "brand:wikipedia": "en:Domino's Pizza", "contact:email": "info@dominos.de", "contact:phone": "+49 40 7647270", "contact:website": "https://www.dominos.de/kaufhaus/de-hamburgharburgphoenixviertel-33748", "cuisine": "pizza", "delivery": "yes", "diet:vegan": "yes", "diet:vegetarian": "yes", "drive_in": "no", "indoor_seating": "no", "name": "Domino's", "opening_hours": "Mo-Su,PH 10:00-23:00", "operator": "Domino's Pizza Deutschland GmbH", "outdoor_seating": "no", "takeaway": "only", "wheelchair": "yes"}}, {"type": "node", "id": 4144489731, "lat": 53.4551026, "lon": 9.9871237, "tags": {"addr:city": "Hamburg", "addr:country": "DE", "addr:housenumber": "76", "addr:postcode": "21073", "addr:street": "Wilstorfer Stra\u00dfe", "check_date": "2024-03-13", "name": "Balkanische Lebensmittel", "opening_hours": "Mo-Sa 10:00-21:00", "shop": "supermarket", "source": "survey"}}, {"type": "node", "id": 4144506845, "lat": 53.4553121, "lon": 9.9870501, "tags": {"addr:city": "Hamburg", "addr:country": "DE", "addr:housenumber": "72", "addr:postcode": "21073", "addr:street": "Wilstorfer Stra\u00dfe", "amenity": "fast_food", "cuisine": "kebab", "name": "\u00d6zlem K\u00f6fte", "source": "survey"}}, {"type": "node", "id": 4144506848, "lat": 53.4555147, "lon": 9.9868545, "tags": {"addr:city": "Hamburg", "addr:country": "DE", "addr:housenumber": "68", "addr:postcode": "21073", "addr:street": "Wilstorfer Stra\u00dfe", "amenity": "fast_food", "check_date": "2024-03-13", "indoor_seating": "yes", "name": "Miss Tantuni & Grill", "outdoor_seating": "yes", "source": "survey"}}, {"type": "node", "id": 4144993056, "lat": 53.4579509, "lon": 9.9871254, "tags": {"addr:city": "Hamburg", "addr:country": "DE", "addr:housenumber": "1", "addr:postcode": "21073", "addr:street": "Seeveplatz", "brand": "Aldi Nord", "brand:wikidata": "Q41171373", "brand:wikipedia": "en:Aldi", "contact:website": "https://www.aldi-nord.de/tools/filialen-und-oeffnungszeiten/hamburg/harburg/seeveplatz-1.html", "lastcheck": "2023-03-05", "level": "1", "name": "Aldi", "opening_hours": "Mo-Sa 07:00-20:00; PH off", "shop": "supermarket", "wheelchair": "yes"}}, {"type": "node", "id": 4144993075, "lat": 53.4576383, "lon": 9.9873224, "tags": {"addr:city": "Hamburg", "addr:country": "DE", "addr:housenumber": "1", "addr:postcode": "21073", "addr:street": "Seeveplatz", "amenity": "fast_food", "level": "0"}}, {"type": "node", "id": 4150124390, "lat": 53.4563888, "lon": 9.9878955, "tags": {"addr:city": "Hamburg", "addr:country": "DE", "addr:housenumber": "86", "addr:postcode": "21079", "addr:street": "Hannoversche Stra\u00dfe", "amenity": "fast_food", "check_date": "2024-03-12", "check_date:opening_hours": "2021-04-21", "cuisine": "turkish", "delivery": "no", "drive_in": "no", "indoor_seating": "yes", "level": "-1", "name": "Bosporus Lounge", "opening_hours": "Mo-Sa 09:30-20:00", "outdoor_seating": "no", "phone": "+49 40 32527714", "source": "survey", "takeaway": "yes", "wheelchair": "yes"}}, {"type": "node", "id": 4150124393, "lat": 53.4562284, "lon": 9.9878317, "tags": {"addr:city": "Hamburg", "addr:country": "DE", "addr:housenumber": "86", "addr:postcode": "21079", "addr:street": "Hannoversche Stra\u00dfe", "amenity": "fast_food", "brand": "Pizza Hut", "brand:wikidata": "Q191615", "brand:wikipedia": "en:Pizza Hut", "check_date": "2024-03-12", "check_date:opening_hours": "2021-04-21", "cuisine": "pizza", "delivery": "no", "drive_in": "no", "indoor_seating": "yes", "level": "-1", "name": "Pizza Hut Express", "opening_hours": "Mo-Sa 09:30-20:00", "outdoor_seating": "no", "phone": "+49 40 30094922", "source": "survey", "takeaway": "yes", "website": "https://pizzahut.de/", "wheelchair": "yes", "wheelchair:description": "Fastfood Theke"}}, {"type": "node", "id": 4150124397, "lat": 53.4564679, "lon": 9.9879255, "tags": {"addr:city": "Hamburg", "addr:country": "DE", "addr:housenumber": "86", "addr:postcode": "21079", "addr:street": "Hannoversche Stra\u00dfe", "amenity": "fast_food", "check_date": "2024-03-12", "check_date:opening_hours": "2021-04-21", "cuisine": "asian", "delivery": "no", "diet:vegetarian": "yes", "drive_in": "no", "indoor_seating": "yes", "level": "-1", "name": "Mr. Phung", "opening_hours": "Mo-Sa 09:30-20:00", "outdoor_seating": "no", "phone": "+49 40 87874108", "source": "survey", "takeaway": "yes", "website": "https://mrphung.de/", "wheelchair": "yes"}}, {"type": "node", "id": 4150124398, "lat": 53.4565502, "lon": 9.9879564, "tags": {"addr:city": "Hamburg", "addr:country": "DE", "addr:housenumber": "86", "addr:postcode": "21079", "addr:street": "Hannoversche Stra\u00dfe", "amenity": "fast_food", "brand": "Pommesfreunde", "brand:wikidata": "Q117083946", "check_date": "2024-03-12", "check_date:opening_hours": "2021-04-22", "contact:phone": "+49 40 3250779", "contact:website": "https://pommesfreunde.de/", "cuisine": "fries", "delivery": "no", "diet:vegetarian": "yes", "drive_in": "no", "indoor_seating": "yes", "level": "-1", "name": "Pommesfreunde", "opening_hours": "Mo-Sa 09:30-20:00", "outdoor_seating": "no", "source": "survey", "takeaway": "yes", "wheelchair": "yes"}}, {"type": "node", "id": 4150124399, "lat": 53.4561395, "lon": 9.9877951, "tags": {"addr:city": "Hamburg", "addr:country": "DE", "addr:housenumber": "86", "addr:postcode": "21079", "addr:street": "Hannoversche Stra\u00dfe", "amenity": "fast_food", "check_date": "2024-03-19", "cuisine": "burger", "indoor_seating": "yes", "level": "-1", "name": "Burger Bro", "opening_hours": "Mo-Sa 09:30-20:00", "outdoor_seating": "no", "source": "survey", "takeaway": "yes", "wheelchair": "yes"}}, {"type": "node", "id": 4150195990, "lat": 53.4566034, "lon": 9.9876532, "tags": {"addr:city": "Hamburg", "addr:country": "DE", "addr:housenumber": "86", "addr:postcode": "21079", "addr:street": "Hannoversche Stra\u00dfe", "amenity": "fast_food", "check_date": "2024-03-19", "check_date:opening_hours": "2021-04-22", "cuisine": "italian", "delivery": "no", "diet:vegetarian": "yes", "drive_in": "no", "indoor_seating": "yes", "level": "-1", "name": "Ciao Bella", "opening_hours": "Mo-Sa 09:30-20:00", "outdoor_seating": "no", "phone": "+49 40 73442755", "source": "survey", "takeaway": "yes", "wheelchair": "yes"}}, {"type": "node", "id": 4150195993, "lat": 53.4565265, "lon": 9.9876234, "tags": {"addr:city": "Hamburg", "addr:country": "DE", "addr:housenumber": "86", "addr:postcode": "21079", "addr:street": "Hannoversche Stra\u00dfe", "amenity": "fast_food", "check_date": "2024-03-12", "check_date:opening_hours": "2021-04-22", "cuisine": "indian", "delivery": "no", "drive_in": "no", "indoor_seating": "no", "level": "-1", "name": "Manju", "opening_hours": "Mo-Sa 09:30-20:00", "outdoor_seating": "no", "phone": "+49 40 75668085", "source": "survey", "takeaway": "yes", "wheelchair": "yes"}}, {"type": "node", "id": 4150195997, "lat": 53.4565807, "lon": 9.9870109, "tags": {"addr:city": "Hamburg", "addr:country": "DE", "addr:housenumber": "86", "addr:postcode": "21079", "addr:street": "Hannoversche Stra\u00dfe", "amenity": "fast_food", "brand": "Subway", "brand:wikidata": "Q244457", "brand:wikipedia": "en:Subway (restaurant)", "check_date": "2024-03-12", "contact:facebook": "https://www.facebook.com/subwaydeutschland", "contact:instagram": "https://www.instagram.com/subway_de/", "contact:twitter": "https://twitter.com/Subway_DE", "cuisine": "sandwich", "delivery": "no", "diet:vegetarian": "yes", "drive_in": "no", "level": "-1", "name": "Subway", "opening_hours": "Mo-Sa 09:30-20:00", "phone": "+49 40 97071755", "ref": "34660", "source": "survey", "takeaway": "yes", "website": "https://restaurants.subway.com/de/deutschland/hh/hamburg/hannoversche-strasse-86", "wheelchair": "yes"}}, {"type": "node", "id": 4150196000, "lat": 53.4563847, "lon": 9.9875764, "tags": {"addr:city": "Hamburg", "addr:country": "DE", "addr:housenumber": "86", "addr:postcode": "21079", "addr:street": "Hannoversche Stra\u00dfe", "amenity": "fast_food", "check_date": "2024-03-12", "check_date:opening_hours": "2021-04-22", "cuisine": "arab", "delivery": "no", "drive_in": "no", "level": "-1", "name": "Laziz", "opening_hours": "Mo-Sa 09:30-20:00", "source": "survey", "takeaway": "yes", "wheelchair": "yes"}}, {"type": "node", "id": 4150196001, "lat": 53.4562789, "lon": 9.9875364, "tags": {"addr:city": "Hamburg", "addr:country": "DE", "addr:housenumber": "86", "addr:postcode": "21079", "addr:street": "Hannoversche Stra\u00dfe", "amenity": "fast_food", "check_date": "2024-03-12", "check_date:opening_hours": "2021-04-22", "cuisine": "asian", "delivery": "no", "drive_in": "no", "level": "-1", "name": "Zenthai", "opening_hours": "Mo-Sa 09:30-20:00", "source": "survey", "takeaway": "yes", "wheelchair": "yes"}}, {"type": "node", "id": 4155915054, "lat": 53.4564555, "lon": 9.9875227, "tags": {"addr:city": "Hamburg", "addr:country": "DE", "addr:housenumber": "86", "addr:postcode": "21079", "addr:street": "Hannoversche Stra\u00dfe", "amenity": "fast_food", "brand": "McDonald's", "brand:wikidata": "Q38076", "brand:wikipedia": "en:McDonald's", "check_date": "2024-03-12", "cuisine": "burger", "delivery": "no", "diet:vegetarian": "yes", "drive_in": "no", "level": "0", "name": "McDonald's", "opening_hours": "Mo-Sa 09:30-20:00", "phone": "+49 40 32083880", "source": "survey", "takeaway": "yes", "wheelchair": "yes"}}, {"type": "node", "id": 4155915056, "lat": 53.4565345, "lon": 9.986994, "tags": {"addr:city": "Hamburg", "addr:country": "DE", "addr:housenumber": "86", "addr:postcode": "21079", "addr:street": "Hannoversche Stra\u00dfe", "amenity": "fast_food", "check_date": "2024-03-12", "delivery": "no", "diet:vegetarian": "yes", "level": "0", "name": "Mr. Clou", "opening_hours": "Mo-Sa 09:30-20:00", "phone": "+49 40 30096785", "takeaway": "yes", "website": "http://www.mrclou.com/", "wheelchair": "yes"}}, {"type": "node", "id": 4155915057, "lat": 53.4564088, "lon": 9.9872199, "tags": {"addr:city": "Hamburg", "addr:country": "DE", "addr:housenumber": "86", "addr:postcode": "21079", "addr:street": "Hannoversche Stra\u00dfe", "amenity": "fast_food", "brand": "Nordsee", "brand:wikidata": "Q74866", "brand:wikipedia": "en:Nordsee", "check_date": "2024-03-12", "contact:fax": "+49 40 46866970", "contact:phone": "+49 40 46866969", "contact:website": "https://www.nordsee.com/de/filialen/detail/store/nordsee-hamburg-phoenix-center-291/", "cuisine": "seafood", "delivery": "no", "drive_in": "no", "level": "0", "name": "Nordsee", "opening_hours": "Mo-Sa 10:30-19:00; PH off", "source": "survey", "takeaway": "yes", "wheelchair": "yes"}}, {"type": "node", "id": 4600476958, "lat": 53.4657911, "lon": 9.9870422, "tags": {"name": "Kleeblatt Food Kiosk", "shop": "convenience"}}, {"type": "node", "id": 5248147854, "lat": 53.4563263, "lon": 9.9875594, "tags": {"addr:city": "Hamburg", "addr:country": "DE", "addr:housenumber": "86", "addr:postcode": "21079", "addr:street": "Hannoversche Stra\u00dfe", "amenity": "fast_food", "drive_in": "no", "level": "-1", "source": "survey"}}, {"type": "node", "id": 5648780384, "lat": 53.4650222, "lon": 9.9624188, "tags": {"amenity": "fast_food", "indoor_seating": "yes", "name": "Hatay D\u00fcr\u00fcm Fried Chicken", "opening_hours": "Mo-Su,PH 11:00-18:00+", "outdoor_seating": "sidewalk", "payment:credit_cards": "no", "payment:debit_cards": "yes"}}, {"type": "node", "id": 5680080600, "lat": 53.456611, "lon": 9.9597208, "tags": {"addr:city": "Hamburg", "addr:country": "DE", "addr:housenumber": "161a", "addr:postcode": "21073", "addr:street": "Ei\u00dfendorfer Stra\u00dfe", "amenity": "fast_food", "brand": "Smiley's", "brand:wikidata": "Q60998945", "check_date:opening_hours": "2023-09-10", "contact:phone": "+49 40 7905600", "contact:website": "https://www.smileys.de/bestellen/Hamburg-Harburg/", "cuisine": "pizza", "delivery": "only", "diet:vegan": "yes", "diet:vegetarian": "yes", "internet_access": "no", "level": "0", "name": "Smiley's", "opening_hours": "11:00-23:00", "operator": "Smiley\u00b4s Pizza Profis", "smoking": "no", "takeaway": "yes", "wheelchair": "yes"}}, {"type": "node", "id": 5695222025, "lat": 53.4652881, "lon": 9.9621035, "tags": {"brand": "PENNY", "brand:wikidata": "Q284688", "check_date:opening_hours": "2025-04-05", "level": "0", "name": "Penny", "name:fa": "\u067e\u0646\u06cc", "opening_hours": "Mo-Sa 07:00-22:00; PH closed", "payment:cash": "yes", "payment:credit_cards": "yes", "payment:cryptocurrencies": "no", "payment:debit_cards": "yes", "payment:electronic_purses": "no", "payment:girocard": "yes", "payment:maestro": "yes", "payment:v_pay": "yes", "shop": "supermarket", "wheelchair": "yes"}}, {"type": "node", "id": 5754510678, "lat": 53.4587234, "lon": 9.9821874, "tags": {"check_date:opening_hours": "2023-12-11", "name": "AKIN Markt", "opening_hours:signed": "no", "shop": "supermarket", "wheelchair": "yes"}}, {"type": "node", "id": 5756750137, "lat": 53.4585246, "lon": 9.9831938, "tags": {"addr:city": "Hamburg", "addr:housenumber": "20", "addr:postcode": "21073", "addr:street": "L\u00fcneburger Stra\u00dfe", "amenity": "fast_food", "cuisine": "kebab", "name": "Sirali Kebab", "opening_hours": "Mo-Su 08:00-22:00"}}, {"type": "node", "id": 5774762640, "lat": 53.4618496, "lon": 9.9837877, "tags": {"amenity": "fast_food", "cuisine": "sushi", "delivery": "yes", "name": "Sushii Harburg", "opening_hours": "Mo-We 11:00-22:30; Th 11:00-22:00; Fr-Su 11:00-23:00", "takeaway": "yes"}}, {"type": "node", "id": 6268145023, "lat": 53.4552741, "lon": 9.9766177, "tags": {"addr:city": "Hamburg", "addr:housenumber": "44", "addr:postcode": "21073", "addr:street": "Bremer Stra\u00dfe", "amenity": "fast_food", "branch": "Hamburg Harburg Ei\u00dfendorf", "brand": "Domino's", "brand:wikidata": "Q839466", "check_date": "2025-02-16", "check_date:smoking": "2025-02-16", "contact:phone": "+49 40 70385830", "contact:website": "https://www.dominos.de/", "cuisine": "pizza", "delivery": "yes", "diet:vegan": "yes", "diet:vegetarian": "yes", "indoor_seating": "yes", "name": "Domino's", "opening_hours": "Mo-Su 11:00-23:00", "operator": "Domino's Pizza Deutschland GmbH", "outdoor_seating": "no", "payment:apple_pay": "yes", "payment:contactless": "yes", "payment:credit_cards": "yes", "payment:debit_cards": "yes", "payment:google_pay": "yes", "payment:mastercard": "yes", "payment:mastercard_contactless": "yes", "payment:visa": "yes", "payment:visa_debit": "yes", "smoking": "no", "takeaway": "yes", "website": "https://www.dominos.de/filiale/de-hamburgharburgeiendorf-34042", "wheelchair": "no"}}, {"type": "node", "id": 6338876453, "lat": 53.4598637, "lon": 9.9820326, "tags": {"addr:housename": "Harburg Arcaden", "addr:street": "L\u00fcneburger Stra\u00dfe", "amenity": "fast_food", "brand": "McDonald's", "brand:wikidata": "Q38076", "brand:wikipedia": "en:McDonald's", "check_date": "2025-04-14", "check_date:opening_hours": "2025-04-14", "contact:phone": "+49 40 32507321", "contact:website": "https://www.mcdonalds.com/de/de-de/restaurant-suche.html/l/hamburg/luneburger-strasse-39/1242", "cuisine": "burger", "diet:vegetarian": "yes", "level": "0", "name": "McDonald's", "opening_hours": "Mo-Sa 10:00-20:00; PH off", "operator": "Frauke Petersen-Hanson", "takeaway": "yes", "wheelchair": "yes"}}, {"type": "node", "id": 6461019256, "lat": 53.4509648, "lon": 9.9873744, "tags": {"amenity": "fast_food", "delivery": "11:00-22:30", "name": "Haidari's Food service", "opening_hours": "11:00-23:00", "wheelchair": "no"}}, {"type": "node", "id": 6710473937, "lat": 53.4654958, "lon": 9.9887073, "tags": {"addr:housenumber": "8", "addr:street": "Veritaskai", "brand": "Edeka", "brand:wikidata": "Q701755", "brand:wikipedia": "en:Edeka", "name": "Edeka", "opening_hours": "Mo-Sa 07:00-20:00; PH closed", "operator": "Ziegler", "organic": "yes", "shop": "supermarket", "wheelchair": "yes"}}, {"type": "node", "id": 6738090562, "lat": 53.4612561, "lon": 9.9783681, "tags": {"amenity": "fast_food", "check_date:opening_hours": "2023-10-16", "contact:phone": "+49 40 55892276", "cuisine": "kebab", "diet:vegetarian": "yes", "indoor_seating": "yes", "name": "K\u00f6z Ocakbasi", "opening_hours:signed": "no", "outdoor_seating": "yes", "payment:cash": "yes", "payment:credit_cards": "no", "payment:cryptocurrencies": "no", "payment:debit_cards": "no", "payment:electronic_purses": "no", "smoking": "outside", "takeaway": "yes", "toilets": "yes", "toilets:wheelchair": "yes", "wheelchair": "limited"}}, {"type": "node", "id": 6760431085, "lat": 53.4617221, "lon": 9.9824683, "tags": {"check_date:opening_hours": "2023-10-08", "description": "Polnische Spezialit\u00e4ten", "name": "Food Plus", "opening_hours": "Mo-Fr 08:00-20:00; Sa 10:00-18:00; PH,Su off", "phone": "+49 40 76755818", "shop": "supermarket", "website": "https://foodplus.eu/"}}, {"type": "node", "id": 6793520813, "lat": 53.4705243, "lon": 9.9492474, "tags": {"name": "Mini Market", "opening_hours": "Mo-Fr 06:30-20:00, Sa 07:00-17:00;PH, Su 07:00-13:00", "shop": "convenience"}}, {"type": "node", "id": 6812974279, "lat": 53.4616292, "lon": 9.9787831, "tags": {"amenity": "fast_food", "cuisine": "burger", "name": "Burger mit Gl\u00fcck", "opening_hours:signed": "no", "wheelchair": "limited"}}, {"type": "node", "id": 6945123098, "lat": 53.4569155, "lon": 9.9853746, "tags": {"addr:city": "Hamburg", "addr:housenumber": "1", "addr:postcode": "21073", "addr:street": "Moorstra\u00dfe", "alt_name": "Kentucky Fried Chicken", "amenity": "fast_food", "brand": "KFC", "brand:wikidata": "Q524757", "cuisine": "chicken", "indoor_seating": "yes", "name": "KFC", "outdoor_seating": "no", "takeaway": "yes"}}, {"type": "node", "id": 7222024495, "lat": 53.4524684, "lon": 9.9729128, "tags": {"addr:city": "Hamburg", "addr:housenumber": "90", "addr:postcode": "21073", "addr:street": "Bremer Stra\u00dfe", "brand": "Penny", "brand:wikidata": "Q284688", "changing_table": "no", "check_date:opening_hours": "2023-10-10", "door": "automatic", "entrance": "shop", "level": "0", "name": "Penny Bremer Stra\u00dfe", "name:fa": "\u067e\u0646\u06cc", "opening_hours": "Mo-Sa 08:00-22:00", "organic": "yes", "payment:american_express": "yes", "payment:cash": "yes", "payment:girocard": "yes", "payment:maestro": "yes", "payment:mastercard": "yes", "payment:v_pay": "yes", "payment:visa": "yes", "shop": "supermarket", "toilets": "no", "wheelchair": "yes"}}, {"type": "node", "id": 7299174692, "lat": 53.4604005, "lon": 9.9784615, "tags": {"amenity": "fast_food", "check_date:opening_hours": "2024-07-21", "cuisine": "kebab", "diet:vegan": "no", "diet:vegetarian": "yes", "indoor_seating": "yes", "name": "D\u00f6ner Treff", "opening_hours": "Mo-Sa 10:00-23:00; Su 11:30-23:00", "outdoor_seating": "yes", "payment:credit_cards": "no", "payment:debit_cards": "no", "wheelchair": "limited", "wheelchair:description": "3cm Stufe vor dem Eingang"}}, {"type": "node", "id": 7299331163, "lat": 53.4611965, "lon": 9.9823353, "tags": {"amenity": "fast_food", "cuisine": "thai;vietnamese", "indoor_seating": "yes", "level": "0", "name": "Viet-Thai Gourmet", "opening_hours": "Mo-Sa 10:30-21:00; Su,PH 12:00-21:00", "outdoor_seating": "yes", "takeaway": "yes"}}, {"type": "node", "id": 7299738009, "lat": 53.4611704, "lon": 9.9823443, "tags": {"amenity": "fast_food", "check_date:opening_hours": "2023-10-27", "cuisine": "kebab", "diet:vegetarian": "yes", "indoor_seating": "yes", "level": "0", "name": "Dubara", "opening_hours:signed": "no", "outdoor_seating": "yes", "payment:cash": "yes", "payment:credit_cards": "no", "payment:cryptocurrencies": "no", "payment:debit_cards": "no", "payment:electronic_purses": "no", "smoking": "outside", "takeaway": "yes", "wheelchair": "yes"}}, {"type": "node", "id": 7623149463, "lat": 53.4643961, "lon": 9.9786355, "tags": {"amenity": "fast_food", "branch": "Hamburg Harburg", "brand": "burgerme", "brand:wikidata": "Q108866856", "cuisine": "burger", "delivery": "yes", "diet:vegetarian": "yes", "name": "burgerme", "opening_hours": "Mo-Su 11:00-23:30", "operator": "burgerme Franchise GmbH", "payment:cash": "yes", "payment:girocard": "yes", "takeaway": "yes"}}, {"type": "node", "id": 7623149481, "lat": 53.4640557, "lon": 9.9798439, "tags": {"addr:city": "Hamburg", "addr:country": "DE", "addr:housenumber": "1a", "addr:postcode": "21073", "addr:street": "Buxtehuder Stra\u00dfe", "amenity": "fuel", "brand": "star", "brand:wikidata": "Q89432390", "compressed_air": "yes", "contact:fax": "+49 40 776230", "contact:phone": "+49 40 777034", "fuel:adblue": "no", "fuel:diesel": "yes", "fuel:e10": "yes", "fuel:lpg": "yes", "fuel:octane_95": "yes", "fuel:octane_98": "yes", "name": "star", "opening_hours": "Mo-Th 06:00-22:00, Fr 06:00-24:00, Sa 00:00-24:00, Su 00:00-22:00", "payment:american_express": "yes", "payment:cash": "yes", "payment:diners_club": "yes", "payment:dkv": "yes", "payment:girocard": "yes", "payment:mastercard": "yes", "payment:uta": "yes", "payment:visa": "yes"}}, {"type": "node", "id": 7923632033, "lat": 53.4566127, "lon": 9.9583799, "tags": {"addr:city": "Hamburg", "addr:housenumber": "130", "addr:postcode": "21073", "addr:street": "Ei\u00dfendorfer Stra\u00dfe", "amenity": "fast_food", "cuisine": "pizza;salad;pasta", "drive_through": "no", "name": "Pizza Hot Chili", "opening_hours": "Mo-Fr 11:30-22:30; PH,Sa,Su 12:00-22:30", "website": "https://www.pizzahotchili.de/", "wheelchair": "limited"}}, {"type": "node", "id": 8735888224, "lat": 53.4565138, "lon": 9.9591286, "tags": {"addr:housenumber": "167", "addr:street": "Ei\u00dfendorfer Stra\u00dfe", "check_date:opening_hours": "2022-03-21", "name": "Balkanix", "opening_hours:signed": "no", "phone": "+49 464836121", "shop": "convenience", "website": "https://www.balkanix.de", "wheelchair": "no"}}, {"type": "node", "id": 9127331169, "lat": 53.4601604, "lon": 9.9786937, "tags": {"entrance": "yes", "name": "Multi-Center Harburg", "opening_hours": "Mo-Sa 09:00-20:00; Su 12:00-20:00", "post_office": "post_partner", "post_office:brand": "DHL;DPD", "post_office:brand:wikidata": "Q489815;Q541030", "post_office:service_provider": "DHL;DPD", "ref:DHL": "488", "shop": "convenience", "wheelchair": "limited"}}, {"type": "node", "id": 9453638111, "lat": 53.4610569, "lon": 9.9780656, "tags": {"addr:city": "Hamburg", "addr:housenumber": "1", "addr:postcode": "21073", "addr:street": "Neue Stra\u00dfe", "amenity": "fast_food", "cuisine": "kebab", "name": "Urfa Foods", "opening_hours:signed": "no", "wheelchair": "limited"}}, {"type": "node", "id": 10062255507, "lat": 53.458056, "lon": 9.9662583, "tags": {"addr:city": "Hamburg", "addr:housenumber": "70", "addr:postcode": "21073", "addr:street": "Ei\u00dfendorfer Stra\u00dfe", "brand": "Edeka", "brand:wikidata": "Q701755", "check_date:opening_hours": "2025-02-18", "name": "Edeka Aktar Frischemarkt", "opening_hours": "Mo-Fr 07:00-20:00; Sa 08:00-20:00; PH off", "payment:cash": "yes", "payment:cryptocurrencies": "no", "payment:electronic_purses": "no", "payment:girocard": "yes", "payment:maestro": "yes", "payment:mastercard": "yes", "payment:visa": "yes", "phone": "+49 040 7654243", "shop": "supermarket", "wheelchair": "limited"}}, {"type": "node", "id": 10692651502, "lat": 53.4592114, "lon": 9.9831661, "tags": {"name": "Indian Bazaar", "opening_hours": "Mo-Sa 09:15-20:00", "shop": "convenience"}}, {"type": "node", "id": 10765936553, "lat": 53.4517544, "lon": 9.971242, "tags": {"addr:housenumber": "112", "addr:street": "Bremer Stra\u00dfe", "amenity": "fuel", "brand": "Shell", "brand:wikidata": "Q110716465", "compressed_air": "yes", "fuel:GTL_diesel": "yes", "fuel:diesel": "yes", "fuel:e10": "yes", "fuel:lpg": "no", "fuel:octane_95": "yes", "name": "Shell", "network": "Cash Group", "opening_hours": "24/7", "payment:american_express": "yes", "payment:cash": "yes", "payment:cryptocurrencies": "no", "payment:electronic_purses": "no", "payment:girocard": "yes", "payment:maestro": "yes", "payment:mastercard": "yes", "payment:visa": "yes", "wheelchair": "yes"}}, {"type": "node", "id": 10765936554, "lat": 53.4614143, "lon": 10.0113094, "tags": {"amenity": "fuel", "brand": "METRO", "brand:wikidata": "Q13610282", "fuel:GTL_diesel": "yes", "fuel:HGV_diesel": "yes", "fuel:adblue": "yes", "fuel:diesel": "yes", "fuel:e10": "yes", "fuel:octane_95": "yes", "name": "METRO Hamburg-Harburg", "opening_hours": "24/7", "payment:american_express": "yes", "payment:cash": "yes", "payment:cryptocurrencies": "no", "payment:dkv": "yes", "payment:electronic_purses": "no", "payment:girocard": "yes", "payment:maestro": "yes", "payment:mastercard": "yes", "payment:uta": "yes", "payment:visa": "yes"}}, {"type": "node", "id": 11067439214, "lat": 53.4390623, "lon": 9.9896672, "tags": {"amenity": "fast_food", "cuisine": "kebab", "name": "Kaya D\u00f6ner"}}, {"type": "node", "id": 11369875969, "lat": 53.4529619, "lon": 9.9741724, "tags": {"addr:postcode": "21073", "branch": "Polonia", "brand": "Viva", "brand:wikidata": "Q120134542", "bulk_purchase": "yes", "level": "0", "name": "Viva", "opening_hours": "Mo-Sa 09:00-19:00", "post_office": "post_partner", "post_office:service_provider": "DHL", "shop": "convenience", "wheelchair": "no"}}, {"type": "node", "id": 11403900630, "lat": 53.4606031, "lon": 9.9827882, "tags": {"amenity": "fast_food", "check_date:opening_hours": "2024-05-23", "indoor_seating": "no", "name": "Fat Bro's", "opening_hours:signed": "no", "outdoor_seating": "no", "takeaway": "only"}}, {"type": "node", "id": 11443585830, "lat": 53.4598688, "lon": 9.9817413, "tags": {"addr:housename": "Harburg Arcaden", "addr:street": "L\u00fcneburger Stra\u00dfe", "amenity": "fast_food", "check_date:opening_hours": "2024-05-06", "level": "0", "name": "JIN Chicken", "opening_hours:signed": "no"}}, {"type": "node", "id": 11443585832, "lat": 53.4598381, "lon": 9.9819665, "tags": {"addr:housename": "Harburg Arcaden", "addr:street": "L\u00fcneburger Stra\u00dfe", "amenity": "fast_food", "check_date:opening_hours": "2024-05-06", "level": "0", "name": "THAI FOO", "opening_hours:signed": "no"}}, {"type": "node", "id": 11443585833, "lat": 53.4598861, "lon": 9.9821179, "tags": {"addr:housename": "Harburg Arcaden", "addr:street": "L\u00fcneburger Stra\u00dfe", "amenity": "fast_food", "check_date:opening_hours": "2024-05-06", "cuisine": "juice", "level": "0", "name": "BoBoq", "opening_hours:signed": "no"}}, {"type": "node", "id": 11627785039, "lat": 53.4635847, "lon": 9.9675903, "tags": {"addr:city": "Hamburg", "addr:housenumber": "3a", "addr:postcode": "21075", "addr:street": "Haakestra\u00dfe", "amenity": "fast_food", "cuisine": "kebab", "name": "Big Bite", "opening_hours": "Tu-Sa 14:00-22:00; Su 13:00-22:00", "phone": "+49 040 76757129", "website": "https://bigbitegyros.de/"}}, {"type": "node", "id": 11727048543, "lat": 53.4580369, "lon": 9.9835076, "tags": {"name": "Indian Bazaar", "opening_hours": "Mo-Sa 08:00-20:00", "shop": "supermarket"}}, {"type": "node", "id": 12015822944, "lat": 53.4610545, "lon": 9.9780588, "tags": {"amenity": "fast_food", "cuisine": "pizza", "name": "Casa Italiana Harburg"}}, {"type": "node", "id": 12115655517, "lat": 53.4595969, "lon": 9.9820177, "tags": {"amenity": "fast_food", "name": "D\u00f6ner Royal"}}, {"type": "node", "id": 12566136382, "lat": 53.4608799, "lon": 9.9812903, "tags": {"entrance": "yes", "fair_trade": "only", "name": "Weltladen", "opening_hours": "Tu-Fr 09:30-18:00; Sa 09:30-14:00", "shop": "convenience", "toilets:wheelchair": "no", "wheelchair": "yes", "wheelchair:description": "mit Hilfe einer Mobilenrampe, die im Laden bereit steht"}}, {"type": "node", "id": 12731297007, "lat": 53.4614914, "lon": 9.945173, "tags": {"alt_name": "Spar Markt Corleis", "brand": "Edeka", "brand:wikidata": "Q701755", "check_date:opening_hours": "2024-10-16", "contact:phone": "+49 40 70291247", "contact:website": "https://www.edeka.de/eh/nord/e-aktiv-markt-corleis-hans-dewitz-ring-2a/index.jsp", "level": "0", "name": "Edeka Corleis", "opening_hours": "Mo-Fr 08:00-21:00; Sa 08:00-20:00; PH off", "organic": "yes", "payment:cash": "yes", "payment:credit_cards": "yes", "payment:debit_cards": "yes", "payment:girocard": "yes", "payment:mastercard": "yes", "shop": "supermarket", "wheelchair": "yes"}}, {"type": "node", "id": 12855774085, "lat": 53.4386775, "lon": 9.9360763, "tags": {"addr:city": "Hamburg", "addr:housenumber": "300", "addr:postcode": "21077", "addr:street": "Bremer Stra\u00dfe", "amenity": "fuel", "brand": "Aral", "brand:wikidata": "Q565734", "compressed_air": "yes", "fax": "+49 40 7605345", "fuel:GTL_diesel": "yes", "fuel:diesel": "yes", "fuel:e10": "yes", "fuel:lpg": "no", "fuel:octane_95": "yes", "fuel:octane_98": "yes", "mapillary": "473278033768451", "name": "Aral", "opening_hours": "24/7", "phone": "+49 40 7604241", "survey:date": "2020-06-27", "website": "https://www.aral.de/tankstelle/hamburg/bremer_strasse/13079500.html"}}, {"type": "way", "id": 23732360, "center": {"lat": 53.4666379, "lon": 9.9734516}, "nodes": [257021786, 6653195035, 257021762, 257021767, 6653195034, 7865982428, 257021771, 257021774, 2881689807, 257021783, 257021786], "tags": {"addr:city": "Hamburg", "addr:country": "DE", "addr:housenumber": "28", "addr:postcode": "21073", "addr:street": "Buxtehuder Stra\u00dfe", "brand": "Lidl", "brand:wikidata": "Q151954", "building": "supermarket", "name": "Lidl", "opening_hours": "Mo-Sa 07:00-21:00; PH,Su closed", "operator": "Lidl Vertriebs-GmbH & Co. KG", "payment:american_express": "yes", "payment:cash": "yes", "payment:contactless": "yes", "payment:diners_club": "yes", "payment:discover_card": "yes", "payment:girocard": "yes", "payment:mastercard": "yes", "payment:visa": "yes", "shop": "supermarket", "wheelchair": "yes"}}, {"type": "way", "id": 25544252, "center": {"lat": 53.4327299, "lon": 9.9867823}, "nodes": [278391428, 278391433, 278391431, 278391429, 7618105085, 7618105086, 4535980895, 4535980896, 278391428], "tags": {"addr:city": "Hamburg", "addr:country": "DE", "addr:housenumber": "2", "addr:postcode": "21079", "addr:street": "Gordonstra\u00dfe", "brand": "Markant", "brand:wikidata": "Q57523365", "building": "supermarket", "name": "Markant", "name:fa": "\u0645\u0627\u0631\u06a9\u0627\u0646\u062a", "opening_hours": "Mo-Sa 07:00-21:00; PH, Su off", "operator": "Fritz Feldmann GmbH & Co. KG", "shop": "supermarket", "website": "https://www.markant-online.de/markt/hamburg-gordonstrasse/", "wheelchair": "yes"}}, {"type": "way", "id": 29378993, "center": {"lat": 53.4393961, "lon": 9.9887322}, "nodes": [323157045, 323157047, 323157048, 323157050, 1593148691, 1593148725, 323157051, 323157069, 323157070, 323157041, 323157042, 323157044, 323157045], "tags": {"addr:city": "Hamburg", "addr:country": "DE", "addr:housenumber": "10", "addr:postcode": "21079", "addr:street": "Trelder Weg", "brand": "Netto Marken-Discount", "brand:wikidata": "Q879858", "brand:wikipedia": "de:Netto Marken-Discount", "building": "retail", "name": "Netto Marken-Discount", "name:fa": "\u0646\u062a\u0648", "post_office": "post_partner", "post_office:brand": "Hermes PaketShop", "post_office:brand:wikidata": "Q105702843", "shop": "supermarket", "website": "https://www.netto-online.de/filialen/Hamburg/Trelder-Weg-10/7210/", "wheelchair": "yes"}}, {"type": "way", "id": 32704229, "center": {"lat": 53.4424299, "lon": 9.99326}, "nodes": [367999257, 5316864754, 5316864755, 3659308066, 5316864747, 1607446648, 1607446657, 367999258, 5316864743, 5316864742, 5316864741, 5316864740, 367999254, 5316864739, 367999257], "tags": {"addr:city": "Hamburg", "addr:country": "DE", "addr:housenumber": "23", "addr:postcode": "21079", "addr:street": "R\u00f6nneburger Stra\u00dfe", "brand": "Lidl", "brand:wikidata": "Q151954", "building": "retail", "building:levels": "1", "name": "Lidl", "opening_hours": "Mo-Sa 08:00-21:00", "operator": "Lidl", "payment:credit_cards": "yes", "payment:debit_cards": "yes", "shop": "supermarket", "wheelchair": "yes"}}, {"type": "way", "id": 41398049, "center": {"lat": 53.4574101, "lon": 9.9555901}, "nodes": [506299678, 506299679, 506299680, 506299681, 506299682, 6301146036, 6301146037, 506299683, 7040475113, 6301146038, 1840510746, 506299685, 7040475107, 506299678], "tags": {"addr:housenumber": "35a", "addr:postcode": "21075", "addr:street": "Weusthoffstra\u00dfe", "brand": "Netto Marken-Discount", "brand:wikidata": "Q879858", "brand:wikipedia": "de:Netto Marken-Discount", "building": "supermarket", "check_date:opening_hours": "2024-11-23", "name": "Netto Marken-Discount", "opening_hours": "Mo-Sa 07:00-22:00; PH closed", "payment:cash": "yes", "payment:cryptocurrencies": "no", "payment:electronic_purses": "no", "payment:girocard": "yes", "payment:maestro": "yes", "payment:mastercard": "yes", "payment:v_pay": "yes", "payment:visa": "yes", "shop": "supermarket", "website": "https://www.netto-online.de/filialen/Hamburg/Weusthoffstr-35a/7130/", "wheelchair": "yes"}}, {"type": "way", "id": 107816782, "center": {"lat": 53.4412872, "lon": 9.9597425}, "nodes": [1238424842, 1238424815, 1238424816, 1238424817, 1238424842], "tags": {"addr:city": "Hamburg", "addr:country": "DE", "addr:housenumber": "53", "addr:postcode": "21077", "addr:street": "Ernst-Bergeest-Weg", "brand": "Edeka", "brand:wikidata": "Q701755", "building": "retail", "name": "EDEKA", "opening_hours": "Mo-Fr 07:30-20:00, Sa 07:30-18:00", "shop": "supermarket", "wheelchair": "yes"}}, {"type": "way", "id": 107816824, "center": {"lat": 53.4405457, "lon": 9.9605981}, "nodes": [1238424963, 1238424961, 1238424960, 1238424957, 1238424958, 1238424848, 1238424963], "tags": {"addr:city": "Hamburg", "addr:housenumber": "53", "addr:postcode": "21077", "addr:street": "Ernst-Bergeest-Weg", "brand": "Penny", "brand:wikidata": "Q284688", "building": "retail", "name": "PENNY Marmstorf", "name:fa": "\u067e\u0646\u06cc", "opening_hours": "Mo-Sa 07:00-22:00", "shop": "supermarket", "wheelchair": "yes"}}, {"type": "way", "id": 107907279, "center": {"lat": 53.4306601, "lon": 9.9823668}, "nodes": [1239245542, 1239245575, 1239245515, 1239245579, 1239245542], "tags": {"amenity": "fuel", "building": "yes"}}, {"type": "way", "id": 118148869, "center": {"lat": 53.4712827, "lon": 9.9368466}, "nodes": [1329461231, 1329461236, 7118138503, 7118138504, 7118138505, 7118138506, 1329461237, 7118138509, 7118138508, 1329461232, 7118138497, 7118138507, 7118138510, 1329461231], "tags": {"addr:city": "Hamburg", "addr:country": "DE", "addr:housenumber": "200", "addr:postcode": "21075", "addr:street": "Stader Stra\u00dfe", "alt_name": "Kentucky Fried Chicken", "amenity": "fast_food", "brand": "KFC", "brand:wikidata": "Q524757", "brand:wikipedia": "en:KFC", "building": "retail", "building:levels": "1", "check_date": "2024-03-30", "contact:phone": "+49 40 79140500", "cuisine": "chicken", "diet:vegetarian": "yes", "drive_through": "yes", "indoor_seating": "yes", "name": "KFC", "opening_hours": "Mo-Su 11:00-22:00", "operator": "Ceylan Food Harburg GmbH", "outdoor_seating": "yes", "payment:cash": "yes", "payment:cryptocurrencies": "no", "payment:electronic_purses": "no", "payment:girocard": "yes", "payment:maestro": "yes", "payment:mastercard": "yes", "payment:visa": "yes", "roof:levels": "0", "roof:shape": "flat", "short_name": "KFC", "smoking": "outside", "takeaway": "yes", "website": "https://www.kfc.de/find-a-kfc/kfc-hamburg-stader-str-200", "wheelchair": "yes"}}, {"type": "way", "id": 123781893, "center": {"lat": 53.456114, "lon": 9.9598288}, "nodes": [5671451524, 6553395624, 10561877485, 9048087283, 10561877483, 9048087282, 1379255328, 10561877484, 6553395625, 9505398545, 5671451536, 5671451537, 5671451538, 5671451539, 5671451540, 5671451541, 5671451542, 5671451543, 5671451544, 5671451545, 5671451546, 5671451534, 5671451531, 5671451532, 5671451533, 6553395617, 5671451535, 5671451530, 5671451529, 5671451523, 5671451528, 5671451527, 5671451526, 5671451525, 10561877482, 10561877487, 10561877486, 5671451524], "tags": {"addr:city": "Hamburg", "addr:country": "DE", "addr:housenumber": "4-8", "addr:postcode": "21073", "addr:street": "Kirchenhang", "brand": "Rewe", "brand:wikidata": "Q16968817", "brand:wikipedia": "de:Rewe", "building": "retail", "building:levels": "1", "check_date:opening_hours": "2024-10-20", "contact:phone": "+49 40 79010571", "contact:website": "https://www.rewe.de/marktseite/hamburg/540588/rewe-markt-kirchenhang-4-8/", "internet_access": "wlan", "internet_access:fee": "no", "level": "0", "name": "REWE", "opening_hours": "Mo-Sa 07:00-22:00; PH closed", "organic": "yes", "payment:apple_pay": "yes", "payment:cash": "yes", "payment:contactless": "yes", "payment:cryptocurrencies": "no", "payment:electronic_purses": "no", "payment:maestro": "yes", "payment:mastercard": "yes", "roof:shape": "flat", "shop": "supermarket", "wheelchair": "yes"}}, {"type": "way", "id": 125477788, "center": {"lat": 53.4667269, "lon": 9.9841121}, "nodes": [1393579389, 1393579393, 4844112883, 1393579384, 1393579381, 4844112882, 1393579389], "tags": {"addr:city": "Hamburg", "addr:country": "DE", "addr:housenumber": "8A", "addr:postcode": "21079", "addr:street": "Kanalplatz", "amenity": "fast_food", "building": "retail", "building:levels": "1", "check_date:opening_hours": "2023-06-02", "indoor_seating": "yes", "internet_access": "wlan", "internet_access:fee": "no", "name": "von-bis", "opening_hours": "Mo-Fr 11:00-16:00; Sa,Su,PH 12:00-19:00", "outdoor_seating": "no", "phone": "+49 40 777434", "roof:levels": "0", "roof:shape": "gabled", "smoking": "outside", "takeaway": "yes", "website": "https://vonbis-restaurant.de/", "website:menu": "https://vonbis-restaurant.de/de/112420-Speisekarte", "wheelchair": "no"}}, {"type": "way", "id": 125482046, "center": {"lat": 53.4461937, "lon": 9.9574856}, "nodes": [1393618317, 1393618315, 1393618316, 11923504595, 1393618318, 1393618317], "tags": {"addr:city": "Hamburg", "addr:country": "DE", "addr:housenumber": "239", "addr:postcode": "21073", "addr:street": "Bremer Stra\u00dfe", "amenity": "fast_food", "building": "retail", "building:levels": "1", "cuisine": "curry;german;sausage", "diet:vegetarian": "yes", "email": "info@bruzzelhuette.com", "indoor_seating": "yes", "internet_access": "no", "name": "Bruzzelh\u00fctte", "opening_hours": "Mo-Th 11:00-20:00, Fr,Sa 12:00-21:00;PH,Su off", "outdoor_seating": "yes", "payment:cash": "yes", "payment:contactless": "yes", "payment:maestro": "yes", "phone": "+49 40 7607828", "roof:levels": "0", "smoking": "outside", "takeaway": "yes", "website": "https://bruzzelh\u00fctte.de/", "wheelchair": "limited"}}, {"type": "way", "id": 146018758, "center": {"lat": 53.4435159, "lon": 9.9925007}, "nodes": [1593156426, 9701240739, 9701240738, 1593156411, 1593156401, 9701240768, 9701240723, 9701240769, 9701240721, 9701240770, 1593156418, 1593156426], "tags": {"addr:city": "Hamburg", "addr:country": "DE", "addr:housenumber": "5", "addr:postcode": "21079", "addr:street": "R\u00f6nneburger Stra\u00dfe", "brand": "Aldi Nord", "brand:wikidata": "Q41171373", "brand:wikipedia": "en:Aldi", "building": "supermarket", "check_date:opening_hours": "2023-04-03", "contact:website": "https://www.aldi-nord.de/tools/filialen-und-oeffnungszeiten/hamburg/harburg/roenneburger-strasse-5.html", "name": "Aldi", "opening_hours": "Mo-Sa 07:00-21:00; PH off", "shop": "supermarket", "wheelchair": "yes"}}, {"type": "way", "id": 148053924, "center": {"lat": 53.4439606, "lon": 9.9552083}, "nodes": [1611631847, 1611631839, 1611631845, 1611631842, 1611631847], "tags": {"addr:city": "Hamburg", "addr:country": "DE", "addr:housenumber": "21", "addr:postcode": "21077", "addr:street": "Beutnerring", "brand": "ALDI Nord", "brand:wikidata": "Q41171373", "building": "supermarket", "name": "ALDI Nord", "opening_hours": "Mo-Sa 07:00-21:00; PH off", "operator": "ALDI GmbH & Co. KG Seevetal", "shop": "supermarket", "website": "https://www.aldi-nord.de/tools/filialen-und-oeffnungszeiten/hamburg/harburg/beutnerring-21.html", "wheelchair": "yes"}}, {"type": "way", "id": 148054290, "center": {"lat": 53.4480068, "lon": 9.9444639}, "nodes": [1611635296, 1611635325, 1611635322, 5761809610, 1611635318, 5761809596, 6866232019, 5761809595, 1611635315, 6799903951, 5761809612, 5761809611, 6799903953, 6799903952, 9468670842, 1611635296], "tags": {"addr:city": "Hamburg", "addr:country": "DE", "addr:housenumber": "35d", "addr:postcode": "21077", "addr:street": "Beerentalweg", "brand": "Penny", "brand:wikidata": "Q284688", "brand:wikipedia": "en:Penny (supermarket)", "building": "supermarket", "check_date:opening_hours": "2023-05-08", "name": "PENNY", "opening_hours": "Mo-Sa 07:00-22:00; PH,Su off", "operator": "Rewe Group", "payment:cash": "yes", "payment:girocard": "yes", "payment:maestro": "yes", "payment:mastercard": "yes", "payment:visa": "yes", "shop": "supermarket", "website": "https://www.penny.de", "wheelchair": "yes"}}, {"type": "way", "id": 260645844, "center": {"lat": 53.452034, "lon": 9.9720644}, "nodes": [2661639297, 6418487518, 6418487517, 2661639298, 2661639299, 2661639300, 2661639301, 2661639302, 2661639297], "tags": {"addr:city": "Hamburg", "addr:country": "DE", "addr:housenumber": "94", "addr:postcode": "21073", "addr:street": "Bremer Stra\u00dfe", "amenity": "fast_food", "building": "retail", "building:levels": "1", "check_date": "2024-11-03", "check_date:diet:vegan": "2024-11-03", "check_date:smoking": "2024-11-03", "cuisine": "pizza", "delivery": "yes", "diet:vegan": "yes", "diet:vegetarian": "yes", "drive_through": "no", "indoor_seating": "yes", "name": "Ready Pizza", "opening_hours": "Mo-Th 11:30-22:00; Fr 11:30-23:30; Sa 12:00-23:30; Su 12:00-22:00", "outdoor_seating": "yes", "smoking": "outside", "takeaway": "yes"}}, {"type": "way", "id": 310298918, "center": {"lat": 53.448236, "lon": 9.9633327}, "nodes": [3157163476, 3157163392, 3157163397, 3157163407, 3157163413, 3157163419, 3157163424, 3157163472, 3157163484, 3157163517, 3157163514, 3157163522, 3157163513, 3157163509, 3157163478, 3157163485, 3157163476], "tags": {"addr:housenumber": "179", "addr:street": "Bremer Stra\u00dfe", "brand": "Lidl", "brand:wikidata": "Q151954", "building": "retail", "name": "Lidl", "opening_hours": "Mo-Sa 07:00-21:00", "roof:shape": "flat", "shop": "supermarket", "wheelchair": "yes"}}, {"type": "way", "id": 771621247, "center": {"lat": 53.4642767, "lon": 9.9653737}, "nodes": [7203356723, 5954188876, 5954188875, 5954188874, 5954188873, 5954188872, 7203356723], "tags": {"building:part": "retail", "check_date:opening_hours": "2022-10-02", "level": "0", "name": "Sebastian's Markt", "shop": "convenience", "wheelchair": "yes"}}, {"type": "way", "id": 816206973, "center": {"lat": 53.4625219, "lon": 9.984426}, "nodes": [7622963895, 7622963894, 7622963893, 1069295364, 1427319921, 1069295834, 295406036, 7299738014, 7299738015, 7622963892, 7622963891, 7622963895], "tags": {"amenity": "fuel", "brand": "JET", "brand:wikidata": "Q568940", "fuel:HGV_diesel": "yes", "fuel:adblue:hgv": "yes", "fuel:adblue:motorcar": "yes", "fuel:diesel": "yes", "fuel:lpg": "yes", "name": "JET", "opening_hours": "24/7", "payment:dkv": "yes", "shop": "kiosk", "toilets": "yes", "toilets:access": "customers", "wheelchair": "yes"}}, {"type": "way", "id": 845121144, "center": {"lat": 53.4573862, "lon": 10.0098149}, "nodes": [7884492945, 7884492944, 7884492943, 7884492942, 7884492945], "tags": {"amenity": "fast_food", "building": "retail", "building:levels": "1", "name": "Kutscherstube", "nohousenumber": "yes"}}, {"type": "way", "id": 849108086, "center": {"lat": 53.444707, "lon": 9.9911173}, "nodes": [1658683499, 7922160030, 7922160031, 7922160034, 7922160033, 1658683499], "tags": {"addr:city": "Hamburg", "addr:housenumber": "91", "addr:postcode": "21077", "addr:street": "Winsener Stra\u00dfe", "amenity": "fuel", "brand": "Shell", "brand:wikidata": "Q110716465", "brand:wikipedia": "en:Royal Dutch Shell", "building": "retail", "building:levels": "1", "compressed_air": "yes", "fuel:GTL_diesel": "yes", "fuel:diesel": "yes", "fuel:e10": "yes", "fuel:lpg": "no", "fuel:octane_95": "yes", "fuel:octane_98": "yes", "name": "Shell", "opening_hours": "Mo-Sa 06:00-22:00; Su 07:00-22:00", "roof:levels": "0", "roof:shape": "flat", "website": "https://find.shell.com/de/fuel/10024869-hamburg-winsener-str-91"}}, {"type": "way", "id": 885572975, "center": {"lat": 53.4412516, "lon": 9.9474519}, "nodes": [8234851863, 8234851862, 8234851861, 8234851860, 8234851859, 8234851858, 8234851863], "tags": {"addr:housenumber": "297", "addr:street": "Bremer Stra\u00dfe", "amenity": "fuel", "brand": "Shell", "brand:wikidata": "Q110716465", "compressed_air": "yes", "fuel:GTL_diesel": "yes", "fuel:biodiesel": "no", "fuel:diesel": "yes", "fuel:e10": "yes", "fuel:electricity": "no", "fuel:lpg": "no", "fuel:octane_95": "yes", "fuel:octane_98": "yes", "landuse": "retail", "name": "Shell", "opening_hours": "Mo-Sa 05:00-22:00, Su 06:00-22:00", "wheelchair": "yes"}}, {"type": "way", "id": 904208840, "center": {"lat": 53.4562942, "lon": 9.9553544}, "nodes": [1393614463, 1292977450, 6301146035, 8089691908, 1393614461, 8397656128, 8397656127, 8397656126, 8397656125, 8397656124, 8397656123, 1292976620, 1292977131, 8397656122, 1429281134, 8397656121, 8397656120, 1393614483, 1292976503, 1393614463], "tags": {"addr:housenumber": "30", "addr:street": "Weusthoffstra\u00dfe", "amenity": "fuel", "brand": "Shell", "brand:wikidata": "Q110716465", "compressed_air": "yes", "fuel:GTL_diesel": "yes", "fuel:diesel": "yes", "fuel:e10": "yes", "fuel:lpg": "yes", "fuel:octane_95": "yes", "fuel:octane_98": "yes", "internet_access": "wlan", "internet_access:fee": "no", "landuse": "commercial", "loc_name": "Kopflos Shell", "name": "Shell", "opening_hours": "24/7", "operator": "Yimporn GmbH", "payment:american_express": "yes", "payment:cash": "yes", "payment:contactless": "yes", "payment:cryptocurrencies": "no", "payment:diners_club": "yes", "payment:electronic_purses": "no", "payment:girocard": "yes", "payment:maestro": "yes", "payment:mastercard": "yes", "payment:visa": "yes", "shop": "convenience"}}, {"type": "way", "id": 922694328, "center": {"lat": 53.4607365, "lon": 9.9816223}, "nodes": [1069294867, 5760380968, 5760380970, 1069295375, 1069295283, 1069295307, 5760380964, 1069295029, 1069294867], "tags": {"amenity": "fast_food", "check_date:opening_hours": "2024-02-12", "cuisine": "kebab", "name": "Wunder D\u00f6ner & Kumpir", "opening_hours:signed": "no", "room": "indoor"}}, {"type": "way", "id": 924052617, "center": {"lat": 53.4574606, "lon": 9.9540541}, "nodes": [1253668394, 1253668373, 8577833929, 1253668393, 4811305520, 268654192, 1253668372, 1253668394], "tags": {"brand": "Penny", "brand:wikidata": "Q284688", "brand:wikipedia": "en:Penny (supermarket)", "building:levels": "1", "building:part": "retail", "check_date:opening_hours": "2024-10-15", "name": "PENNY", "opening_hours": "Mo-Sa 07:00-22:00", "payment:american_express": "yes", "payment:cash": "yes", "payment:contactless": "yes", "payment:girocard": "yes", "payment:maestro": "yes", "payment:mastercard": "yes", "payment:payback_app": "yes", "payment:v_pay": "yes", "payment:visa": "yes", "roof:levels": "0", "roof:shape": "flat", "shop": "supermarket", "wheelchair": "yes"}}, {"type": "way", "id": 926781223, "center": {"lat": 53.4285552, "lon": 9.9817735}, "nodes": [8599665754, 8599665753, 8599665752, 8599665751, 8599665750, 8599665749, 8599665748, 8599665754], "tags": {"amenity": "fuel", "brand": "bft", "brand:wikidata": "Q1009104", "fuel:diesel": "yes", "fuel:e10": "yes", "fuel:lpg": "no", "fuel:octane_95": "yes", "fuel:octane_98": "yes", "mapillary": "400189238674572", "name": "R\u00f6nneburger Kirchweg", "opening_hours": "Mo-Fr 05:30-22:00, Sa 06:00-22:00, Su 07:00-22:00", "survey:date": "2022-05-18"}}, {"type": "way", "id": 1159239833, "center": {"lat": 53.4567263, "lon": 9.9435344}, "nodes": [10780394816, 10780394817, 10780394818, 10780394819, 10780394816], "tags": {"access": "private", "amenity": "fast_food", "building": "yes", "fast_food": "cafeteria", "operator": "Heisenberg- Gymnasium Hamburg"}}, {"type": "way", "id": 1303162904, "center": {"lat": 53.4309874, "lon": 9.9823811}, "nodes": [12068850825, 12068850824, 12068879720, 8463731799, 8463731800, 12068879726, 7858203567, 7858203576, 12068850825], "tags": {"amenity": "fuel"}}]