[{"type": "node", "id": 367032893, "lat": 53.511582, "lon": 10.2364198, "tags": {"addr:city": "Reinbek", "brand": "ALDI Nord", "brand:wikidata": "Q41171373", "brand:wikipedia": "hu:Aldi Nord", "name": "ALDI Nord", "shop": "supermarket", "toilets:wheelchair": "yes", "wheelchair": "yes"}}, {"type": "node", "id": 367819125, "lat": 53.5148112, "lon": 10.1678221, "tags": {"addr:city": "Hamburg", "addr:country": "DE", "addr:housenumber": "4", "addr:postcode": "21031", "addr:street": "Heidhorst", "brand": "EDEKA", "brand:wikidata": "Q701755", "brand:wikipedia": "de:Edeka", "contact:phone": "+49 40 41092880", "contact:website": "https://www.edeka.de/eh/nord/edeka-hebig-heidhorst-4/index.jsp", "email": "Edeka.Hebig.nord@edeka.de", "name": "EDEKA aktiv markt", "opening_hours": "Mo-Sa 07:00-21:00; PH off", "shop": "supermarket", "wheelchair": "yes"}}, {"type": "node", "id": 428182373, "lat": 53.4871395, "lon": 10.1799039, "tags": {"addr:city": "Hamburg", "addr:country": "DE", "addr:housenumber": "4", "addr:postcode": "21035", "addr:street": "Edith-Stein-Platz", "brand": "EDEKA", "brand:wikidata": "Q701755", "brand:wikipedia": "de:Edeka", "contact:phone": "+49 40 7355854", "contact:website": "https://www.edeka.de/eh/nord/e-neukauf-pelz-edith-stein-platz-4/index.jsp", "name": "Edeka", "opening_hours": "Mo-Sa 07:00-20:00; PH off", "operator": "Edeka", "shop": "supermarket", "wheelchair": "yes"}}, {"type": "node", "id": 475040822, "lat": 53.4893835, "lon": 10.1574119, "tags": {"addr:city": "Hamburg", "addr:country": "DE", "addr:housenumber": "2-4", "addr:postcode": "21035", "addr:street": "Fleetplatz", "brand": "EDEKA", "brand:wikidata": "Q701755", "check_date": "2024-05-04", "contact:phone": "+49 40 73580823", "contact:website": "https://www.edeka.de/eh/nord/edeka-n%C3%B6hring-fleetplatz-2-4/index.jsp", "level": "0", "name": "Edeka", "opening_hours": "Mo-Sa 07:00-21:00; PH off", "shop": "supermarket", "wheelchair": "yes"}}, {"type": "node", "id": 611334610, "lat": 53.4894587, "lon": 10.1590279, "tags": {"addr:city": "Hamburg", "addr:country": "DE", "addr:housenumber": "1-7", "addr:postcode": "21035", "addr:street": "Fleetplatz", "brand": "Penny", "brand:wikidata": "Q284688", "brand:wikipedia": "en:Penny (supermarket)", "check_date:opening_hours": "2023-10-30", "level": "0", "name": "Penny", "opening_hours": "Mo-Sa 07:00-22:00; PH off", "shop": "supermarket", "wheelchair": "yes"}}, {"type": "node", "id": 732717445, "lat": 53.4817494, "lon": 10.2080095, "tags": {"addr:city": "Hamburg", "addr:housenumber": "34", "addr:postcode": "21029", "addr:street": "Curslacker Neuer Deich", "amenity": "fuel", "brand": "Aral", "brand:wikidata": "Q565734", "brand:wikipedia": "de:Aral", "check_date": "2022-02-15", "contact:fax": "+49 40 72698678", "contact:phone": "+49 40 72698676", "contact:website": "https://tankstelle.aral.de/hamburg/curslacker-neuer-deich-34/28620500", "fuel:GTL_diesel": "yes", "fuel:cng": "no", "fuel:diesel": "yes", "fuel:e10": "yes", "fuel:lpg": "no", "fuel:octane_102": "yes", "fuel:octane_95": "yes", "name": "Aral", "opening_hours": "24/7", "source": "http://www.gas-tankstellen.de", "tenant": "Sascha Radtke"}}, {"type": "node", "id": 757358018, "lat": 53.4929341, "lon": 10.1976566, "tags": {"amenity": "fuel", "brand": "HEM", "brand:wikidata": "Q109930239", "fuel:e10": "yes", "fuel:lpg": "yes", "fuel:octane_95": "yes", "name": "HEM", "opening_hours": "Mo-Sa 06:00-22:00; Su,PH 07:00-22:00", "operator": "Frau Isabella Arslan", "phone": "+49 40 41922719", "website": "https://www.hem-tankstelle.de/partner/HEM/Hamburg/Bergedorfer-Str-48"}}, {"type": "node", "id": 1269116635, "lat": 53.4981799, "lon": 10.203097, "tags": {"amenity": "fast_food", "cuisine": "german", "name": "MrBeef Hamburg", "toilets:wheelchair": "no", "wheelchair": "no"}}, {"type": "node", "id": 1269116646, "lat": 53.4971493, "lon": 10.2042633, "tags": {"addr:city": "Hamburg", "addr:housenumber": "26", "addr:postcode": "21031", "addr:street": "Lohbr\u00fcgger Landstra\u00dfe", "amenity": "fast_food", "cuisine": "greek", "drive_through": "no", "indoor_seating": "yes", "name": "Taverna Alexandros", "opening_hours": "Tu off", "outdoor_seating": "no", "phone": "+49 40 7215680", "smoking": "no", "website": "https://www.gyros-taxi.com/"}}, {"type": "node", "id": 1278484419, "lat": 53.4871667, "lon": 10.1808287, "tags": {"amenity": "fast_food", "cuisine": "greek", "name": "Akropolis", "opening_hours": "Tu-Su 12:00-22:00", "toilets:wheelchair": "no", "wheelchair": "yes"}}, {"type": "node", "id": 1285125490, "lat": 53.4928937, "lon": 10.2074659, "tags": {"addr:city": "Hamburg", "addr:housenumber": "23-25", "addr:postcode": "21031", "addr:street": "Alte Holstenstra\u00dfe", "brand": "PENNY", "brand:wikidata": "Q284688", "brand:wikipedia": "en:Penny (supermarket)", "name": "PENNY Alte Holstenstra\u00dfe", "opening_hours": "Mo-Sa 07:00-22:00", "shop": "supermarket", "wheelchair": "yes"}}, {"type": "node", "id": 1500705095, "lat": 53.4899888, "lon": 10.2058631, "tags": {"amenity": "fast_food", "check_date": "2023-05-07", "cuisine": "kebab;pizza;turkish", "description:de": "Grill- und Backshop", "diet:vegan": "no", "diet:vegetarian": "yes", "indoor_seating": "yes", "internet_access": "no", "level": "1", "name": "Pamukkale", "opening_hours": "Mo-Th 04:00-02:00, Fr-Sa 05:00-04:00, Su 05:00-01:00", "outdoor_seating": "yes", "payment:cash": "yes", "payment:credit_cards": "no", "payment:cryptocurrencies": "no", "payment:debit_cards": "no", "payment:electronic_purses": "no", "phone": "+49 40 72693710", "smoking": "outside", "takeaway": "yes", "website": "https://www.einkaufsbahnhof.de/hamburg-bergedorf/hh-bergedorf_pamukkale_back-und-grillshop-s10588", "wheelchair": "yes"}}, {"type": "node", "id": 1500705988, "lat": 53.4894318, "lon": 10.2069216, "tags": {"air_conditioning": "yes", "amenity": "fast_food", "brand": "McDonald's", "brand:wikidata": "Q38076", "brand:wikipedia": "en:McDonald's", "check_date": "2023-05-07", "contact:phone": "+49 40 41922980", "cuisine": "burger", "delivery": "no", "diet:vegan": "no", "diet:vegetarian": "yes", "indoor_seating": "yes", "internet_access": "wlan", "internet_access:fee": "no", "name": "McDonald's", "opening_hours": "Mo-Th 07:00-01:00, Fr 07:00-05:00, Sa 07:00-06:00, Su 09:00-01:00", "operator": "Michael Kaup Systemgastronomie e.K.", "outdoor_seating": "no", "payment:cash": "yes", "payment:cryptocurrencies": "no", "payment:electronic_purses": "no", "payment:girocard": "yes", "smoking": "no", "takeaway": "yes", "wheelchair": "limited"}}, {"type": "node", "id": 1500707347, "lat": 53.4900335, "lon": 10.2087813, "tags": {"amenity": "fast_food", "name": "Best Grill"}}, {"type": "node", "id": 1530319607, "lat": 53.4823644, "lon": 10.2095475, "tags": {"addr:city": "Hamburg", "addr:country": "DE", "addr:housenumber": "31", "addr:postcode": "21029", "addr:street": "Curslacker Neuer Deich", "addr:suburb": "Bergedorf", "amenity": "fast_food", "cuisine": "kebab", "name": "Sis Kebap", "phone": "+49 40 7218324", "smoking": "yes", "wheelchair": "yes"}}, {"type": "node", "id": 1585061911, "lat": 53.4843642, "lon": 10.2277106, "tags": {"addr:housenumber": "96", "addr:postcode": "21029", "addr:street": "August-Bebel-Stra\u00dfe", "brand": "Nah & Frisch", "brand:wikidata": "Q1963643", "name": "Nah & Frisch", "opening_hours": "Mo-Fr 06:30-19:00; Sa 07:00-15:00; Su 08:00-12:00", "operator": "Sarikaya", "phone": "+49 040-72545303", "shop": "supermarket", "source": "Seb1982", "website": "https://www.nahundfrisch.de", "wheelchair": "limited"}}, {"type": "node", "id": 1668445425, "lat": 53.4900758, "lon": 10.2028652, "tags": {"addr:city": "Hamburg", "addr:country": "DE", "addr:housenumber": "76", "addr:postcode": "21033", "addr:street": "Bergedorfer Stra\u00dfe", "amenity": "fuel", "brand": "JET", "brand:wikidata": "Q568940", "brand:wikipedia": "en:Jet (brand)", "check_date": "2023-05-07", "compressed_air": "yes", "contact:fax": "+49 40 24835218", "contact:phone": "+49 40 24835297", "contact:website": "https://www.jet-tankstellen.de/tankstellen/hamburg/bergedorfer-str-76/", "diesel": "yes", "fuel:HGV_diesel": "yes", "fuel:diesel": "yes", "fuel:octane_91": "yes", "fuel:octane_95": "yes", "fuel:octane_98": "yes", "name": "Jet", "opening_hours": "Mo-Sa 05:00-23:00; Su 07:00-23:00", "operator": "Conoco Phillips", "payment:dkv": "yes", "payment:uta": "yes", "tenant": "Vincenzo Barile", "wheelchair": "yes"}}, {"type": "node", "id": 1846396589, "lat": 53.4885063, "lon": 10.2112721, "tags": {"addr:city": "Hamburg", "addr:country": "DE", "addr:housenumber": "2", "addr:postcode": "21029", "addr:street": "Sachsentor", "amenity": "fast_food", "drive_through": "no", "indoor_seating": "yes", "level": "-1", "name": "Jim Block", "opening_hours": "Su-Th 11:30-22:00; Fr-Sa 11:30-23:00", "outdoor_seating": "yes", "phone": "+49 40 7212425", "toilets:wheelchair": "no", "website": "http://www.jim-block.de/restaurants.html#bergedorf", "wheelchair": "no"}}, {"type": "node", "id": 2139225281, "lat": 53.5036853, "lon": 10.2128102, "tags": {"amenity": "fast_food", "cuisine": "kebab", "indoor_seating": "yes", "name": "Urfalim D\u00f6ner", "outdoor_seating": "yes", "toilets:wheelchair": "no", "wheelchair": "yes"}}, {"type": "node", "id": 2218638250, "lat": 53.4860186, "lon": 10.2141866, "tags": {"addr:city": "Hamburg", "addr:country": "DE", "addr:housenumber": "148", "addr:postcode": "21029", "addr:street": "Bergedorfer Stra\u00dfe", "branch": "Heine", "brand": "EDEKA", "brand:wikidata": "Q701755", "check_date": "2025-02-28", "contact:phone": "+49 40 7216070", "contact:website": "https://www.edeka.de/eh/nord/e-aktiv-markt-heine-bergedorfer-str.-148/index.jsp", "name": "EDEKA Heine", "opening_hours": "Mo-Sa 07:00-22:00; PH off", "shop": "supermarket", "wheelchair": "yes"}}, {"type": "node", "id": 2218638272, "lat": 53.487536, "lon": 10.2070677, "tags": {"addr:city": "Hamburg", "addr:country": "DE", "addr:housenumber": "106", "addr:postcode": "21029", "addr:street": "Bergedorfer Stra\u00dfe", "brand": "Kaufland", "brand:wikidata": "Q685967", "brand:wikipedia": "en:Kaufland", "check_date": "2023-10-19", "level": "0", "name": "Kaufland", "opening_hours": "Mo-Fr 07:00-24:00, Sa 07:00-23:30; PH off", "payment:cash": "yes", "payment:cryptocurrencies": "no", "payment:electronic_purses": "no", "payment:girocard": "yes", "payment:maestro": "yes", "payment:mastercard": "yes", "payment:visa": "yes", "shop": "supermarket", "wheelchair": "yes"}}, {"type": "node", "id": 2292617497, "lat": 53.4890708, "lon": 10.1950268, "tags": {"amenity": "fuel", "brand": "Nordoel", "brand:wikidata": "Q1759888", "compressed_air": "yes", "fuel:HGV_diesel": "yes", "fuel:diesel": "yes", "fuel:e10": "yes", "fuel:octane_95": "yes", "fuel:octane_98": "yes", "name": "Nordoel", "opening_hours": "Mo-Fr 05:00-22:00; Sa 07:00-22:00; Su 08:00-22:00", "wheelchair": "limited"}}, {"type": "node", "id": 2292623623, "lat": 53.4891919, "lon": 10.1817182, "tags": {"addr:city": "Hamburg", "addr:country": "DE", "addr:housenumber": "81", "addr:postcode": "21033", "addr:street": "Friedrich-Frank-Bogen", "brand": "Mix Markt", "brand:wikidata": "Q327854", "brand:wikipedia": "de:Mix Markt", "check_date:opening_hours": "2023-02-14", "name": "Mix Markt", "opening_hours": "Mo-Fr 09:00-19:00; Sa 09:00-18:00", "shop": "supermarket", "wheelchair": "yes"}}, {"type": "node", "id": 2296156574, "lat": 53.4771687, "lon": 10.182057, "tags": {"brand": "PENNY", "brand:wikidata": "Q284688", "name": "PENNY", "name:fa": "\u067e\u0646\u06cc", "opening_hours": "Mo-Sa 07:00-20:00", "shop": "supermarket"}}, {"type": "node", "id": 2301093838, "lat": 53.4827237, "lon": 10.199011, "tags": {"addr:city": "Hamburg", "addr:housenumber": "5", "addr:postcode": "21035", "addr:street": "Wiesnerring", "brand": "E-Center", "brand:wikidata": "Q701755", "check_date:opening_hours": "2024-05-24", "name": "Frischemarkt Wiesnerring", "opening_hours": "Mo-Sa 07:00-19:00", "operator": "EDEKA", "shop": "supermarket"}}, {"type": "node", "id": 2301140156, "lat": 53.4882061, "lon": 10.2095811, "tags": {"brand": "EDEKA", "brand:wikidata": "Q701755", "brand:wikipedia": "de:Edeka", "name": "EDEKA", "shop": "supermarket", "wheelchair": "yes"}}, {"type": "node", "id": 2301162629, "lat": 53.4863499, "lon": 10.2141237, "tags": {"addr:street": "Sachsentor", "brand": "Denns BioMarkt", "brand:wikidata": "Q48883773", "check_date:opening_hours": "2024-01-17", "name": "Denns BioMarkt", "opening_hours": "Mo-Sa 07:00-21:00; PH off", "operator": "Dennree GmbH", "operator:wikidata": "Q1189641", "organic": "only", "payment:cash": "yes", "payment:contactless": "yes", "payment:maestro": "yes", "payment:mastercard": "yes", "payment:visa": "yes", "phone": "+49 40 72542308", "shop": "supermarket", "website": "https://www.denns-biomarkt.de/hamburg-bergedorf-sachsentor-58/marktseite/", "wheelchair": "yes"}}, {"type": "node", "id": 2322363338, "lat": 53.4881842, "lon": 10.2089474, "tags": {"name": "Angier Gew\u00fcrze aus aller Welt", "shop": "convenience"}}, {"type": "node", "id": 2729415819, "lat": 53.5153075, "lon": 10.1666309, "tags": {"amenity": "fast_food", "cuisine": "kebab", "name": "Boberg D\u00f6ner Haus", "toilets:wheelchair": "no", "wheelchair": "yes"}}, {"type": "node", "id": 2842835296, "lat": 53.4870699, "lon": 10.2123842, "tags": {"amenity": "fast_food", "brand": "Pizza Max", "brand:wikidata": "Q114189329", "contact:phone": "+49 40 720044444", "contact:website": "http://www.pizzamax.de/pizza-lieferservice-bergedorf-bergedorfer-str-127/", "cuisine": "pizza", "delivery": "yes", "name": "Pizza Max", "opening_hours": "Su-Th 11:00-23:00, Fr,Sa 11:00-24:00", "takeaway": "yes", "toilets:wheelchair": "no", "wheelchair": "yes"}}, {"type": "node", "id": 3016210579, "lat": 53.4919434, "lon": 10.2067544, "tags": {"addr:city": "Hamburg", "addr:country": "DE", "addr:housenumber": "30", "addr:postcode": "21031", "addr:street": "Alte Holstenstra\u00dfe", "brand": "EDEKA", "brand:wikidata": "Q701755", "brand:wikipedia": "de:Edeka", "email": "bergedorf@marktkauf-center.de", "name": "E-Center", "opening_hours": "Mo-Fr 08:00-21:00; Sa 07:00-21:00", "operator": "Edeka Nord", "phone": "+49 40 721000", "shop": "supermarket", "website": "https://www.marktkauf-center-bergedorf.de", "wheelchair": "yes"}}, {"type": "node", "id": 3648567931, "lat": 53.4895969, "lon": 10.1589181, "tags": {"amenity": "fast_food", "check_date": "2024-09-10", "level": "0", "name": "Fleet Grill House", "toilets:wheelchair": "no", "wheelchair": "yes"}}, {"type": "node", "id": 3713145339, "lat": 53.48557, "lon": 10.2168913, "tags": {"amenity": "fast_food", "cuisine": "sushi", "delivery": "yes", "name": "Ika Sushi und Wok", "opening_hours": "Mo-Fr 11:30-22:00; Sa 14:00-22:00; Su 12:00-22:00", "website": "https://ikasushiundwok.de/7748"}}, {"type": "node", "id": 4033190807, "lat": 53.4895616, "lon": 10.2067093, "tags": {"amenity": "fast_food", "brand": "Subway", "brand:wikidata": "Q244457", "cuisine": "sandwich", "level": "1", "name": "Subway", "opening_hours": "Mo-Th 09:00-22:00; Fr 09:00-23:00; Sa 10:00-23:00; Su,PH 10:00-21:00", "takeaway": "yes", "wheelchair": "yes"}}, {"type": "node", "id": 4066354168, "lat": 53.4867937, "lon": 10.1799092, "tags": {"addr:city": "Hamburg", "addr:country": "DE", "addr:housenumber": "1", "addr:postcode": "21035", "addr:street": "Edith-Stein-Platz", "amenity": "fast_food", "branch": "Hamburg Bergedorf", "brand": "Call a Pizza", "brand:wikidata": "Q1027107", "contact:phone": "+49 40 74202360", "contact:website": "https://www.call-a-pizza.de/hamburg_bergedorf/", "cuisine": "pizza", "delivery": "yes", "diet:vegan": "yes", "diet:vegetarian": "yes", "name": "Call a Pizza", "opening_hours": "Mo-Fr 11:00-23:00; Sa, Su 12:00-23:00", "operator": "Call'a'Pizza", "takeaway": "yes", "toilets:wheelchair": "no", "wheelchair": "yes"}}, {"type": "node", "id": 5045405183, "lat": 53.5137946, "lon": 10.2095916, "tags": {"amenity": "fuel", "name": "EDEKA Tanken"}}, {"type": "node", "id": 5054072111, "lat": 53.5048335, "lon": 10.2038604, "tags": {"name": "Kiosk", "shop": "convenience"}}, {"type": "node", "id": 5056117585, "lat": 53.4890669, "lon": 10.2058024, "tags": {"brand": "U-Store", "brand:wikidata": "Q113290511", "level": "2", "name": "U-Store", "shop": "convenience", "wheelchair": "limited"}}, {"type": "node", "id": 5056117587, "lat": 53.4890091, "lon": 10.2076405, "tags": {"amenity": "fast_food", "contact:website": "http://www.soulkebab.com/", "cuisine": "kebab", "delivery": "no", "indoor_seating": "yes", "internet_access": "no", "name": "Soul Kebab", "opening_hours": "10:00-23:00", "operator": "Celik Doner & Fleischgro\u00dfhandel GmbH", "outdoor_seating": "yes", "payment:cash": "yes", "payment:credit_cards": "no", "payment:cryptocurrencies": "no", "payment:debit_cards": "no", "payment:electronic_purses": "no", "smoking": "outside", "takeaway": "yes", "toilets:wheelchair": "no", "wheelchair": "yes"}}, {"type": "node", "id": 5056117589, "lat": 53.4891411, "lon": 10.2075234, "tags": {"name": "CMB", "opening_hours": "Mo-Sa 08:00-20:00", "shop": "supermarket"}}, {"type": "node", "id": 5175165326, "lat": 53.4973707, "lon": 10.2091833, "tags": {"addr:city": "Hamburg", "addr:country": "DE", "addr:housenumber": "21", "addr:postcode": "21031", "addr:street": "Am Beckerkamp", "amenity": "fuel", "brand": "OIL!", "brand:wikidata": "Q2007561", "brand:wikipedia": "de:OIL! Tankstellen", "check_date:opening_hours": "2025-05-12", "compressed_air": "yes", "fuel:diesel": "yes", "fuel:e10": "yes", "fuel:lpg": "yes", "fuel:octane_95": "yes", "fuel:octane_98": "yes", "name": "OIL!", "opening_hours": "Mo-Fr 06:00-22:00, Sa-Su 07:00-22:00", "phone": "+49 40 72541910", "wheelchair": "yes"}}, {"type": "node", "id": 5245788691, "lat": 53.4951584, "lon": 10.2055026, "tags": {"amenity": "fast_food", "brand": "Domino's", "brand:wikidata": "Q839466", "brand:wikipedia": "en:Domino's Pizza", "contact:email": "info@dominos.de", "contact:phone": "+49 40 730 42 42", "contact:website": "https://www.dominos.de/kaufhaus/de-hamburgbergedorflohbrgge-33752", "cuisine": "pizza", "name": "Domino's", "opening_hours": "Mo-Su 11:00-23:00", "takeaway": "yes"}}, {"type": "node", "id": 5245788692, "lat": 53.4948753, "lon": 10.2057889, "tags": {"amenity": "fast_food", "cuisine": "sushi", "name": "Soul Sushi", "opening_hours": "Mo-Th 11:00-21:30; Fr 11:00-22:00; PH,Sa,Su 12:00-22:00"}}, {"type": "node", "id": 5250651263, "lat": 53.488148, "lon": 10.1811822, "tags": {"amenity": "fast_food", "diet:vegetarian": "yes", "indoor_seating": "yes", "name": "Brothers", "opening_hours": "Mo-Fr 09:00-24:00, Sa 09:00-01:00", "outdoor_seating": "yes", "wheelchair": "yes"}}, {"type": "node", "id": 5282350253, "lat": 53.5088308, "lon": 10.1861228, "tags": {"addr:city": "Hamburg", "addr:country": "DE", "addr:housenumber": "26b", "addr:postcode": "21031", "addr:street": "Mendelstra\u00dfe", "amenity": "fast_food", "cuisine": "kebab", "name": "Miss Kebap", "start_date": "2017-12-18"}}, {"type": "node", "id": 5282350256, "lat": 53.5088301, "lon": 10.1862963, "tags": {"addr:city": "Hamburg", "addr:country": "DE", "addr:housenumber": "26d", "addr:postcode": "21031", "addr:street": "Mendelstra\u00dfe", "amenity": "fast_food", "contact:phone": "+49 40 75110666", "contact:website": "https://www.masalaexpress.de", "cuisine": "indian", "delivery": "yes", "name": "Masala", "opening_hours": "11:30-22:30", "takeaway": "yes"}}, {"type": "node", "id": 5730622104, "lat": 53.4894809, "lon": 10.1814166, "tags": {"amenity": "fast_food", "name": "Kebab"}}, {"type": "node", "id": 5741374630, "lat": 53.4872945, "lon": 10.2153751, "tags": {"contact:email": "info@weltladen-bergedorf.de", "contact:phone": "+49 40 7219610", "contact:website": "http://weltlaeden.de/bergedorf", "fair_trade": "only", "name": "Weltladen Bergedorf", "opening_hours": "Mo-Fr 10:00-18:00; Sa 10:00-14:00", "shop": "convenience"}}, {"type": "node", "id": 6473966485, "lat": 53.4907242, "lon": 10.2097026, "tags": {"addr:city": "Hamburg", "addr:country": "DE", "addr:housenumber": "8", "addr:postcode": "21029", "addr:street": "Reetwerder", "check_date": "2023-10-19", "check_date:opening_hours": "2023-10-19", "contact:facebook": "https://www.facebook.com/OnkelEmmaUnverpackt/", "contact:website": "https://onkelemma-unverpackt.de/", "description": "unverpackt bio einkaufen", "name": "Onkel Emma", "opening_hours": "Mo-Fr 10:00-18:00; Sa 10:00-15:00; PH,Su off", "organic": "yes", "shop": "convenience", "wheelchair": "no", "zero_waste": "only"}}, {"type": "node", "id": 6474383738, "lat": 53.4904384, "lon": 10.2091285, "tags": {"name": "Asia Supermarkt", "shop": "supermarket"}}, {"type": "node", "id": 6781293982, "lat": 53.4835538, "lon": 10.1759583, "tags": {"addr:city": "Hamburg", "addr:housenumber": "7", "addr:postcode": "21035", "addr:street": "Grachtenplatz", "brand": "PENNY", "brand:wikidata": "Q284688", "brand:wikipedia": "en:Penny (supermarket)", "name": "PENNY", "name:fa": "\u067e\u0646\u06cc", "opening_hours": "Mo-Sa 07:00-22:00", "shop": "supermarket"}}, {"type": "node", "id": 6783756106, "lat": 53.4859714, "lon": 10.2143994, "tags": {"addr:city": "Hamburg", "addr:country": "DE", "addr:housenumber": "150", "addr:postcode": "21029", "addr:street": "Bergedorfer Stra\u00dfe", "amenity": "fast_food", "brand": "Domino's", "brand:wikidata": "Q839466", "brand:wikipedia": "en:Domino's Pizza", "check_date": "2025-02-28", "contact:email": "info@dominos.de", "contact:phone": "+49 40 81794880", "contact:website": "https://www.dominos.de/kaufhaus/de-hamburgbergedorfmitte-34037", "cuisine": "pizza", "drive_through": "no", "name": "Domino's", "opening_hours": "Mo-Su 11:00-23:00", "short_name": "Domino's", "takeaway": "yes", "wheelchair": "yes"}}, {"type": "node", "id": 7220739941, "lat": 53.503864, "lon": 10.2121765, "tags": {"amenity": "fast_food", "cuisine": "pizza", "indoor_seating": "yes", "name": "Gepellos Pizza", "opening_hours": "Mo-Th 11:00-22:30; Fr-Su 11:30-23:00", "outdoor_seating": "no", "smoking": "no", "wheelchair": "yes"}}, {"type": "node", "id": 7464455330, "lat": 53.4754995, "lon": 10.1352563, "tags": {"name": "Milchhof Reitbrook", "opening_hours": "Mo,Th,Sa 10:00-12:00; We,Fr 15:00-17:00", "shop": "convenience"}}, {"type": "node", "id": 8042541560, "lat": 53.48688, "lon": 10.1800272, "tags": {"addr:city": "Hamburg", "addr:country": "DE", "addr:housenumber": "3", "addr:postcode": "21035", "addr:street": "Edith-Stein-Platz", "amenity": "fast_food", "cuisine": "kebab", "name": "Berek D\u00f6ner"}}, {"type": "node", "id": 8042541565, "lat": 53.4870103, "lon": 10.1810875, "tags": {"addr:city": "Hamburg", "addr:country": "DE", "addr:housenumber": "6", "addr:postcode": "21035", "addr:street": "Edith-Stein-Platz", "name": "Asia Bazar", "shop": "convenience"}}, {"type": "node", "id": 9476636469, "lat": 53.4915764, "lon": 10.2074207, "tags": {"addr:city": "Hamburg", "addr:country": "DE", "addr:housenumber": "42", "addr:postcode": "21031", "addr:street": "Alte Holstenstra\u00dfe", "amenity": "fast_food", "name": "Big Food Grill"}}, {"type": "node", "id": 9632210289, "lat": 53.4883767, "lon": 10.2085492, "tags": {"amenity": "fast_food", "cuisine": "indian", "drive_through": "no", "level": "1", "name": "MAHAL", "opening_hours": "Mo-Sa 11:00-20:00", "smoking": "no", "takeaway": "yes", "wheelchair": "yes"}}, {"type": "node", "id": 9632210292, "lat": 53.4884315, "lon": 10.2082613, "tags": {"amenity": "fast_food", "cuisine": "chinese", "level": "1", "smoking": "no", "takeaway": "yes", "wheelchair": "yes"}}, {"type": "node", "id": 10651170695, "lat": 53.4896133, "lon": 10.2066217, "tags": {"air_conditioning": "yes", "amenity": "fast_food", "brand": "Subway", "brand:wikidata": "Q244457", "cuisine": "sandwich", "drive_through": "no", "indoor_seating": "yes", "name": "Subway", "opening_hours": "Mo-Th 09:00-22:00; Fr 09:00-23:00; Sa 10:00-23:00; PH,Su 10:00-21:00", "outdoor_seating": "no", "smoking": "no", "takeaway": "yes", "wheelchair": "yes"}}, {"type": "node", "id": 11212929792, "lat": 53.5114235, "lon": 10.1839462, "tags": {"amenity": "fuel", "brand": "star", "brand:wikidata": "Q109930371", "name": "star"}}, {"type": "node", "id": 11213125797, "lat": 53.4820054, "lon": 10.2077661, "tags": {"amenity": "fuel", "name": "LKW"}}, {"type": "node", "id": 11214128854, "lat": 53.4818342, "lon": 10.2077975, "tags": {"brand": "REWE To Go", "brand:wikidata": "Q85224313", "name": "REWE To Go", "shop": "convenience"}}, {"type": "node", "id": 12512005978, "lat": 53.4947803, "lon": 10.2054922, "tags": {"addr:city": "Hamburg", "addr:country": "DE", "addr:housenumber": "4", "addr:postcode": "21033", "addr:street": "Ohlst\u00fccken", "amenity": "fast_food", "cuisine": "spanish;portuguese", "drive_through": "no", "fast_food": "cafeteria", "name": "Kalimera Bom Dia", "opening_hours": "Tu-Sa 07:00-18:00; Su 09:00-18:00"}}, {"type": "node", "id": 12883796879, "lat": 53.4858164, "lon": 10.2103136, "tags": {"addr:city": "Hamburg", "addr:country": "DE", "addr:housenumber": "31", "addr:postcode": "21029", "addr:street": "Vierlandenstra\u00dfe", "amenity": "fast_food", "brand": "burgerme", "brand:wikidata": "Q108866856", "contact:phone": "+49 40 787000", "contact:website": "https://www.burgerme.de/standorte/hamburg/bergedorf/", "cuisine": "burger", "delivery": "yes", "name": "burgerme", "opening_hours": "Mo-Sa 11:00-22:30; Su 12:00-22:30", "takeaway": "yes"}}, {"type": "way", "id": 144838198, "center": {"lat": 53.5047729, "lon": 10.190663}, "nodes": [1583371837, 1583371826, 1583371824, 1583371828, 1583371827, 1583371829, 1583371830, 1583371835, 1583371837], "tags": {"brand": "Lidl", "brand:wikidata": "Q151954", "building": "retail", "name": "Lidl", "opening_hours": "Mo-Sa 08:00-21:00;PH off", "shop": "supermarket", "wheelchair": "yes"}}, {"type": "way", "id": 181557869, "center": {"lat": 53.5137909, "lon": 10.169073}, "nodes": [1919695849, 1919695854, 1919695852, 1919695853, 1919695851, 1919695850, 1919695848, 1919695847, 7056389394, 7056389393, 7056389392, 7056389391, 7056389390, 7056389389, 1919695849], "tags": {"addr:city": "Hamburg", "addr:country": "DE", "addr:housenumber": "2", "addr:postcode": "21031", "addr:street": "Reinbeker Redder", "amenity": "fast_food", "brand": "Burger King", "brand:wikidata": "Q177054", "brand:wikipedia": "en:Burger King", "building": "yes", "check_date:opening_hours": "2024-04-30", "cuisine": "burger", "name": "Burger King", "opening_hours": "Su-Th 10:00-01:00, Fr,Sa 10:00-03:00", "smoking": "outside", "takeaway": "yes", "toilets:wheelchair": "yes", "wheelchair": "yes"}}, {"type": "way", "id": 203635357, "center": {"lat": 53.5037766, "lon": 10.2137659}, "nodes": [2136467206, 2136467207, 2136467209, 2136467210, 2136467153, 2136467155, 2136467206], "tags": {"addr:city": "Hamburg", "addr:country": "DE", "addr:housenumber": "38", "addr:postcode": "21031", "addr:street": "Binnenfeldredder", "brand": "Rewe", "brand:wikidata": "Q16968817", "brand:wikipedia": "en:REWE", "building": "yes", "check_date:opening_hours": "2025-05-02", "name": "REWE", "opening_hours": "Mo-Sa 07:00-22:00", "operator": "REWE Hegedues oHG", "shop": "supermarket", "website": "https://www.rewe.de/marktseite/hamburg-lohbruegge/540672/rewe-markt-am-beckerkamp-31/", "wheelchair": "yes"}}, {"type": "way", "id": 214072173, "center": {"lat": 53.4805432, "lon": 10.2071015}, "nodes": [2236934471, 2236934469, 6500919483, 2236934463, 2236934464, 2236934465, 2236934467, 2236934471], "tags": {"addr:city": "Hamburg", "addr:country": "DE", "addr:housenumber": "2", "addr:postcode": "21029", "addr:street": "Lehfeld", "amenity": "fast_food", "brand": "McDonald's", "brand:wikidata": "Q38076", "brand:wikipedia": "en:McDonald's", "building": "yes", "cuisine": "burger", "name": "McDonald's", "opening_hours": "Mo-Th 07:00-01:00, Fr 07:00-03:00, Sa 09:00-03:00, Su,PH 08:00-01:00", "takeaway": "yes", "wheelchair": "limited"}}, {"type": "way", "id": 218331538, "center": {"lat": 53.4981674, "lon": 10.209666}, "nodes": [3150184441, 2275820811, 2275820812, 2275820810, 2275820808, 2275820807, 2275820805, 2275820806, 2275820800, 5120641357, 5120641358, 5066143030, 2275820803, 3150184441], "tags": {"addr:city": "Hamburg", "addr:country": "DE", "addr:housenumber": "31", "addr:postcode": "21031", "addr:street": "Am Beckerkamp", "brand": "REWE", "brand:wikidata": "Q16968817", "brand:wikipedia": "en:REWE", "building": "supermarket", "check_date:opening_hours": "2025-05-12", "name": "REWE", "opening_hours": "Mo-Sa 07:00-22:00", "operator": "REWE Hegedues oHG", "shop": "supermarket", "website": "https://www.rewe.de/marktseite/hamburg-lohbruegge/540672/rewe-markt-am-beckerkamp-31/", "wheelchair": "yes"}}, {"type": "way", "id": 232178210, "center": {"lat": 53.486654, "lon": 10.1838499}, "nodes": [5212104370, 6352287194, 5212104382, 2405526373, 5212104371, 5212104364, 2405526372, 2405526371, 2405526375, 2405526379, 2405526378, 5212104369, 5212104370], "tags": {"amenity": "fuel", "brand": "Aral", "brand:wikidata": "Q565734", "brand:wikipedia": "en:Aral AG", "fuel:diesel": "yes", "fuel:e10": "yes", "mapillary": "357338292830796", "name": "Aral", "opening_hours": "24/7", "self_service": "yes", "survey:date": "2021-11-18", "wheelchair": "yes"}}, {"type": "way", "id": 238936568, "center": {"lat": 53.4807081, "lon": 10.2272769}, "nodes": [2338494425, 2467465346, 2467465344, 2467465345, 2467465347, 2467465352, 2338494426, 2338494425], "tags": {"addr:city": "Hamburg", "addr:country": "DE", "addr:housenumber": "128a", "addr:postcode": "21029", "addr:street": "Holtenklinker Stra\u00dfe", "amenity": "fuel", "brand": "Lotherol", "building": "yes", "compressed_air": "yes", "name": "Lotherol", "opening_hours": "Mo- Fr 06:00-22:00; Sa 07:00-22:00; Su 08:00-22:00", "operator": "Hermann Lother + Co. Mineral\u00f6lhandelsgesellschaft mbH", "phone": "+49 40 41922761", "toilets:wheelchair": "no", "website": "https://lother.de/", "wheelchair": "yes"}}, {"type": "way", "id": 240322653, "center": {"lat": 53.4900585, "lon": 10.1879}, "nodes": [6521247036, 2523666897, 6352287236, 6352287237, 2523666891, 2480638777, 2523666892, 2523666893, 2480638779, 6352287233, 6521247036], "tags": {"addr:city": "Hamburg", "addr:country": "DE", "addr:housenumber": "7", "addr:postcode": "21033", "addr:street": "Oberer Landweg", "branch": "Oberer Landweg", "brand": "Penny", "brand:wikidata": "Q284688", "building": "supermarket", "check_date:opening_hours": "2022-10-21", "name": "PENNY", "opening_hours": "Mo-Sa 07:00-22:00; PH off", "operator": "PENNY Markt", "shop": "supermarket", "wheelchair": "yes"}}, {"type": "way", "id": 242820626, "center": {"lat": 53.4972061, "lon": 10.1800442}, "nodes": [2502733032, 6693473429, 6693473428, 2502733033, 2502733034, 6693473424, 6693473427, 2502733035, 2502733032], "tags": {"addr:city": "Hamburg", "addr:housenumber": "136", "addr:postcode": "21033", "addr:street": "Ladenbeker Furtweg", "building": "yes", "opening_hours": "24/7", "operator": "bft", "shop": "convenience"}}, {"type": "way", "id": 242879849, "center": {"lat": 53.5137476, "lon": 10.2118787}, "nodes": [2503268730, 5178432524, 5178432527, 2503268731, 2503268732, 2503268733, 5178432530, 5178432529, 2503268730], "tags": {"addr:city": "Hamburg", "addr:country": "DE", "addr:housenumber": "283", "addr:postcode": "21031", "addr:street": "Reinbeker Redder", "brand": "EDEKA", "brand:wikidata": "Q701755", "building": "yes", "check_date:opening_hours": "2025-05-18", "name": "EDEKA", "opening_hours": "Mo-Sa 07:00-21:00", "shop": "supermarket"}}, {"type": "way", "id": 244159600, "center": {"lat": 53.515429, "lon": 10.1663885}, "nodes": [2515067875, 2515067871, 2515067864, 2515067873, 2515067862, 2515067860, 2515067869, 2515067868, 2515067866, 2515067878, 2515067876, 2515067875], "tags": {"addr:city": "Hamburg", "addr:country": "DE", "addr:housenumber": "1", "addr:postcode": "21031", "addr:street": "Heidhorst", "brand": "Netto Marken-Discount", "brand:wikidata": "Q879858", "brand:wikipedia": "de:Netto Marken-Discount", "building": "retail", "check_date:opening_hours": "2021-09-27", "name": "Netto Marken-Discount", "opening_hours": "Mo-Sa 07:00-22:00; PH off", "shop": "supermarket", "toilets:wheelchair": "no", "website": "https://www.netto-online.de/filialen/Hamburg/Heidhorst-1/7095/", "wheelchair": "yes"}}, {"type": "way", "id": 244394684, "center": {"lat": 53.4868314, "lon": 10.1823526}, "nodes": [2517196109, 2517196105, 2517196099, 2517196096, 2517196093, 2517196090, 2517196075, 2517196080, 2517196109], "tags": {"addr:city": "Hamburg", "addr:country": "DE", "addr:housenumber": "26", "addr:postcode": "21035", "addr:street": "Rahel-Varnhagen-Weg", "brand": "Lidl", "brand:wikidata": "Q151954", "brand:wikipedia": "en:Lidl", "building": "supermarket", "check_date:opening_hours": "2023-02-14", "name": "Lidl", "opening_hours": "Mo-Sa 07:00-21:00", "shop": "supermarket", "wheelchair": "yes"}}, {"type": "way", "id": 253697921, "center": {"lat": 53.5086477, "lon": 10.1845224}, "nodes": [2595900980, 7861440784, 2595900973, 2595900974, 2595900984, 2595900981, 2595900980], "tags": {"addr:city": "Hamburg", "addr:country": "DE", "addr:housenumber": "47", "addr:postcode": "21031", "addr:street": "Mendelstra\u00dfe", "brand": "ALDI Nord", "brand:wikidata": "Q41171373", "brand:wikipedia": "en:Aldi", "building": "retail", "name": "Aldi", "opening_hours": "Mo-Sa 07:00-21:00", "operator": "ALDI NORD", "phone": "+49 800 7234870", "shop": "supermarket", "website": "https://www.aldi-nord.de/filialen-und-oeffnungszeiten.html/l/hamburg/mendelstrasse-47/3182040"}}, {"type": "way", "id": 255456600, "center": {"lat": 53.4836911, "lon": 10.2133402}, "nodes": [2611411815, 2611411792, 2611411789, 2611411653, 11208468537, 2611411677, 2611411679, 2611411707, 2611411701, 2611411787, 2611411780, 2611411779, 2611411776, 2611411808, 2611411796, 2611411819, 2611411815], "tags": {"addr:city": "Hamburg", "addr:housenumber": "37b", "addr:postcode": "21029", "addr:street": "Neuer Weg", "addr:suburb": "Bergedorf", "brand": "ALDI Nord", "brand:wikidata": "Q41171373", "brand:wikipedia": "en:Aldi", "building": "retail", "building:levels": "1", "name": "Aldi", "opening_hours": "Mo-Sa 07:00-21:00", "shop": "supermarket", "source": "local_knowledge"}}, {"type": "way", "id": 257061943, "center": {"lat": 53.5074484, "lon": 10.1836881}, "nodes": [2626785042, 6011942376, 2626785048, 6011942377, 6011942378, 2626785047, 2626785046, 6011942381, 6011942380, 2626785041, 6011942379, 2626785042], "tags": {"addr:city": "Hamburg", "addr:country": "DE", "addr:housenumber": "3-5", "addr:postcode": "21031", "addr:street": "Weberade", "branch": "Weberade", "brand": "Penny", "brand:wikidata": "Q284688", "building": "supermarket", "name": "PENNY Weberade", "opening_hours": "Mo-Sa 07:00-21:00", "shop": "supermarket", "wheelchair": "yes"}}, {"type": "way", "id": 323311308, "center": {"lat": 53.5116705, "lon": 10.2351599}, "nodes": [3301111930, 3301112135, 3301112134, 3301112096, 3301112022, 3301111931, 3301111930], "tags": {"addr:city": "Reinbek", "addr:housenumber": "1", "addr:street": "Am Ladenzentrum", "brand": "EDEKA", "brand:wikidata": "Q701755", "brand:wikipedia": "de:Edeka", "building": "yes", "name": "EDEKA", "shop": "supermarket"}}, {"type": "way", "id": 323311336, "center": {"lat": 53.5107673, "lon": 10.2338451}, "nodes": [3301112084, 3301112071, 3301112070, 3301112080, 3301112082, 3301112084], "tags": {"amenity": "fuel", "brand": "Esso", "brand:wikidata": "Q867662", "building": "yes", "name": "Esso"}}, {"type": "way", "id": 519942041, "center": {"lat": 53.4888672, "lon": 10.1845659}, "nodes": [5068818848, 9548514838, 9548514835, 6597455502, 6597455509, 5068818851, 5068818852, 5068818853, 5068818854, 5068818848], "tags": {"addr:city": "Hamburg", "addr:country": "DE", "addr:housenumber": "168-172", "addr:postcode": "21033", "addr:street": "Friedrich-Frank-Bogen", "brand": "ALDI Nord", "brand:wikidata": "Q41171373", "brand:wikipedia": "en:Aldi", "building": "retail", "building:levels": "1", "check_date:opening_hours": "2023-02-14", "name": "ALDI Nord", "opening_hours": "Mo-Sa 07:00-21:00", "operator": "Aldi Nord", "roof:levels": "0", "roof:shape": "flat", "shop": "supermarket", "wheelchair": "yes"}}, {"type": "way", "id": 546628112, "center": {"lat": 53.5090232, "lon": 10.1862286}, "nodes": [5282350260, 2595879443, 2595879441, 5282350259, 5282350260], "tags": {"addr:city": "Hamburg", "addr:country": "DE", "addr:housenumber": "28", "addr:postcode": "21031", "addr:street": "Mendelstra\u00dfe", "brand": "Netto Marken-Discount", "brand:wikidata": "Q879858", "brand:wikipedia": "de:Netto Marken-Discount", "building": "retail", "name": "Netto Marken-Discount", "opening_hours": "Mo-Sa 07:00-22:00", "shop": "supermarket", "website": "https://www.netto-online.de/filialen/Hamburg/Mendelstr-28/7078/", "wheelchair": "limited"}}, {"type": "way", "id": 585075235, "center": {"lat": 53.4931903, "lon": 10.1982431}, "nodes": [5591806882, 5591806881, 5591806880, 5591806879, 6575396104, 5591806882], "tags": {"amenity": "fuel", "brand": "HEM", "brand:wikidata": "Q109930239", "car_wash": "yes", "fuel:diesel": "yes", "fuel:e10": "yes", "fuel:octane_95": "yes", "fuel:octane_98": "yes", "landuse": "retail", "mapillary": "348906520042842", "name": "HEM", "opening_hours": "24/7", "shop": "convenience", "survey:date": "2021-07-23", "wheelchair": "yes"}}, {"type": "way", "id": 585075236, "center": {"lat": 53.4915614, "lon": 10.2024612}, "nodes": [5179395342, 5179395341, 5179340039, 5179340038, 5179340037, 5179340036, 5179340035, 5179340034, 5179340033, 5179340032, 5179340031, 5179395380, 5179395379, 5179395378, 5179395377, 5179395376, 5179395375, 5179395374, 5179395373, 5179395372, 5179395371, 5179395370, 5179395369, 5179395368, 5179395367, 5179395366, 5179395365, 5179395364, 5179395363, 5596890874, 5179395342], "tags": {"amenity": "fuel", "brand": "Esso", "brand:wikidata": "Q867662", "compressed_air": "yes", "fuel:HGV_diesel": "yes", "fuel:adblue": "yes", "fuel:diesel": "yes", "fuel:e10": "yes", "fuel:lpg": "yes", "fuel:octane_95": "yes", "landuse": "retail", "name": "Esso", "opening_hours": "24/7", "payment:american_express": "yes", "payment:cash": "yes", "payment:cryptocurrencies": "no", "payment:diners_club": "yes", "payment:maestro": "yes", "payment:mastercard": "yes", "payment:visa": "yes", "wheelchair": "yes"}}, {"type": "way", "id": 909371040, "center": {"lat": 53.4896608, "lon": 10.1148838}, "nodes": [8443425029, 6983684523, 6983684522, 8443425023, 8656161856, 8443425022, 8443425021, 8443425020, 8443425019, 8443425018, 8443425028, 8443425029], "tags": {"addr:city": "Hamburg", "addr:country": "DE", "addr:housenumber": "1", "addr:postcode": "21035", "addr:street": "Wilhelm-Iwan-Ring", "amenity": "fuel", "brand": "Aral", "brand:wikidata": "Q565734", "check_date": "2024-01-02", "compressed_air": "yes", "contact:fax": "+49 40 73431928", "contact:phone": "+49 40 73431926", "contact:website": "https://tankstelle.aral.de/hamburg/wilhelm-iwan-ring-1/13143400", "fuel:HGV_diesel": "yes", "fuel:adblue": "yes", "fuel:diesel": "yes", "fuel:lpg": "no", "fuel:octane_95": "yes", "fuel:octane_98": "yes", "mapillary": "250836963702500", "name": "Aral", "opening_hours": "24/7", "payment:dkv": "yes", "payment:uta": "yes", "shop": "convenience", "tenant": "Azeez Oyewusi"}}, {"type": "way", "id": 1119399537, "center": {"lat": 53.4971553, "lon": 10.1802554}, "nodes": [10238136313, 1813996026, 1813996031, 1813996033, 10238136315, 10238136316, 10238136314, 10238136313], "tags": {"addr:city": "Hamburg", "addr:housenumber": "136", "addr:postcode": "21033", "addr:street": "Ladenbeker Furtweg", "amenity": "fuel", "brand": "bft", "brand:wikidata": "Q1009104", "landuse": "retail", "name": "bft-Tankstelle", "opening_hours": "24/7", "operator": "bft"}}, {"type": "way", "id": 1210522254, "center": {"lat": 53.4981458, "lon": 10.2086122}, "nodes": [11215417743, 11215417742, 11215417741, 11196451564, 11215417743], "tags": {"addr:city": "Hamburg", "addr:housenumber": "29a", "addr:postcode": "21031", "addr:street": "Am Beckerkamp", "brand": "ALDI Nord", "brand:wikidata": "Q41171373", "building": "yes", "check_date:opening_hours": "2024-08-22", "level": "0", "name": "ALDI Nord", "opening_hours": "Mo-Sa 07:00-21:00", "phone": "+49 800 7234870", "shop": "supermarket", "website": "https://www.aldi-nord.de/filialen-und-oeffnungszeiten.html/l/hamburg/am-beckerkamp-29-a/3181434"}}]