[{"type": "node", "id": 241930223, "lat": 53.5874052, "lon": 9.8747242, "tags": {"amenity": "fuel", "brand": "JET", "brand:wikidata": "Q568940", "brand:wikipedia": "en:Jet (brand)", "compressed_air": "yes", "fuel:diesel": "yes", "fuel:e10": "yes", "fuel:octane_95": "yes", "fuel:octane_98": "yes", "name": "Jet", "opening_hours": "24/7", "wheelchair": "yes"}}, {"type": "node", "id": 1946676103, "lat": 53.5917552, "lon": 9.8727853, "tags": {"addr:city": "Hamburg", "addr:housenumber": "138-142", "addr:postcode": "22547", "addr:street": "Luruper Hauptstra\u00dfe", "amenity": "fast_food", "cuisine": "kebab;turkish", "level": "0", "name": "SoulKebab", "opening_hours": "Mo-Sa 07:00-23:30; Su 10:00-23:30", "website": "https://www.soulkebab.com/", "wheelchair": "yes"}}, {"type": "node", "id": 2082343278, "lat": 53.5915881, "lon": 9.8741466, "tags": {"addr:city": "Hamburg", "addr:country": "DE", "addr:housenumber": "1", "addr:postcode": "22547", "addr:street": "Eckhoffplatz", "brand": "Kaufland", "brand:wikidata": "Q685967", "brand:wikipedia": "en:Kaufland", "check_date": "2022-02-03", "contact:phone": "+49 40 840521760", "contact:website": "https://filiale.kaufland.de/service/filiale/hamburg-altona-lurup-center-8170.html", "level": "0", "name": "Kaufland", "opening_hours": "Mo-Sa 07:00-21:30; PH off", "shop": "supermarket", "wheelchair": "yes"}}, {"type": "node", "id": 2478084914, "lat": 53.5912491, "lon": 9.8740968, "tags": {"addr:city": "Hamburg", "addr:housenumber": "1", "addr:postcode": "22547", "addr:street": "Eckhoffplatz", "amenity": "fast_food", "cuisine": "pizza", "drive_through": "no", "level": "0", "name": "Mundfein Pizzawerkstatt", "operator": "Harjinder Singh", "phone": "+49 40 42304444", "website": "https://www.mundfein.de/pizza/hamburg-lurup", "wheelchair": "yes"}}, {"type": "node", "id": 2478084918, "lat": 53.5920869, "lon": 9.8732909, "tags": {"amenity": "fast_food", "cuisine": "asian", "level": "0", "name": "mai-mai", "wheelchair": "yes"}}, {"type": "way", "id": 22762250, "center": {"lat": 53.5844152, "lon": 9.8729468}, "nodes": [244318600, 1202782991, 1202782951, 244318601, 244318602, 1202783133, 1202782644, 1202782792, 1202782660, 244318603, 244318600], "tags": {"access:covid19": "yes", "addr:city": "Hamburg", "addr:country": "DE", "addr:housenumber": "34", "addr:postcode": "22549", "addr:street": "Kressenweg", "addr:suburb": "Lurup", "brand": "Lidl", "brand:wikidata": "Q151954", "brand:wikipedia": "en:Lidl", "building": "retail", "building:levels": "1", "check_date": "2023-11-20", "check_date:opening_hours": "2023-12-07", "delivery:covid19": "no", "drive_through:covid19": "no", "name": "Lidl", "opening_hours": "Mo-Sa 07:00-21:00", "roof:levels": "1", "roof:shape": "gabled", "shop": "supermarket", "wheelchair": "yes"}}, {"type": "way", "id": 27782232, "center": {"lat": 53.584244, "lon": 9.8705333}, "nodes": [305057753, 305057754, 305057755, 305057756, 11364670088, 364044087, 364044088, 3034211694, 3034211710, 11364782003, 364044089, 3034211732, 364044090, 305057753], "tags": {"addr:city": "Hamburg", "addr:country": "DE", "addr:housenumber": "11", "addr:postcode": "22549", "addr:street": "Grandkuhlenweg", "brand": "Globus", "brand:wikidata": "Q457503", "building": "commercial", "building:levels": "2", "name": "Globus", "opening_hours": "Mo-Sa 08:00-21:00;PH off", "payment:american_express": "yes", "payment:apple_pay": "yes", "payment:cash": "yes", "payment:cryptocurrencies": "no", "payment:electronic_purses": "no", "payment:girocard": "yes", "payment:google_pay": "yes", "payment:maestro": "yes", "payment:mastercard": "yes", "payment:v_pay": "yes", "payment:visa": "yes", "phone": "+49 40 83381 0", "roof:levels": "0", "roof:shape": "flat", "shop": "supermarket", "website": "https://www.globus.de/hamburg-lurup/index.php", "wheelchair": "yes"}}, {"type": "way", "id": 38095204, "center": {"lat": 53.5877901, "lon": 9.8759182}, "nodes": [448097043, 448097044, 448097041, 448097042, 7064329345, 12079663548, 7064329344, 7064329343, 7064329342, 7064329341, 7064329340, 7064329339, 7064329338, 7064329337, 7064329336, 7064329335, 7064329334, 7064329333, 7064329332, 7064329331, 7064329330, 448097043], "tags": {"addr:housenumber": "97", "addr:postcode": "22547", "addr:street": "Luruper Hauptstra\u00dfe", "air_conditioning": "yes", "amenity": "fast_food", "brand": "McDonald's", "brand:wikidata": "Q38076", "brand:wikipedia": "en:McDonald's", "building": "retail", "building:levels": "2", "check_date:opening_hours": "2023-08-19", "cuisine": "burger", "diet:vegetarian": "yes", "indoor_seating": "yes", "internet_access": "wlan", "internet_access:fee": "no", "name": "McDonald's", "opening_hours": "Mo-Th 08:00-01:00, Fr 08:00-02:00, Sa 10:00-02:00, Su 10:00-01:00", "outdoor_seating": "no", "roof:levels": "0", "roof:shape": "quadruple_saltbox", "smoking": "outside", "takeaway": "yes", "wheelchair": "yes"}}, {"type": "way", "id": 38095216, "center": {"lat": 53.5872663, "lon": 9.8748684}, "nodes": [448097184, 448097185, 448097186, 448097187, 448097184], "tags": {"addr:city": "Hamburg", "addr:country": "DE", "addr:housenumber": "266", "addr:postcode": "22549", "addr:street": "Rugenbarg", "brand": "Spar", "brand:wikidata": "Q610492", "brand:wikipedia": "en:Spar (retailer)", "building": "yes", "building:levels": "1", "name": "Spar Express", "opening_hours": "24/7", "roof:levels": "0", "roof:shape": "flat", "shop": "convenience", "wheelchair": "yes"}}, {"type": "way", "id": 1225587114, "center": {"lat": 53.5867342, "lon": 9.8775992}, "nodes": [11365683892, 8595915502, 8595915507, 10250567672, 11365683884, 11365683892], "tags": {"brand": "Aldi", "brand:wikidata": "Q125054", "brand:wikipedia": "en:Aldi", "building": "yes", "contact:website": "https://www.aldi-nord.de/filialen-und-oeffnungszeiten.html/l/hamburg/luruper-hauptstrasse-79/3180517", "name": "Aldi", "opening_hours": "Mo-Sa 07:00-21:00", "shop": "supermarket", "wheelchair": "yes"}}]