[{"type": "node", "id": 700194437, "lat": 53.6536476, "lon": 10.0620188, "tags": {"addr:city": "Hamburg", "addr:housenumber": "3", "addr:postcode": "22399", "addr:street": "Norbert-Schmid-Platz", "branch": "Norbert-Schmid-Platz", "brand": "PENNY", "brand:wikidata": "Q284688", "check_date:opening_hours": "2024-01-08", "name": "PENNY", "opening_hours": "Mo-Sa 07:00-22:00; PH off", "payment:american_express": "yes", "payment:cash": "yes", "payment:maestro": "yes", "payment:mastercard": "yes", "payment:payback_app": "yes", "payment:visa": "yes", "phone": "+49 221 20199959", "shop": "supermarket", "website": "https://www.penny.de/markt/hamburg/530809/penny-norbert-schmid-platz-norbert-schmid-platz-3"}}, {"type": "node", "id": 700194447, "lat": 53.6546562, "lon": 10.0606115, "tags": {"brand": "ALDI Nord", "brand:wikidata": "Q41171373", "name": "ALDI", "opening_hours": "Mo-Sa 08:00-21:00", "shop": "supermarket"}}, {"type": "node", "id": 772975136, "lat": 53.6329803, "lon": 10.055142, "tags": {"addr:city": "Hamburg", "addr:housenumber": "34", "addr:postcode": "22337", "addr:street": "Tornberg", "amenity": "fast_food", "name": "Mein D\u00f6ner", "opening_hours": "Mo-Su 11:00-22:00", "phone": "+49 177 3621688", "website": "http://mein-doener.eatbu.com/", "wheelchair": "limited"}}, {"type": "node", "id": 903994205, "lat": 53.6428068, "lon": 10.0464759, "tags": {"brand": "EDEKA", "brand:wikidata": "Q701755", "check_date:opening_hours": "2024-12-05", "name": "Edeka Peter Jessen", "opening_hours": "Mo-Sa 08:00-20:00", "shoes": "supermarket", "shop": "supermarket", "wheelchair": "yes"}}, {"type": "node", "id": 1315959329, "lat": 53.6330311, "lon": 10.0546356, "tags": {"addr:city": "Hamburg", "addr:housenumber": "37", "addr:postcode": "22337", "addr:street": "Tornberg", "check_date:opening_hours": "2025-02-22", "name": "Hamburger Hofladen", "opening_hours": "Mo-Fr 08:00-19:00; Sa 08:00-13:00", "operator": "Hofladen Feinkost Stephan GmbH & Co. KG", "phone": "+49 40 591344", "shop": "convenience", "source": "local_knowledge", "website": "https://www.hamburger-hofladen.de/", "wheelchair": "yes"}}, {"type": "node", "id": 1638778989, "lat": 53.6475927, "lon": 10.0574646, "tags": {"amenity": "fuel", "brand": "Jet", "brand:wikidata": "Q568940", "brand:wikipedia": "en:Jet (brand)", "compressed_air": "yes", "contact:phone": "+49 40 53897802", "contact:website": "https://www.jet-tankstellen.de/kraftstoff/filialfinder/XJ00411/", "fuel:HGV_diesel": "yes", "fuel:diesel": "yes", "fuel:octane_91": "yes", "fuel:octane_95": "yes", "fuel:octane_98": "yes", "name": "Jet", "opening_hours": "Mo-Fr 06:00-23:00; Sa-Su 07:00-23:00", "operator": "ConocoPhillips Germany GmbH", "payment:ata": "yes", "payment:dkv": "yes", "tenant": "Bernd Heier", "toilets": "yes", "wheelchair": "limited"}}, {"type": "node", "id": 2444698139, "lat": 53.6424748, "lon": 10.0485293, "tags": {"addr:city": "Hamburg", "addr:country": "DE", "addr:housenumber": "52-66", "addr:postcode": "22339", "addr:street": "Hummelsb\u00fctteler Weg", "branch": "Hummel", "brand": "Penny", "brand:wikidata": "Q284688", "brand:wikipedia": "en:Penny (supermarket)", "check_date:opening_hours": "2024-09-03", "name": "PENNY", "opening_hours": "Mo-Sa 07:00-22:00; PH off", "payment:american_express": "yes", "payment:cash": "yes", "payment:maestro": "yes", "payment:mastercard": "yes", "payment:payback_app": "yes", "payment:visa": "yes", "phone": "+49 221 20199959", "shop": "supermarket", "wheelchair": "yes"}}, {"type": "node", "id": 6217457585, "lat": 53.6498148, "lon": 10.0643662, "tags": {"amenity": "fuel", "brand": "Aral", "brand:wikidata": "Q565734", "compressed_air": "yes", "opening_hours": "24/7", "wheelchair": "limited"}}, {"type": "way", "id": 72557844, "center": {"lat": 53.6479602, "lon": 10.0583967}, "nodes": [861231313, 6080348075, 861231293, 861231295, 861231297, 861231299, 861231300, 6080348141, 8177020469, 861231311, 861231313], "tags": {"addr:city": "Hamburg", "addr:country": "DE", "addr:housenumber": "94", "addr:postcode": "22339", "addr:street": "Poppenb\u00fctteler Weg", "amenity": "fast_food", "brand": "McDonald's", "brand:wikidata": "Q38076", "brand:wikipedia": "en:McDonald's", "building": "retail", "contact:website": "https://www.mcdonalds.com/de/de-de/restaurant-suche.html/l/hamburg/poppenbutteler-weg-94/467", "cuisine": "burger", "name": "McDonald's", "opening_hours": "Mo-Fr 00:00-01:00,08:00-24:00; Sa,Su 00:00-03:00,08:00-24:00", "takeaway": "yes", "wheelchair": "yes"}}]