[{"type": "node", "id": 1123244429, "lat": 53.6536326, "lon": 10.0900797, "tags": {"addr:city": "Hamburg", "addr:country": "DE", "addr:housenumber": "31", "addr:postcode": "22391", "addr:street": "Heegbarg", "brand": "REWE", "brand:wikidata": "Q16968817", "brand:wikipedia": "de:Rewe", "check_date": "2024-02-28", "contact:phone": "+49 40 60680201", "contact:website": "https://www.rewe.de/marktseite/hamburg-poppenbuettel/540726/rewe-markt-heegbarg-31/", "level": "-1", "name": "REWE", "opening_hours": "Mo-Sa 08:00-21:00; PH off", "operator": "REWE Markt GmbH", "shop": "supermarket", "wheelchair": "yes"}}, {"type": "node", "id": 1123244435, "lat": 53.6542578, "lon": 10.0917126, "tags": {"addr:city": "Hamburg", "addr:country": "DE", "addr:housenumber": "31", "addr:postcode": "22391", "addr:street": "Heegbarg", "brand": "Erdkorn", "brand:wikidata": "Q864179", "contact:phone": "+49 40 611641200", "contact:website": "https://www.erdkorn.de/filialen/erdkorn-poppenbuettel/", "level": "-1", "name": "Erdkorn", "opening_hours": "Mo-Sa 08:00-20:00; PH,Su off", "organic": "only", "shop": "supermarket", "wheelchair": "yes"}}, {"type": "node", "id": 1417506627, "lat": 53.6532947, "lon": 10.0913576, "tags": {"addr:city": "Hamburg", "addr:country": "DE", "addr:housenumber": "25", "addr:postcode": "22391", "addr:street": "Heegbarg", "brand": "EDEKA", "brand:wikidata": "Q701755", "check_date:opening_hours": "2024-08-19", "name": "Schlemmermarkt Struve", "opening_hours": "Mo-Sa 08:00-20:00", "shop": "supermarket", "website": "https://www.edeka.de/eh/nord/schlemmermarkt-struve-heegbarg-25/index.jsp", "wheelchair": "yes"}}, {"type": "node", "id": 5071973138, "lat": 53.6549269, "lon": 10.1007116, "tags": {"addr:city": "Hamburg", "addr:housenumber": "14-16", "addr:postcode": "22395", "addr:street": "Saseler Damm", "brand": "EDEKA", "brand:wikidata": "Q701755", "name": "EDEKA Jessen", "opening_hours": "Mo-Sa 07:00-21:00; PH off", "phone": "+49 40 53029470", "shop": "supermarket", "toilets:wheelchair": "no", "website": "https://www.edeka.de/eh/nord/edeka-jessen-saseler-damm-14-16/index.jsp", "wheelchair": "yes"}}, {"type": "node", "id": 6017169635, "lat": 53.651213, "lon": 10.0940844, "tags": {"addr:city": "Hamburg", "addr:housenumber": "2-6", "addr:postcode": "22393", "addr:street": "Stormarnplatz", "brand": "REWE", "brand:wikidata": "Q16968817", "brand:wikipedia": "en:REWE", "check_date:opening_hours": "2023-02-21", "contact:phone": "+49 40 63970842", "level": "0", "name": "REWE Krage", "opening_hours": "Mo-Sa 06:00-22:00; PH off", "operator": "Carsten Krage", "payment:app": "yes", "payment:cards": "yes", "payment:cash": "yes", "payment:contactless": "yes", "payment:credit_cards": "yes", "payment:debit_cards": "yes", "shop": "supermarket", "start_date": "2018-11-22", "toilets:wheelchair": "no", "url": "https://rewe-krage.de/", "website": "https://www.rewe.de/marktseite/hamburg/541781/rewe-markt-stormarnplatz-2-6/", "wheelchair": "yes"}}, {"type": "node", "id": 6225128167, "lat": 53.6541557, "lon": 10.0912388, "tags": {"amenity": "fast_food", "brand": "Nordsee", "brand:wikidata": "Q74866", "brand:wikipedia": "en:Nordsee", "cuisine": "seafood", "indoor_seating": "yes", "name": "Nordsee", "outdoor_seating": "no", "takeaway": "yes"}}, {"type": "node", "id": 7996825330, "lat": 53.6540063, "lon": 10.0912736, "tags": {"addr:housename": "AEZ", "amenity": "fast_food", "cuisine": "italian", "indoor_seating": "no", "name": "Emilia Ristorante", "outdoor_seating": "no", "takeaway": "only"}}, {"type": "node", "id": 9807274235, "lat": 53.6606837, "lon": 10.0824827, "tags": {"amenity": "fast_food", "cuisine": "pizza", "name": "Pizza Hot Chili", "website": "https://www.pizzahotchili.de/"}}, {"type": "node", "id": 10765936561, "lat": 53.6627493, "lon": 10.079068, "tags": {"amenity": "fuel", "brand": "Shell", "brand:wikidata": "Q154950", "brand:wikipedia": "en:Royal Dutch Shell", "compressed_air": "yes", "name": "Shell"}}, {"type": "node", "id": 12454298992, "lat": 53.6601707, "lon": 10.0856979, "tags": {"addr:city": "Hamburg", "addr:housenumber": "1", "addr:postcode": "22399", "addr:street": "Poppenb\u00fcttler Hauptstra\u00dfe", "brand": "ALDI Nord", "brand:wikidata": "Q41171373", "check_date": "2024-12-27", "name": "Aldi", "opening_hours": "Mo-Sa 07:00-21:00; PH off", "organic": "yes", "shop": "supermarket", "website": "https://www.aldi-nord.de/filialen-und-oeffnungszeiten.html/l/hamburg/poppenbuttler-hauptstrasse-1/4578251"}}, {"type": "node", "id": 12819071305, "lat": 53.6570916, "lon": 10.0846902, "tags": {"addr:housenumber": "177", "addr:street": "Poppenb\u00fctteler Weg", "amenity": "fast_food", "name": "Yoko Sushi", "opening_hours": "Mo-Fr 11:00-22:00; Sa, Su 12:00-22:00", "phone": "+494020003120", "website": "https://www.yoko.de/reservierung-sushi-hamburg-poppenbuettel/"}}, {"type": "way", "id": 40546917, "center": {"lat": 53.6607353, "lon": 10.0826547}, "nodes": [626142870, 492039581, 626142920, 626142944, 492039602, 626142878, 5212595568, 626142870], "tags": {"addr:city": "Hamburg", "addr:country": "DE", "addr:housenumber": "10", "addr:postcode": "22399", "addr:street": "Harksheider Stra\u00dfe", "amenity": "fast_food", "cuisine": "chinese;asian", "name": "Mr. No N\u00ea", "takeaway": "yes", "wheelchair": "limited"}}, {"type": "way", "id": 40609018, "center": {"lat": 53.6630004, "lon": 10.0774901}, "nodes": [493167263, 493167264, 493167265, 493167266, 493167267, 5249005571, 493167268, 2302860940, 2302860942, 2302860938, 2302860936, 493167263], "tags": {"addr:city": "Hamburg", "addr:country": "DE", "addr:housenumber": "41", "addr:postcode": "22399", "addr:street": "Harksheider Stra\u00dfe", "brand": "EDEKA", "brand:wikidata": "Q701755", "building": "yes", "name": "Edeka Peper", "shop": "supermarket"}}, {"type": "way", "id": 49304488, "center": {"lat": 53.6602319, "lon": 10.0833933}, "nodes": [626142905, 3969013555, 626142928, 626142907, 3969013552, 626142905], "tags": {"addr:city": "Hamburg", "addr:country": "DE", "addr:housenumber": "6", "addr:postcode": "22399", "addr:street": "Harksheider Stra\u00dfe", "amenity": "fast_food", "cuisine": "pizza", "name": "Vamos to Napoli"}}, {"type": "way", "id": 96755738, "center": {"lat": 53.6521788, "lon": 10.0929332}, "nodes": [1120423676, 1120423750, 1120423778, 1120423711, 1120423734, 1120423671, 1458133486, 1120423691, 1120423766, 1120423638, 1120423725, 4587179910, 1120423745, 1120423676], "tags": {"addr:city": "Hamburg", "addr:housenumber": "2", "addr:postcode": "22391", "addr:street": "Heegbarg", "amenity": "fast_food", "brand": "Subway", "brand:wikidata": "Q244457", "brand:wikipedia": "en:Subway (restaurant)", "building": "retail", "building:levels": "1", "check_date:opening_hours": "2025-02-09", "contact:facebook": "https://www.facebook.com/subwaydeutschland", "contact:instagram": "https://www.instagram.com/subway_de/", "contact:twitter": "https://twitter.com/Subway_DE", "cuisine": "sandwich", "diet:vegetarian": "yes", "indoor_seating": "yes", "name": "Subway", "opening_hours": "Su 11:00-22:00; Mo-Fr 09:00-22:00; Sa 10:00-22:00", "outdoor_seating": "pedestrian_zone", "phone": "+49 40 60876670", "ref": "35679", "roof:levels": "0", "roof:shape": "flat", "smoking": "outside", "takeaway": "yes", "website": "https://restaurants.subway.com/de/deutschland/hh/hamburg/heegbarg-2", "wheelchair": "yes"}}, {"type": "way", "id": 106466430, "center": {"lat": 53.6524136, "lon": 10.0930052}, "nodes": [10720139350, 1224761860, 1224761810, 1224761717, 10720139350], "tags": {"addr:housenumber": "4", "addr:street": "Heegbarg", "amenity": "fast_food", "brand": "dean&david", "brand:wikidata": "Q66132404", "check_date": "2023-06-10", "contact:website": "https://deananddavid.com/", "cuisine": "salad;sandwich", "indoor_seating": "yes", "level": "0", "name": "dean&david", "outdoor_seating": "yes", "takeaway": "yes"}}, {"type": "way", "id": 126714564, "center": {"lat": 53.65194, "lon": 10.092866}, "nodes": [1403986292, 1403986282, 1403986277, 1403986280, 1403986286, 1403986292], "tags": {"addr:city": "Hamburg", "addr:housenumber": "2", "addr:postcode": "22391", "addr:street": "Wentzelplatz", "brand": "U-Store", "brand:wikidata": "Q113290511", "building": "retail", "building:levels": "2", "name": "U-Store", "opening_hours": "Mo-Fr 06:00-21:00; Sa,Su 07:00-21:00; PH 08:00-21:00", "roof:levels": "0", "roof:shape": "flat", "shop": "convenience", "source": "https://www.deutschepost.de/de/s/standorte.html?standorttyp=packstationen_paketboxen", "wheelchair": "yes"}}, {"type": "way", "id": 130709416, "center": {"lat": 53.6600916, "lon": 10.0847592}, "nodes": [1438836850, 3324171429, 1438836865, 492032025, 492032028, 3324171421, 1438836843, 3324171420, 3324171419, 3324171422, 1438836850], "tags": {"addr:city": "Hamburg", "addr:country": "DE", "addr:housenumber": "2", "addr:postcode": "22399", "addr:street": "Harksheider Stra\u00dfe", "brand": "EDEKA", "brand:wikidata": "Q701755", "brand:wikipedia": "en:Edeka", "building": "supermarket", "name": "Edeka", "opening_hours": "Mo-Sa 07:30-20:00; PH off", "operator": "Bannat", "shop": "supermarket", "website": "https://www.edeka.de/eh/nord/edeka-bannat-harksheider-str.-2/index.jsp", "wheelchair": "yes"}}, {"type": "way", "id": 132647220, "center": {"lat": 53.6604802, "lon": 10.0861312}, "nodes": [1459068590, 492008404, 3969013960, 492008408, 492008411, 1459068597, 1459068590], "tags": {"addr:city": "Hamburg", "addr:country": "DE", "addr:housenumber": "5", "addr:postcode": "22399", "addr:street": "Poppenb\u00fcttler Hauptstra\u00dfe", "branch": "Poppenb\u00fcttel", "brand": "PENNY", "brand:wikidata": "Q284688", "brand:wikipedia": "en:Penny (supermarket)", "building": "yes", "building:levels": "1", "name": "PENNY", "opening_hours": "Mo-Sa 07:00-22:00; PH off", "payment:american_express": "yes", "payment:cash": "yes", "payment:maestro": "yes", "payment:mastercard": "yes", "payment:payback_app": "yes", "payment:visa": "yes", "phone": "+49 221 20199959", "roof:shape": "flat", "shop": "supermarket", "website": "https://www.penny.de/markt/hamburg/530137/penny-poppenbuettel-poppenbuettl-hauptstr-5", "wheelchair": "yes"}}, {"type": "way", "id": 784187049, "center": {"lat": 53.659727, "lon": 10.0954895}, "nodes": [462264110, 462264115, 462264114, 462264113, 7325329197, 7325329198, 462264110], "tags": {"addr:city": "Hamburg", "addr:country": "DE", "addr:housenumber": "89d", "addr:postcode": "22395", "addr:street": "Heegbarg", "brand": "Nahkauf", "brand:wikidata": "Q57515238", "building:levels": "1", "building:part": "supermarket", "check_date:opening_hours": "2024-06-19", "contact:phone": "+49 40 39814438", "contact:website": "https://www.nahkauf.de/maerkte/hamburg-41611921-tarhan-gmbh-heegbarg-89d", "name": "Nahkauf", "opening_hours": "Mo-Sa 07:00-22:00", "operator": "Tarhan GmbH", "shop": "supermarket", "wheelchair": "yes"}}, {"type": "way", "id": 1152559169, "center": {"lat": 53.652512, "lon": 10.0929859}, "nodes": [1224761767, 10720139349, 1224761860, 10720139350, 1224761767], "tags": {"addr:city": "Hamburg", "addr:country": "DE", "addr:housenumber": "4", "addr:postcode": "22391", "addr:street": "Heegbarg", "amenity": "fast_food", "cuisine": "kebab", "indoor_seating": "yes", "name": "K\u00f6nig D\u00f6ner", "opening_hours": "Mo-Sa 10:00-21:00; PH,Su 11:00-20:00", "outdoor_seating": "yes"}}]