[{"type": "node", "id": 897150590, "lat": 53.5327508, "lon": 10.1270156, "tags": {"amenity": "fast_food", "check_date": "2025-02-09", "cuisine": "chicken", "name": "H\u00e4hnchengrill J\u00fchrs"}}, {"type": "node", "id": 984515014, "lat": 53.5303762, "lon": 10.125397, "tags": {"addr:city": "Hamburg", "addr:country": "DE", "addr:housenumber": "70", "addr:postcode": "22117", "addr:street": "Steinbeker Hauptstra\u00dfe", "amenity": "fast_food", "contact:phone": "+49 40 18995618", "contact:website": "https://www.arams-hamburg.de/", "cuisine": "pizza", "name": "Arams Pizza", "opening_hours": "Mo-Fr 11:00-22:00; Sa-Su 12:00-22:00"}}, {"type": "node", "id": 1774130614, "lat": 53.5355962, "lon": 10.1316573, "tags": {"addr:city": "Hamburg", "addr:country": "DE", "addr:housenumber": "2", "addr:postcode": "22117", "addr:street": "Oststeinbeker Weg", "brand": "PENNY", "brand:wikidata": "Q284688", "contact:website": "https://www.penny.de/", "name": "PENNY", "name:fa": "\u067e\u0646\u06cc", "opening_hours": "Mo-Sa 07:00-23:00; PH off", "opening_hours:covid19": "Mo-Sa 07:00-22:00; PH off", "shop": "supermarket", "wheelchair": "yes"}}, {"type": "node", "id": 2590287301, "lat": 53.5386989, "lon": 10.1224363, "tags": {"addr:city": "Hamburg", "addr:country": "DE", "addr:housenumber": "123", "addr:postcode": "22117", "addr:street": "M\u00f6llner Landstra\u00dfe", "amenity": "fast_food", "capacity": "20", "check_date:opening_hours": "2024-05-16", "contact:phone": "+49 40 7133310", "contact:website": "https://billstedt.krox.de/", "cuisine": "pizza;burger;croque;crepe", "name": "Krox Billstedt", "note:cuisine": "Pizza,Burger,Croque,Crepe,Getr\u00e4nke", "opening_hours": "Mo-Su 11:30-22:00", "operator": "Sabine Schust", "phone": "+49 40 7133310", "website": "https://www.krox.de/", "wheelchair": "yes"}}, {"type": "node", "id": 3733640885, "lat": 53.5389006, "lon": 10.1237663, "tags": {"addr:city": "Hamburg", "addr:country": "DE", "addr:housenumber": "137a", "addr:postcode": "22117", "addr:street": "M\u00f6llner Landstra\u00dfe", "amenity": "fast_food", "indoor_seating": "yes", "name": "Urfam Lahmacun und Pizza Salon", "opening_hours": "Mo-Sa 10:00-20:00; Su,PH 11:00-20:00", "outdoor_seating": "yes"}}, {"type": "node", "id": 4430817931, "lat": 53.5398792, "lon": 10.140736, "tags": {"addr:city": "Hamburg", "addr:country": "DE", "addr:housenumber": "8", "addr:postcode": "22117", "addr:street": "Morsumer Weg", "amenity": "fast_food", "contact:facebook": "https://www.facebook.com/YA-Habibi-Grill-1180839211980686/", "cuisine": "arab", "opening_hours": "11:00-23:00", "phone": "+49 176 32325007"}}, {"type": "node", "id": 4906169523, "lat": 53.5388305, "lon": 10.1239195, "tags": {"addr:city": "Hamburg", "addr:country": "DE", "addr:housenumber": "137 d", "addr:postcode": "22117", "addr:street": "M\u00f6llner Landstra\u00dfe", "name": "Idil Supermarkt", "shop": "supermarket"}}, {"type": "node", "id": 5667807955, "lat": 53.5301482, "lon": 10.1262256, "tags": {"addr:city": "Hamburg", "addr:country": "DE", "addr:housenumber": "79", "addr:postcode": "22117", "addr:street": "Steinbeker Hauptstra\u00dfe", "amenity": "fast_food", "check_date": "2024-12-30", "contact:phone": "+49 40 53798122", "contact:website": "https://shop.mundfein.de", "cuisine": "pizza", "drive_through": "no", "name": "Mundfein", "opening_hours": "Mo-Fr 11:00-22:00; Sa, Su, PH 12:00-22:00"}}, {"type": "node", "id": 6055958587, "lat": 53.5387611, "lon": 10.1291374, "tags": {"addr:city": "Hamburg", "addr:country": "DE", "addr:housenumber": "154", "addr:postcode": "22117", "addr:street": "M\u00f6llner Landstra\u00dfe", "amenity": "fast_food", "brand": "Pizza Max", "brand:wikidata": "Q114189329", "check_date": "2020-05-06", "contact:phone": "+49 40 73670849", "contact:website": "https://www.pizzamax.de/hamburg-billstedt-horn/", "cuisine": "pizza", "name": "Pizza Max", "opening_hours": "11:00-22:00", "takeaway": "yes"}}, {"type": "node", "id": 11915685095, "lat": 53.5386107, "lon": 10.1270771, "tags": {"amenity": "fast_food", "indoor_seating": "no", "name": "Abis Grill", "outdoor_seating": "yes"}}, {"type": "node", "id": 11915721820, "lat": 53.5389976, "lon": 10.1240441, "tags": {"name": "TEMA Markt", "shop": "supermarket"}}, {"type": "node", "id": 11951754233, "lat": 53.5347601, "lon": 10.1202112, "tags": {"name": "Kapellen mini Markt", "opening_hours": "Mo-Fr 05:00-20:00; Sa 06:00-20:00; Su 08:00-18:00", "shop": "convenience"}}, {"type": "node", "id": 11958270841, "lat": 53.5383086, "lon": 10.1229908, "tags": {"amenity": "fast_food", "name": "Ocakbasi 27."}}, {"type": "node", "id": 12155192520, "lat": 53.5389383, "lon": 10.1225947, "tags": {"amenity": "fast_food", "cuisine": "kebab", "name": "DenisGrill"}}, {"type": "node", "id": 12635894100, "lat": 53.538632, "lon": 10.127655, "tags": {"name": "Khan Plaza Supermarket", "shop": "supermarket"}}, {"type": "way", "id": 52902070, "center": {"lat": 53.5427743, "lon": 10.1417405}, "nodes": [670509080, 3982946767, 3982946766, 670509081, 670509092, 670509095, 670509080], "tags": {"addr:city": "Hamburg", "addr:country": "DE", "addr:housenumber": "250", "addr:postcode": "22117", "addr:street": "M\u00f6llner Landstra\u00dfe", "brand": "Netto Marken-Discount", "brand:wikidata": "Q879858", "brand:wikipedia": "de:Netto Marken-Discount", "building": "supermarket", "building:levels": "1", "check_date:opening_hours": "2023-07-13", "name": "Netto Marken-Discount", "opening_hours": "Mo-Sa 07:00-22:00", "roof:levels": "1", "roof:shape": "double_saltbox", "shop": "supermarket", "website": "https://www.netto-online.de/filialen/Hamburg/Moellner-Landstr-250/2141/"}}, {"type": "way", "id": 55466711, "center": {"lat": 53.5388279, "lon": 10.1231605}, "nodes": [697083629, 8883474723, 8883474724, 697083631, 12315771500, 12315822901, 12315771499, 12315771498, 697083633, 697083635, 2626436052, 2626436053, 697083629], "tags": {"addr:city": "Hamburg", "addr:country": "DE", "addr:housenumber": "131", "addr:postcode": "22117", "addr:street": "M\u00f6llner Landstra\u00dfe", "brand": "ALDI Nord", "brand:wikidata": "Q41171373", "brand:wikipedia": "en:Aldi", "building": "retail", "check_date": "2024-05-17", "check_date:opening_hours": "2024-05-17", "contact:website": "https://www.aldi-nord.de/tools/filialen-und-oeffnungszeiten/hamburg/billstedt/moellner-landstrasse-131.html", "name": "Aldi", "opening_hours": "Mo-Sa 07:00-21:00; PH off", "operator": "ALDI Nord", "payment:cash": "yes", "payment:credit_cards": "yes", "payment:debit_cards": "yes", "payment:mastercard": "yes", "roof:shape": "flat", "shop": "supermarket", "wheelchair": "yes"}}]