[{"type": "node", "id": 25264980, "lat": 53.4724344, "lon": 9.8478695, "tags": {"addr:housenumber": "361", "addr:street": "Cuxhavener Stra\u00dfe", "amenity": "fuel", "brand": "Shell", "brand:wikidata": "Q110716465", "compressed_air": "yes", "contact:phone": "+49 40 7016386", "contact:website": "https://find.shell.com/de/fuel/10024035-hamburg-cuxhavener-str/de_DE", "fuel:GTL_diesel": "yes", "fuel:adblue": "yes", "fuel:diesel": "yes", "fuel:e10": "yes", "fuel:lpg": "yes", "fuel:octane_95": "yes", "name": "Shell", "opening_hours": "24/7", "payment:american_express": "yes", "payment:bancomat": "yes", "payment:cash": "yes", "payment:cryptocurrencies": "no", "payment:diners_club": "yes", "payment:girocard": "yes", "payment:maestro": "yes", "payment:mastercard": "yes", "payment:visa": "yes", "wheelchair": "yes"}}, {"type": "node", "id": 273426771, "lat": 53.4696022, "lon": 9.8540665, "tags": {"addr:city": "Hamburg", "addr:country": "DE", "addr:housenumber": "1", "addr:postcode": "21149", "addr:street": "Neugrabener Markt", "contact:phone": "+49 40 7025775", "contact:website": "https://www.belindasbioladen.de/", "name": "Belindas Bioladen", "opening_hours": "Mo-Fr 07:30-18:00; Sa 07:30-13:00; PH,Su off", "organic": "only", "shop": "supermarket", "wheelchair": "no"}}, {"type": "node", "id": 671916150, "lat": 53.4699096, "lon": 9.853932, "tags": {"addr:city": "Hamburg", "addr:country": "DE", "addr:housenumber": "2", "addr:postcode": "21149", "addr:street": "Neugrabener Markt", "amenity": "fast_food", "cuisine": "kebab", "name": "Grillhaus Neugraben", "outdoor_seating": "yes", "phone": "+49 40 3987 0741", "takeaway": "yes"}}, {"type": "node", "id": 2019926828, "lat": 53.4727285, "lon": 9.853838, "tags": {"addr:city": "Hamburg", "addr:housenumber": "342", "addr:postcode": "21149", "addr:street": "Cuxhavener Stra\u00dfe", "amenity": "fast_food", "cuisine": "kebab;turkish", "drive_through": "no", "level": "0", "name": "\u00d6Z Urfa", "phone": "+49 40 7019900", "smoking": "outside", "takeaway": "yes", "website": "https://www.oezurfa.de/", "wheelchair": "limited"}}, {"type": "node", "id": 2019926829, "lat": 53.4730605, "lon": 9.8543895, "tags": {"entrance": "yes", "name": "Dasdemir Markt", "payment:cash": "yes", "payment:girocard": "yes", "shop": "convenience"}}, {"type": "node", "id": 2020016275, "lat": 53.46985, "lon": 9.8535251, "tags": {"addr:city": "Hamburg", "addr:country": "DE", "addr:housenumber": "1", "addr:postcode": "21149", "addr:street": "Marktpassage", "check_date": "2023-06-07", "contact:phone": "+49 40 7022177", "name": "Reformhaus Mahnert", "opening_hours": "Mo-Fr 09:00-18:00; Sa 09:00-13:00; PH off", "organic": "only", "shop": "supermarket"}}, {"type": "node", "id": 3647731770, "lat": 53.4721076, "lon": 9.8524403, "tags": {"brand": "Netto Marken-Discount", "brand:wikidata": "Q879858", "brand:wikipedia": "de:Netto Marken-Discount", "name": "Netto Marken-Discount", "shop": "supermarket", "website": "https://www.netto-online.de/filialen/Hamburg/Cuxhavener-Str-335/2071/", "wheelchair": "yes"}}, {"type": "node", "id": 3647740298, "lat": 53.4693227, "lon": 9.854194, "tags": {"amenity": "fast_food", "name": "Recall"}}, {"type": "node", "id": 5709704187, "lat": 53.4705358, "lon": 9.8527776, "tags": {"amenity": "fast_food", "cuisine": "kebab;mediterranean", "delivery": "no", "diet:vegan": "no", "diet:vegetarian": "yes", "indoor_seating": "no", "internet_access": "no", "name": "Kaya Feinkost", "opening_hours": "Mo-Sa 07:00-20:00", "outdoor_seating": "no", "smoking": "no", "takeaway": "only", "wheelchair": "yes"}}, {"type": "node", "id": 5919357814, "lat": 53.4702703, "lon": 9.8527688, "tags": {"amenity": "fast_food", "cuisine": "asian;chinese", "indoor_seating": "yes", "level": "0", "name": "Mai-Mai", "outdoor_seating": "no", "takeaway": "yes", "wheelchair": "yes"}}, {"type": "node", "id": 10765936555, "lat": 53.4731443, "lon": 9.8467898, "tags": {"amenity": "fuel", "brand": "Total", "brand:wikidata": "Q154037", "compressed_air": "yes", "fuel:HGV_diesel": "yes", "fuel:LH2": "yes", "fuel:diesel": "yes", "fuel:e10": "yes", "fuel:octane_95": "yes", "fuel:octane_98": "yes", "opening_hours": "24/7"}}, {"type": "node", "id": 11824495377, "lat": 53.4712938, "lon": 9.8540785, "tags": {"amenity": "fast_food", "contact:facebook": "https://www.facebook.com/people/Big-D%C3%B6ner-House/100054445513011/", "cuisine": "kebab;pizza", "indoor_seating": "yes", "name": "Big D\u00f6ner House", "outdoor_seating": "yes"}}, {"type": "way", "id": 45035721, "center": {"lat": 53.4736651, "lon": 9.8465663}, "nodes": [571141993, 5694413689, 5694413690, 6550277950, 571141995, 571141988, 6019073567, 6019073566, 6019073565, 6019073564, 6019073563, 6019073562, 6019073561, 6019073560, 6019073559, 6019073558, 6019073557, 6019073556, 571141991, 571141993], "tags": {"addr:city": "Hamburg", "addr:country": "DE", "addr:housenumber": "382", "addr:postcode": "21149", "addr:street": "Cuxhavener Stra\u00dfe", "amenity": "fast_food", "brand": "McDonald's", "brand:wikidata": "Q38076", "brand:wikipedia": "en:McDonald's", "building": "commercial", "cuisine": "burger", "delivery": "no", "internet_access": "yes", "internet_access:fee": "no", "name": "McDonald's Neugraben-Fischbeck", "opening_hours": "Mo-Th 08:00-01:00, Fr,Sa 08:00-02:00, Su 09:00-01:00", "operator": "Wolfgang Splitthoff Systemgastronomie e.K.", "outdoor_seating": "yes", "payment:cash": "yes", "payment:cryptocurrencies": "no", "payment:electronic_purses": "no", "payment:girocard": "yes", "payment:maestro": "yes", "payment:mastercard": "yes", "smoking": "outside", "takeaway": "yes", "wheelchair": "limited"}}, {"type": "way", "id": 96212615, "center": {"lat": 53.4704407, "lon": 9.8520734}, "nodes": [6344604478, 1115234471, 1115234527, 3647732436, 3647732437, 3647732434, 3647732435, 3758546664, 3647732429, 3647732428, 3647732407, 3647732406, 1115234506, 1115234584, 1115234525, 3647732396, 1115234481, 6344604477, 6344604478], "tags": {"addr:city": "Hamburg", "addr:country": "DE", "addr:housenumber": "5", "addr:postcode": "21149", "addr:street": "Marktpassage", "brand": "Kaufland", "brand:wikidata": "Q685967", "brand:wikipedia": "en:Kaufland", "building": "supermarket", "check_date": "2023-06-06", "name": "Kaufland", "opening_hours": "Mo-Sa 07:00-22:00", "operator": "Kaufland Warenhandel GmbH & Co. KG", "phone": "+49 40 703858350", "shop": "supermarket", "website": "https://www.kaufland.de/", "wheelchair": "yes"}}, {"type": "way", "id": 528202828, "center": {"lat": 53.4722118, "lon": 9.8511045}, "nodes": [5133671744, 5659015436, 5133671743, 5133671742, 5659015435, 5133671741, 5133671744], "tags": {"addr:city": "Hamburg", "addr:country": "DE", "addr:housenumber": "1", "addr:postcode": "21149", "addr:street": "S\u00fcderelbering", "brand": "EDEKA", "brand:wikidata": "Q701755", "brand:wikipedia": "de:Edeka", "building": "supermarket", "check_date:opening_hours": "2024-08-13", "email": "behle.nord@edeka.de", "name": "EDEKA", "opening_hours": "Mo-Sa 07:00-21:00; PH closed", "operator": "Behle", "phone": "+494042943838", "shop": "supermarket", "website": "https://www.edeka.de/eh/nord/edeka-behle-s%C3%BCderelbering-1/index.jsp"}}, {"type": "way", "id": 817819585, "center": {"lat": 53.4739364, "lon": 9.8539767}, "nodes": [3758546809, 12434277407, 7637791093, 12434277406, 7468300069, 7468300070, 3758546823, 3758546817, 7468300081, 3758546809], "tags": {"branch": "S-Bahnhof Hamburg Neugraben", "brand": "ServiceStore DB", "brand:wikidata": "Q84482517", "building:part": "retail", "contact:email": "ServiceStoreDB.Briefkasten@deutschebahn.com", "contact:phone": "+49 40 79613273", "contact:website": "https://www.servicestoredb.de/sst-de/Standortfinder#!/l/hamburg/am-neugrabener-bahnhof/1825780", "indoor": "room", "layer": "1", "level": "1", "name": "ServiceStore DB", "official_name": "ServiceStore DB - S-Bahnhof Hamburg Neugraben", "opening_hours": "Mo-Fr 05:00-21:00, Sa 06:00-22:00, Su 07:00-21:00", "payment:cash": "yes", "payment:girocard": "yes", "shop": "convenience", "wheelchair": "yes"}}, {"type": "way", "id": 935458181, "center": {"lat": 53.4732367, "lon": 9.8428877}, "nodes": [8668925105, 8668925106, 8668925107, 9469684409, 8668925108, 9469684410, 8668925105], "tags": {"addr:city": "Hamburg", "addr:housenumber": "402", "addr:postcode": "21149", "addr:street": "Cuxhavener Stra\u00dfe", "brand": "Aldi", "brand:wikidata": "Q125054", "brand:wikipedia": "en:Aldi", "building": "retail", "building:levels": "1", "name": "Aldi", "opening_hours": "Mo-Sa 07:00-21:00", "roof:levels": "0", "shop": "supermarket"}}]