[{"type": "node", "id": 82798639, "lat": 53.5891922, "lon": 10.1012978, "tags": {"amenity": "fuel", "compressed_air": "yes", "fuel:diesel": "yes", "fuel:e10": "yes", "fuel:octane_95": "yes", "name": "Mr. Wash", "opening_hours": "Mo-Fr 08:00-18:00; Sa 08:00-17:00; Su 13:00-17:00", "wheelchair": "yes"}}, {"type": "node", "id": 82798640, "lat": 53.5894621, "lon": 10.1000055, "tags": {"addr:housenumber": "171", "addr:street": "Friedrich-Ebert-Damm", "amenity": "fuel", "brand": "Shell", "brand:wikidata": "Q110716465", "brand:wikipedia": "en:Royal Dutch Shell", "compressed_air": "yes", "fuel:GTL_diesel": "yes", "fuel:diesel": "yes", "fuel:e10": "yes", "fuel:octane_100": "yes", "fuel:octane_95": "yes", "name": "Shell", "opening_hours": "24/7", "wheelchair": "yes"}}, {"type": "node", "id": 254431997, "lat": 53.5975475, "lon": 10.1008197, "tags": {"addr:city": "Hamburg", "addr:country": "DE", "addr:housenumber": "1", "addr:postcode": "22159", "addr:street": "Traberweg", "brand": "EDEKA", "brand:wikidata": "Q701755", "check_date:opening_hours": "2025-04-20", "internet_access": "wlan", "name": "Edeka St\u00f6ver", "opening_hours": "Mo-Sa 07:00-21:00", "payment:cash": "yes", "payment:credit_cards": "yes", "payment:maestro": "yes", "phone": "+49 40 64509515", "shop": "supermarket", "website": "https://www.edeka.de/eh/nord/e-aktiv-markt-st\u00f6ver-traberweg-1/index.jsp", "wheelchair": "yes"}}, {"type": "node", "id": 368458523, "lat": 53.599509, "lon": 10.1180005, "tags": {"addr:city": "Hamburg", "addr:country": "DE", "addr:housenumber": "98", "addr:postcode": "22159", "addr:street": "Berner Heerweg", "amenity": "fast_food", "cuisine": "thai", "email": "padthai@padthai-farmsen.de", "internet_access": "no", "name": "Pad Thai", "opening_hours": "Mo-Su 11:30-22:00", "phone": "+49-40-6436499", "smoking": "no", "website": "https://www.padthai-farmsen.de", "wheelchair": "limited"}}, {"type": "node", "id": 568338169, "lat": 53.6070685, "lon": 10.1169258, "tags": {"addr:city": "Hamburg", "addr:country": "DE", "addr:housenumber": "15", "addr:postcode": "22159", "addr:street": "August-Krogmann-Stra\u00dfe", "brand": "REWE", "brand:wikidata": "Q16968817", "brand:wikipedia": "en:REWE", "name": "REWE", "opening_hours": "Mo-Sa 7:00-23:00", "phone": "+49-40-64550251", "shop": "supermarket", "website": "https://www.rewe.de/", "wheelchair": "limited"}}, {"type": "node", "id": 732713918, "lat": 53.5955, "lon": 10.0932, "tags": {"amenity": "fuel", "compressed_air": "no", "fuel:cng": "no", "fuel:diesel": "no", "fuel:lpg": "yes", "fuel:octane_95": "no", "name": "F\u00f6lster und Finck GmbH", "opening_hours": "Mo-Fr 08:00-18:00", "source": "http://www.gas-tankstellen.de"}}, {"type": "node", "id": 977466073, "lat": 53.6059248, "lon": 10.1185327, "tags": {"addr:city": "Hamburg", "addr:country": "DE", "addr:housenumber": "173-175", "addr:postcode": "22159", "addr:street": "Berner Heerweg", "amenity": "fast_food", "brand": "Burger King", "brand:wikidata": "Q177054", "brand:wikipedia": "en:Burger King", "cuisine": "burger", "delivery": "no", "name": "Burger King", "opening_hours": "Mo-Sa 09:00-21:00", "operator": "BURGER KING Deutschland GmbH", "payment:cash": "yes", "payment:girocard": "yes", "payment:mastercard": "yes", "payment:visa": "yes", "phone": "+49 40 32861457", "smoking": "outside", "takeaway": "yes", "website": "https://www.burgerking.de/kingfinder/15297?id=690", "wheelchair": "limited"}}, {"type": "node", "id": 977466078, "lat": 53.6049193, "lon": 10.1170713, "tags": {"addr:city": "Hamburg", "addr:country": "DE", "addr:housenumber": "173-175", "addr:postcode": "22159", "addr:street": "Berner Heerweg", "brand": "Kaufland", "brand:wikidata": "Q685967", "check_date": "2024-11-29", "check_date:opening_hours": "2024-11-29", "contact:phone": "+49 40 35980410", "contact:website": "https://filiale.kaufland.de/service/filiale.storeName=DE5253.html", "name": "Kaufland", "opening_hours": "Mo-Sa 07:00-21:30; PH off", "shop": "supermarket", "wheelchair": "yes"}}, {"type": "node", "id": 1648287832, "lat": 53.5974288, "lon": 10.1022685, "tags": {"amenity": "fast_food", "cuisine": "chinese", "email": "restaurant@asia-qingdao.de", "internet_access": "no", "name": "Asia Qing Dao", "opening_hours": "Mo-Th 11:00-21:00; Fr 11:00-21:30; Su,PH 12:00-21:30", "operator": "G. Jahn", "outdoor_seating": "yes", "phone": "+49-40-64538989", "smoking": "no", "website": "https://www.asia-qingdao.de/", "wheelchair": "yes"}}, {"type": "node", "id": 1807343478, "lat": 53.607099, "lon": 10.1181152, "tags": {"amenity": "fast_food", "cuisine": "kebab;turkish", "delivery": "no", "drive_through": "no", "name": "Ardacan Grill", "opening_hours": "08:00+", "outdoor_seating": "no", "takeaway": "yes"}}, {"type": "node", "id": 1807343726, "lat": 53.6071906, "lon": 10.1181674, "tags": {"brand": "U-Store", "brand:wikidata": "Q113290511", "name": "U-Store", "opening_hours": "Mo-Fr 06:00-22:00; Sa 08:00-22:00; Su 10:00-22:00", "shop": "convenience"}}, {"type": "node", "id": 1825112098, "lat": 53.6045471, "lon": 10.1170978, "tags": {"brand": "PENNY", "brand:wikidata": "Q284688", "brand:wikipedia": "en:Penny (supermarket)", "name": "PENNY", "opening_hours": "Mo-Sa 07:00-20:00", "shop": "supermarket", "wheelchair": "yes"}}, {"type": "node", "id": 1860340134, "lat": 53.6068381, "lon": 10.1189595, "tags": {"amenity": "fast_food", "check_date": "2023-10-01", "cuisine": "french", "indoor_seating": "yes", "name": "Croque Crepes", "opening_hours": "PH,Mo-Su 11:30-22:00", "outdoor_seating": "yes", "website": "https://www.croque-u-farmsen.de/", "wheelchair": "limited"}}, {"type": "node", "id": 4813756130, "lat": 53.5849028, "lon": 10.1005466, "tags": {"addr:city": "Hamburg", "addr:housenumber": "2", "addr:postcode": "22047", "addr:street": "Am Stadtrand", "amenity": "fast_food", "brand": "burgerme", "brand:wikidata": "Q108866856", "cuisine": "burger", "delivery": "yes", "name": "burgerme", "opening_hours": "Mo-Su 11:00-23:00", "takeaway": "yes"}}, {"type": "node", "id": 6391502385, "lat": 53.5866736, "lon": 10.086556, "tags": {"addr:housenumber": "83", "addr:street": "Friedrich-Ebert-Damm", "amenity": "fast_food", "cuisine": "asian;sushi", "name:en": "Home of Sushi", "opening_hours": "Mo-Sa 11:00-23:00"}}, {"type": "node", "id": 11223050188, "lat": 53.6002046, "lon": 10.1178062, "tags": {"amenity": "fast_food", "brand": "Most wanted Burger", "contact:website": "https://mostwantedburger.de/", "cuisine": "burger", "name": "Most wanted Burger", "operator": "MWB Gastro Holding GmbH", "smoking": "outside", "takeaway": "yes"}}, {"type": "node", "id": 11982605896, "lat": 53.5928039, "lon": 10.0952476, "tags": {"access": "yes", "addr:city": "Hamburg", "addr:housenumber": "162", "addr:postcode": "22047", "addr:street": "Tilsiter Stra\u00dfe", "amenity": "fast_food", "drive_through": "no", "fast_food": "cafeteria", "name": "Bistro & Caf\u00e9 Pf\u00f6rtnerhuus", "opening_hours": "Mo-Fr 07:00-14:00", "operator": "GastroLand Betriebsrestaurant GmbH", "phone": "+49 152 26547189", "website": "https://gastroland-gmbh.de/cafe-pfoertnerhuus/"}}, {"type": "way", "id": 23389664, "center": {"lat": 53.6007178, "lon": 10.1127481}, "nodes": [253247653, 253247654, 253247655, 253247656, 253247653], "tags": {"addr:city": "Hamburg", "addr:country": "DE", "addr:housenumber": "1", "addr:postcode": "22159", "addr:street": "Ivo-Hauptmann-Ring", "brand": "Lidl", "brand:wikidata": "Q151954", "brand:wikipedia": "en:Lidl", "building": "commercial", "building:levels": "1", "name": "Lidl", "opening_hours": "Mo-Sa 07:00-21:00", "shop": "supermarket", "wheelchair": "yes"}}, {"type": "way", "id": 23627794, "center": {"lat": 53.5876366, "lon": 10.0950564}, "nodes": [255949030, 255949031, 10759586304, 820942931, 10759594510, 255949032, 10759586303, 2720717895, 2720717897, 12455814008, 12455814003, 2720717905, 2720717903, 10759586300, 255949033, 255949030], "tags": {"addr:city": "Hamburg", "addr:country": "DE", "addr:housenumber": "7-9", "addr:postcode": "22047", "addr:street": "Helbingtwiete", "brand": "Kaufland", "brand:wikidata": "Q685967", "brand:wikipedia": "en:Kaufland", "building": "retail", "check_date": "2022-02-03", "contact:phone": "+49 40 734356580", "contact:website": "https://filiale.kaufland.de/service/filiale.storeName=DE1690.html", "name": "Kaufland", "opening_hours": "Mo-Sa 07:00-22:00; PH off", "shop": "supermarket", "wheelchair": "yes"}}, {"type": "way", "id": 47886995, "center": {"lat": 53.5984444, "lon": 10.0922933}, "nodes": [608990411, 608990412, 608990414, 2589420250, 608990415, 608990411], "tags": {"addr:city": "Hamburg", "addr:housenumber": "1", "addr:postcode": "22179", "addr:street": "Bengelsdorfstra\u00dfe", "brand": "Penny", "brand:wikidata": "Q284688", "building": "retail", "name": "Penny", "opening_hours": "Mo-Sa 07:00-22:00; Su,PH off", "shop": "supermarket", "wheelchair": "yes"}}, {"type": "way", "id": 48908455, "center": {"lat": 53.5874783, "lon": 10.0895401}, "nodes": [620718608, 620718612, 620718616, 620718625, 620718608], "tags": {"addr:city": "Hamburg", "addr:country": "DE", "addr:housenumber": "101", "addr:postcode": "22047", "addr:street": "Friedrich-Ebert-Damm", "amenity": "fast_food", "brand": "McDonald's", "brand:wikidata": "Q38076", "brand:wikipedia": "en:McDonald's", "building": "yes", "building:levels": "2", "cuisine": "burger", "delivery": "no", "drive_through": "yes", "internet_access": "wlan", "internet_access:fee": "no", "name": "McDonald's", "opening_hours": "24/7", "operator": "Systemgastronomie Stephan Jagalla Wandsbek e. K.", "outdoor_seating": "yes", "payment:cash": "yes", "payment:girocard": "yes", "payment:maestro": "yes", "payment:mastercard": "yes", "payment:visa": "yes", "phone": "+49 40 27824931", "smoking": "outside", "takeaway": "yes", "website": "https://www.mcdonalds.de/restaurant/hamburg-friedrich-ebert-damm-101", "wheelchair": "yes"}}, {"type": "way", "id": 49412754, "center": {"lat": 53.5888995, "lon": 10.1006347}, "nodes": [627573690, 627573691, 627573692, 3228580761, 3228580762, 627573693, 627573690], "tags": {"addr:city": "Hamburg", "addr:country": "DE", "addr:housenumber": "166", "addr:postcode": "22047", "addr:street": "Friedrich-Ebert-Damm", "amenity": "fast_food", "brand": "Burger King", "brand:wikidata": "Q177054", "brand:wikipedia": "en:Burger King", "building": "yes", "building:levels": "1", "cuisine": "burger", "delivery": "no", "drive_through": "yes", "internet_access": "wlan", "internet_access:fee": "no", "name": "Burger King", "old_name": "BurgerKing", "opening_hours": "Mo-Th 00:00-01:00,09:00-24:00; Fr,Sa 00:00-03:00,09:00-24:00; Su 00:00-01:00,10:00-24:00", "operator": "DFM Hamburg GmbH & Co. KG", "outdoor_seating": "yes", "payment:cash": "yes", "payment:maestro": "yes", "payment:mastercard": "yes", "payment:visa": "yes", "smoking": "outside", "takeaway": "yes", "website": "https://www.burgerking.de/kingfinder/22119?id=1003", "wheelchair": "yes"}}, {"type": "way", "id": 49526457, "center": {"lat": 53.5856656, "lon": 10.099493}, "nodes": [629434175, 9156238455, 9156238456, 9156238457, 9156238458, 9156238459, 9156238460, 9156238461, 9156238462, 9156238463, 9156238464, 9156238465, 9156238466, 629434205, 629434015, 629434042, 629434120, 629434166, 629434175], "tags": {"addr:city": "Hamburg", "addr:country": "DE", "addr:housenumber": "9-11", "addr:postcode": "22047", "addr:street": "Am Stadtrand", "brand": "Lidl", "brand:wikidata": "Q151954", "brand:wikipedia": "en:Lidl", "building": "retail", "cash_withdrawal": "yes", "name": "Lidl", "opening_hours": "Mo-Sa 07:00-21:00; Su,PH off", "operator": "Lidl Vertriebs-GmbH & Co. KG", "payment:american_express": "yes", "payment:cash": "yes", "payment:contactless": "yes", "payment:diners_club": "yes", "payment:discover_card": "yes", "payment:girocard": "yes", "payment:maestro": "yes", "payment:mastercard": "yes", "payment:v_pay": "yes", "payment:visa": "yes", "shop": "supermarket", "wheelchair": "yes"}}]