[{"type": "node", "id": 253232943, "lat": 53.5867978, "lon": 10.125446, "tags": {"addr:city": "Hamburg", "addr:country": "DE", "addr:housenumber": "71-81", "addr:postcode": "22045", "addr:street": "Tonndorfer Hauptstra\u00dfe", "branch": "CENTER", "brand": "REWE", "brand:wikidata": "Q16968817", "check_date": "2024-01-13", "check_date:opening_hours": "2023-01-09", "internet_access": "wlan", "internet_access:fee": "no", "name": "REWE", "opening_hours": "Mo-Sa 08:00-22:00", "payment:cash": "yes", "payment:credit_cards": "yes", "payment:debit_cards": "yes", "shop": "supermarket", "wheelchair": "yes"}}, {"type": "node", "id": 299318487, "lat": 53.5877236, "lon": 10.1295988, "tags": {"addr:housenumber": "110", "addr:street": "Tonndorfer Hauptstra\u00dfe", "amenity": "fuel", "brand": "Shell", "brand:wikidata": "Q110716465", "check_date": "2024-01-13", "compressed_air": "yes", "internet_access": "wlan", "internet_access:fee": "no", "name": "Shell", "operator": "Shell", "payment:cash": "yes", "payment:credit_cards": "yes", "payment:debit_cards": "yes", "wheelchair": "yes"}}, {"type": "node", "id": 732717629, "lat": 53.5809471, "lon": 10.1238278, "tags": {"addr:city": "Hamburg", "addr:country": "DE", "addr:housenumber": "91", "addr:postcode": "22045", "addr:street": "Kuehnstra\u00dfe", "addr:suburb": "Tonndorf", "amenity": "fuel", "fuel:cng": "no", "fuel:diesel": "no", "fuel:lpg": "yes", "fuel:octane_95": "no", "name": "C. Thomsen GmbH", "opening_hours": "Mo-Fr 07:00-18:00; Sa 09:00-13:00", "operator": "C.Thomsen GmbH", "payment:girocard": "yes", "phone": "+49-40-668614-0", "shop": "no", "source": "http://www.gas-tankstellen.de", "vending": "fuel", "vending_machine": "yes"}}, {"type": "node", "id": 740101209, "lat": 53.5929692, "lon": 10.1417978, "tags": {"addr:city": "Hamburg", "addr:country": "DE", "addr:housenumber": "22", "addr:postcode": "22149", "addr:street": "Rahlstedter Stra\u00dfe", "amenity": "fuel", "brand": "HEM", "brand:wikidata": "Q109930239", "brand:wikipedia": "de:Deutsche Tamoil", "compressed_air": "yes", "compressed_air:fee": "no", "compressed_air:valves": "schrader", "fuel:diesel": "yes", "fuel:e10": "yes", "fuel:octane_95": "yes", "fuel:octane_98": "yes", "name": "HEM", "opening_hours": "Mo-Fr 06:00-22:30; Sa 07:00-22:30; Su 08:00-22:30; PH 08:00-22:30", "payment:coins": "yes", "payment:maestro": "yes", "payment:mastercard": "yes", "payment:notes": "yes", "payment:visa": "yes", "payment:visa_debit": "no", "wheelchair": "yes"}}, {"type": "node", "id": 938783926, "lat": 53.6033094, "lon": 10.1449332, "tags": {"addr:city": "Hamburg", "addr:country": "DE", "addr:housenumber": "83-87", "addr:postcode": "22143", "addr:street": "Bargteheider Stra\u00dfe", "brand": "PENNY", "brand:wikidata": "Q284688", "brand:wikipedia": "en:Penny (supermarket)", "name": "PENNY", "opening_hours": "Mo-Sa 07:00-23:00; PH off", "shop": "supermarket", "wheelchair": "yes"}}, {"type": "node", "id": 938783975, "lat": 53.6035475, "lon": 10.1448043, "tags": {"addr:city": "Hamburg", "addr:country": "DE", "addr:housenumber": "83-87", "addr:postcode": "22143", "addr:street": "Bargteheider Stra\u00dfe", "brand": "REWE", "brand:wikidata": "Q16968817", "brand:wikipedia": "en:REWE", "check_date": "2024-05-08", "contact:phone": "+49 40 64419772", "contact:website": "https://www.rewe.de/marktseite/hamburg-rahlstedt/540347/rewe-markt-bargteheider-str-83-87/", "name": "REWE", "opening_hours": "Mo-Fr 07:00-24:00; Sa 07:00-23:30; PH off", "operator": "REWE Markt GmbH", "shop": "supermarket", "wheelchair": "yes"}}, {"type": "node", "id": 976181721, "lat": 53.6045934, "lon": 10.1575106, "tags": {"addr:city": "Hamburg", "addr:housename": "EKZ Rahlstedt Arcaden", "addr:housenumber": "8-12", "addr:postcode": "22143", "addr:street": "Schweriner Stra\u00dfe", "brand": "EDEKA", "brand:wikidata": "Q701755", "check_date": "2024-12-05", "contact:phone": "+49 40 6777745", "contact:website": "https://www.edeka.de/eh/nord/e-center-struve-schweriner-str.-8-12/index.jsp", "level": "-1", "name": "EDEKA-Center Struve", "opening_hours": "Mo-Sa 08:00-20:00; PH off", "shop": "supermarket", "wheelchair": "yes"}}, {"type": "node", "id": 976181722, "lat": 53.6049708, "lon": 10.1582373, "tags": {"amenity": "fast_food", "name": "Dutch"}}, {"type": "node", "id": 976181732, "lat": 53.6023543, "lon": 10.1540208, "tags": {"name": "Galeria Rahlstedt", "opening_hours": "Mo-Fr 10:00-18:00; Sa 10:00-14:00", "shop": "convenience"}}, {"type": "node", "id": 976181757, "lat": 53.603392, "lon": 10.1544446, "tags": {"addr:city": "Hamburg", "addr:housenumber": "14", "addr:postcode": "22143", "addr:street": "Rahlstedter Bahnhofstra\u00dfe", "name": "Lederwaren Niederstadt", "opening_hours": "Mo-We 10:00-16:00; Th 10:00-16:00; Sa 09:30-13:30", "operator": "Lederwaren Niederstedt", "shop": "convenience", "website": "https://www.lederwaren-niederstadt.de/"}}, {"type": "node", "id": 1237410873, "lat": 53.6005131, "lon": 10.1379906, "tags": {"alt_name": "Haspa", "brand": "denn's Biomarkt", "brand:wikidata": "Q48883773", "brand:wikipedia": "de:Hamburger Sparkasse", "level": "0", "name": "denn's Biomarkt", "opening_hours": "Mo,Th 09:00-18:00; Tu,We,Fr 09:00-16:00", "operator": "Hamburger Sparkasse", "organic": "only", "shop": "supermarket", "short_name": "Haspa", "website": "https://www.haspa.de/", "wheelchair": "yes"}}, {"type": "node", "id": 1237412652, "lat": 53.6004681, "lon": 10.1367579, "tags": {"addr:city": "Hamburg", "addr:country": "DE", "addr:housenumber": "3", "addr:postcode": "22147", "addr:street": "Boltenhagener Stra\u00dfe", "brand": "EDEKA", "brand:wikidata": "Q701755", "brand:wikipedia": "de:Edeka", "email": "edeka.bankert.nord@edeka.de", "internet_access": "wlan", "name": "Edeka", "opening_hours": "Mo-Sa 08:00-20:00; PH off", "operator": "Bankert", "payment:coins": "yes", "payment:girocard": "yes", "payment:maestro": "yes", "payment:notes": "yes", "phone": "+49-40-6489950", "shop": "supermarket", "website": "https://www.edeka.de/", "wheelchair": "yes"}}, {"type": "node", "id": 1343921383, "lat": 53.6042492, "lon": 10.1547849, "tags": {"amenity": "fast_food", "check_date": "2024-12-05", "name": "Sultan's Kepub", "wheelchair": "yes"}}, {"type": "node", "id": 1350081975, "lat": 53.6044332, "lon": 10.1590594, "tags": {"addr:city": "Hamburg", "addr:country": "DE", "addr:housenumber": "8-12", "addr:postcode": "22143", "addr:street": "Schweriner Stra\u00dfe", "brand": "ALDI Nord", "brand:wikidata": "Q41171373", "brand:wikipedia": "en:Aldi", "contact:website": "https://www.aldi-nord.de/tools/filialen-und-oeffnungszeiten/hamburg/rahlstedt/schweriner-strasse-8-12.html", "level": "0", "name": "ALDI Nord", "opening_hours": "Mo-Sa 08:00-20:00; PH off", "shop": "supermarket", "wheelchair": "yes"}}, {"type": "node", "id": 1350081977, "lat": 53.6039064, "lon": 10.1551434, "tags": {"brand": "REWE", "brand:wikidata": "Q16968817", "brand:wikipedia": "en:REWE", "check_date:opening_hours": "2024-06-24", "name": "REWE", "opening_hours": "Mo-Sa 07:00-22:00", "shop": "supermarket", "wheelchair": "limited"}}, {"type": "node", "id": 1585549797, "lat": 53.5906561, "lon": 10.1611329, "tags": {"addr:city": "Hamburg", "addr:country": "DE", "addr:housenumber": "84-102", "addr:postcode": "22149", "addr:street": "Liliencronstra\u00dfe", "brand": "PENNY", "brand:wikidata": "Q284688", "brand:wikipedia": "en:Penny (supermarket)", "check_date": "2025-06-23", "check_date:opening_hours": "2025-05-02", "name": "PENNY", "opening_hours": "Mo-Sa 07:00-22:00; PH off", "payment:american_express": "yes", "payment:apple_pay": "yes", "payment:cards": "yes", "payment:cash": "yes", "payment:contactless": "yes", "payment:credit_cards": "yes", "payment:debit_cards": "yes", "payment:girocard": "yes", "payment:google_pay": "yes", "payment:maestro": "yes", "payment:mastercard": "yes", "payment:v_pay": "yes", "payment:visa": "yes", "shop": "supermarket", "website": "https://www.penny.de/", "wheelchair": "yes"}}, {"type": "node", "id": 1642881553, "lat": 53.6079253, "lon": 10.1382392, "tags": {"addr:city": "Hamburg", "addr:housenumber": "42", "addr:postcode": "22147", "addr:street": "Gr\u00f6mitzer Weg", "branch": "Gr\u00f6mitzer Weg", "brand": "PENNY", "brand:wikidata": "Q284688", "brand:wikipedia": "en:Penny (supermarket)", "name": "PENNY", "opening_hours": "Mo-Sa 07:00-22:00; PH off", "payment:american_express": "yes", "payment:cash": "yes", "payment:maestro": "yes", "payment:mastercard": "yes", "payment:payback_app": "yes", "payment:visa": "yes", "phone": "+49 221 20199959", "shop": "supermarket", "website": "https://www.penny.de/markt/hamburg/530114/penny-groemitzer-weg-groemitzer-weg-42", "wheelchair": "yes"}}, {"type": "node", "id": 1760954374, "lat": 53.5851218, "lon": 10.122743, "tags": {"addr:city": "Hamburg", "addr:housenumber": "66", "addr:postcode": "22045", "addr:street": "Tonndorfer Hauptstra\u00dfe", "brand": "Mix Markt", "brand:wikidata": "Q327854", "brand:wikipedia": "de:Mix Markt", "check_date:opening_hours": "2023-08-30", "email": "mixmarkt98@monolith-gruppe.com", "fax": "+49 40 66935431", "name": "Mix Markt", "opening_hours": "Mo-Fr 09:00-19:00; Sa 09:00-17:00", "operator": "Edgar Leisle", "phone": "+49 40 66935430", "shop": "supermarket", "website": "https://www.mixmarkt.eu/de/germany/maerkte/98/"}}, {"type": "node", "id": 1761244792, "lat": 53.5861495, "lon": 10.1234851, "tags": {"addr:city": "Hamburg", "addr:country": "DE", "addr:housenumber": "59", "addr:postcode": "22045", "addr:street": "Tonndorfer Hauptstra\u00dfe", "amenity": "fast_food", "check_date": "2022-07-18", "contact:phone": "+49 40 66900966", "contact:website": "https://nonnospizza.de", "cuisine": "pizza;pasta", "delivery": "yes", "drive_through": "no", "name": "Nonno's Pizza-Manufaktur", "opening_hours": "Su-Th 11:00-22:30; PH,Fr,Sa 11:00-23:00"}}, {"type": "node", "id": 2285426188, "lat": 53.5843178, "lon": 10.1338729, "tags": {"addr:city": "Hamburg", "addr:housenumber": "4", "addr:postcode": "22045", "addr:street": "Sch\u00f6neberger Stra\u00dfe", "amenity": "fast_food", "name": "Anatolian Street Food", "phone": "+49 40 18 00 80 49"}}, {"type": "node", "id": 2541615239, "lat": 53.6043723, "lon": 10.1542673, "tags": {"amenity": "fast_food", "name": "K\u00f6z Piazola", "old_name": "McDonald's"}}, {"type": "node", "id": 2621151364, "lat": 53.6031272, "lon": 10.1541454, "tags": {"addr:city": "Hamburg", "addr:country": "DE", "addr:housenumber": "16", "addr:postcode": "22143", "addr:street": "Rahlstedter Bahnhofstra\u00dfe", "amenity": "fast_food", "cuisine": "asian", "name": "Asia Hoang", "opening_hours": "Mo-Sa 11:00-22:00; PH,Su 12:30-22:00", "phone": "+49 40 6775077"}}, {"type": "node", "id": 2685072812, "lat": 53.5704047, "lon": 10.1358957, "tags": {"addr:city": "Hamburg", "addr:housenumber": "42", "addr:postcode": "22043", "addr:street": "\u00d6jendorfer Damm", "amenity": "fast_food", "cuisine": "vietnamese", "name": "Bistro Hoang Mai", "opening_hours": "Mo-Tu off; We-Fr 10:00-18:00; Sa-Su 09:00-18:00", "phone": "+49 40 63643661"}}, {"type": "node", "id": 2766336057, "lat": 53.5692184, "lon": 10.1631044, "tags": {"addr:city": "Barsb\u00fcttel", "addr:housenumber": "35a", "addr:postcode": "22885", "addr:street": "Hauptstra\u00dfe", "amenity": "fast_food", "cuisine": "kebab", "drive_through": "no", "name": "Toprak D\u00f6ner", "opening_hours": "Su 12:00-21:00, Mo-Sa 11:00-22:00", "phone": "+49 40 30745404"}}, {"type": "node", "id": 3136541829, "lat": 53.5882703, "lon": 10.1238775, "tags": {"addr:city": "Hamburg", "addr:country": "DE", "addr:housenumber": "83", "addr:postcode": "22045", "addr:street": "Stein-Hardenberg-Stra\u00dfe", "amenity": "fast_food", "brand": "Pizza Max", "brand:wikidata": "Q114189329", "contact:email": "r.kohistani@pizzamax-hamburg.de", "contact:fax": "+49 40 822992522", "contact:phone": "+49 40 82299250", "contact:website": "http://www.pizzamax.de", "cuisine": "pizza", "delivery": "yes", "internet_access": "no", "name": "Pizza Max", "opening_hours": "Su-Th 11:00-23:00; Fr-Sa 11:00-24:00", "ownership": "Rasoul Kohistani", "payment:cash": "yes", "payment:credit_cards": "no", "payment:cryptocurrencies": "no", "payment:electronic_purses": "no", "payment:girocard": "yes", "payment:maestro": "yes", "smoking": "no", "takeaway": "yes"}}, {"type": "node", "id": 3306444073, "lat": 53.5679235, "lon": 10.1643163, "tags": {"addr:city": "Barsb\u00fcttel", "addr:country": "DE", "addr:housenumber": "5", "addr:postcode": "22885", "addr:street": "Am AKKU", "brand": "REWE", "brand:wikidata": "Q16968817", "brand:wikipedia": "en:REWE", "name": "REWE", "old_name": "sky", "opening_hours": "Mo-Sa 07:00-22:00; PH off", "operator": "Superm\u00e4rkte Nord Vertriebs GmbH & Co. KG", "shop": "supermarket", "wheelchair": "yes"}}, {"type": "node", "id": 3450868948, "lat": 53.6052945, "lon": 10.1561708, "tags": {"amenity": "fast_food", "check_date:opening_hours": "2024-02-21", "cuisine": "kebab", "name": "Konak Kebap", "opening_hours:signed": "no", "wheelchair": "yes"}}, {"type": "node", "id": 3451004757, "lat": 53.6041237, "lon": 10.1547274, "tags": {"check_date": "2025-04-17", "name": "AliSe Markt", "shop": "supermarket"}}, {"type": "node", "id": 3640934395, "lat": 53.5984179, "lon": 10.1537578, "tags": {"addr:city": "Hamburg", "addr:country": "DE", "addr:housenumber": "123", "addr:postcode": "22149", "addr:street": "Rahlstedter Stra\u00dfe", "amenity": "fast_food", "cuisine": "sandwich", "email": "crazycroque@aol.com", "internet_access": "no", "name": "Crazy Croque", "opening_hours": "Mo-Su 11:30-22:00", "operator": "Crazy Croque Imbissbetriebe GmbH", "phone": "+49-40-6777816", "smoking": "no", "website": "https://www.crazycroque.de/", "wheelchair": "no"}}, {"type": "node", "id": 3709520890, "lat": 53.6051222, "lon": 10.1585175, "tags": {"name": "Simorgh Markt", "note": "disused shop 01/2023", "opening_hours": "Mo-Sa 08:00-20:00", "shop": "convenience"}}, {"type": "node", "id": 4316698128, "lat": 53.5846633, "lon": 10.1334964, "tags": {"amenity": "fast_food", "cuisine": "asian", "delivery": "yes", "name": "Asia Man", "smoking": "no", "takeaway": "yes", "website": "https://www.asiaman-hh.de/"}}, {"type": "node", "id": 4471905301, "lat": 53.588445, "lon": 10.1238578, "tags": {"addr:city": "Hamburg", "addr:country": "DE", "addr:housenumber": "15", "addr:postcode": "22045", "addr:street": "Sonnenweg", "amenity": "fast_food", "contact:phone": "+49 40 660066", "contact:website": "https://www.grill-mill.de/", "cuisine": "burger;pizza;salad", "name": "GrillMill", "takeaway": "yes"}}, {"type": "node", "id": 4781706237, "lat": 53.6035789, "lon": 10.1550373, "tags": {"check_date:opening_hours": "2024-06-24", "name": "Tjaden\u2019s Bio Frischemarkt", "opening_hours": "Mo-Fr 09:00-20:00; Sa 08:00-19:00", "organic": "only", "shop": "supermarket", "wheelchair": "yes"}}, {"type": "node", "id": 4781706238, "lat": 53.6048567, "lon": 10.15498, "tags": {"addr:city": "Hamburg", "addr:country": "DE", "addr:housenumber": "3-5", "addr:street": "Helmut-Steidl-Platz", "amenity": "fast_food", "check_date": "2020-10-31", "contact:phone": "+49 40 67105272", "contact:website": "http://www.asiahub.de/rahlstedt.html", "cuisine": "asian", "name": "asiahub", "opening_hours": "Mo-Fr 11:00-21:30; Sa, Su 12:00-21:30", "wheelchair": "yes"}}, {"type": "node", "id": 5069572482, "lat": 53.5690027, "lon": 10.1228912, "tags": {"opening_hours": "24/7", "payment:dkv": "yes", "payment:uta": "yes", "phone": "+49 40 6536800", "shop": "convenience", "website": "https://www.essofuelfinder.de/425772-d-staginnus-hamburg", "wheelchair": "limited"}}, {"type": "node", "id": 5069572483, "lat": 53.5690814, "lon": 10.1230864, "tags": {"addr:city": "Hamburg", "addr:country": "DE", "addr:housenumber": "299", "addr:postcode": "22043", "addr:street": "Schiffbeker Weg", "amenity": "fuel", "brand": "Esso", "brand:wikidata": "Q867662", "brand:wikipedia": "en:Esso", "check_date": "2024-06-26", "compressed_air": "yes", "contact:phone": "+49 40 6536800", "contact:website": "https://www.esso.de/de-de/find-station/esso-hamburg-essostationhamburgschiffbekerweg-100150413", "fuel:diesel": "yes", "fuel:e10": "yes", "fuel:lpg": "yes", "fuel:octane_95": "yes", "fuel:octane_98": "yes", "name": "Esso", "opening_hours": "24/7", "payment:dkv": "yes", "payment:uta": "yes"}}, {"type": "node", "id": 5164997272, "lat": 53.605865, "lon": 10.1643573, "tags": {"amenity": "fuel", "brand": "Esso", "brand:wikidata": "Q867662", "brand:wikipedia": "en:Esso", "name": "Esso"}}, {"type": "node", "id": 5270683656, "lat": 53.5809664, "lon": 10.1247919, "tags": {"addr:city": "Hamburg", "addr:country": "DE", "addr:housenumber": "93", "addr:postcode": "22045", "addr:street": "Kuehnstra\u00dfe", "amenity": "fast_food", "cuisine": "sushi", "name": "yoko Sushi", "opening_hours": "Mo-Fr 11:00-22:00; Sa,Su 12:00-22:00", "phone": "+49 40 66997070", "website": "https://webshop.yoko.de/storedata/listStore"}}, {"type": "node", "id": 6321524796, "lat": 53.5845777, "lon": 10.1435612, "tags": {"addr:city": "Hamburg", "addr:country": "DE", "addr:housenumber": "21", "addr:postcode": "22045", "addr:street": "Berliner Platz", "brand": "ALDI Nord", "brand:wikidata": "Q41171373", "brand:wikipedia": "en:Aldi", "contact:website": "https://www.aldi-nord.de/tools/filialen-und-oeffnungszeiten/hamburg/jenfeld/berliner-platz-21.html", "name": "Aldi", "opening_hours": "Mo-Sa 08:00-21:00; PH off", "shop": "supermarket", "wheelchair": "yes"}}, {"type": "node", "id": 7126306833, "lat": 53.6044801, "lon": 10.1582203, "tags": {"amenity": "fast_food", "cuisine": "thai", "name": "Thai foo"}}, {"type": "node", "id": 8830474048, "lat": 53.6049353, "lon": 10.1551192, "tags": {"addr:city": "Hamburg", "addr:housenumber": "1", "addr:postcode": "22143", "addr:street": "Helmut-Steidl-Platz", "amenity": "fast_food", "cuisine": "kebab", "name": "Kebab Dream", "website": "https://www.kebab-dream.de/"}}, {"type": "node", "id": 9235592153, "lat": 53.5845015, "lon": 10.1441544, "tags": {"name": "Afroshop", "shop": "supermarket"}}, {"type": "node", "id": 9748945155, "lat": 53.5713725, "lon": 10.1351968, "tags": {"brand": "PENNY", "brand:wikidata": "Q284688", "name": "PENNY", "opening_hours": "Mo-Sa 07:00-20:00", "shop": "supermarket"}}, {"type": "node", "id": 9748945159, "lat": 53.5722482, "lon": 10.1339319, "tags": {"addr:city": "Hamburg", "addr:housenumber": "22", "addr:postcode": "22043", "addr:street": "Grabkeweg", "name": "Khan Plaza Supermarkt", "shop": "supermarket"}}, {"type": "node", "id": 9924692713, "lat": 53.5815537, "lon": 10.1324644, "tags": {"addr:city": "Hamburg", "addr:housenumber": "1", "addr:place": "Gyula-Trebitsch-Platz", "addr:postcode": "22045", "brand": "Nahkauf", "brand:wikidata": "Q57515238", "name": "Nahkauf", "opening_hours": "Mo-Sa 07:00-22:00", "operator": "Roy Schl\u00fcter", "payment:cash": "yes", "payment:girocard": "yes", "shop": "supermarket"}}, {"type": "node", "id": 10674759662, "lat": 53.6042984, "lon": 10.1564124, "tags": {"name": "Arash", "shop": "supermarket"}}, {"type": "node", "id": 10702968488, "lat": 53.5944661, "lon": 10.1464426, "tags": {"amenity": "fast_food", "cuisine": "sushi", "name": "Soul Sushi"}}, {"type": "node", "id": 10738153676, "lat": 53.5865664, "lon": 10.1254007, "tags": {"amenity": "fast_food", "cuisine": "vietnamese", "name": "Yummi"}}, {"type": "node", "id": 10819070083, "lat": 53.6013969, "lon": 10.128708, "tags": {"addr:housenumber": "73", "addr:street": "Rahlstedter Weg", "name": "Stern Supermarkt", "shop": "supermarket"}}, {"type": "node", "id": 11027865890, "lat": 53.6024729, "lon": 10.1449574, "tags": {"addr:city": "Hamburg", "addr:country": "DE", "addr:housenumber": "75", "addr:postcode": "22143", "addr:street": "Bargteheider Stra\u00dfe", "amenity": "fast_food", "branch": "Hamburg Rahlstedt", "brand": "Domino's", "brand:wikidata": "Q839466", "cuisine": "pizza", "delivery": "yes", "drive_through": "no", "internet_access": "no", "name": "Domino's", "opening_hours": "Mo-Su 11:00-23:00", "operator": "Noid Works GmbH", "payment:apple_pay": "yes", "payment:cash": "yes", "payment:ec_cards": "yes", "payment:girocard": "yes", "payment:google_pay": "yes", "payment:maestro": "yes", "payment:mastercard": "yes", "payment:samsung_pay": "yes", "payment:visa": "yes", "phone": "+49-40-6736070", "smoking": "no", "takeaway": "yes", "website": "https://www.dominos.de/kaufhaus/de-hamburgrahlstedt-33758", "wheelchair": "yes"}}, {"type": "node", "id": 11432454839, "lat": 53.5707944, "lon": 10.1237316, "tags": {"addr:city": "Hamburg", "addr:country": "DE", "addr:housenumber": "242", "addr:postcode": "22043", "addr:street": "Rodigallee", "amenity": "fast_food", "contact:phone": "+49 40 60902400", "drive_through": "no", "name": "Der Holl\u00e4nder", "opening_hours": "11:00-23:00"}}, {"type": "node", "id": 12801034104, "lat": 53.6045741, "lon": 10.1546086, "tags": {"amenity": "fast_food", "brand": "Subway", "cuisine": "sandwich", "name": "Subway"}}, {"type": "way", "id": 28759722, "center": {"lat": 53.5963545, "lon": 10.1535815}, "nodes": [316209656, 316209657, 316209658, 316209659, 316209656], "tags": {"addr:city": "Hamburg", "addr:country": "DE", "addr:housenumber": "6", "addr:postcode": "22149", "addr:street": "Brockdorffstra\u00dfe", "amenity": "fast_food", "building": "yes", "cuisine": "burger", "name": "City Burger"}}, {"type": "way", "id": 32998941, "center": {"lat": 53.5712669, "lon": 10.141839}, "nodes": [371772634, 371772647, 2697799444, 9749757881, 371772653, 4083212902, 4083212901, 371772662, 371772634], "tags": {"addr:city": "Hamburg", "addr:country": "DE", "addr:housenumber": "33", "addr:postcode": "22043", "addr:street": "Barsb\u00fctteler Stra\u00dfe", "brand": "Lidl", "brand:wikidata": "Q151954", "brand:wikipedia": "en:Lidl", "building": "yes", "name": "Lidl", "opening_hours": "Mo-Sa 08:00-21:00,07:00-21:00", "payment:coins": "yes", "payment:girocard": "yes", "payment:maestro": "yes", "payment:mastercard": "yes", "payment:notes": "yes", "payment:visa": "yes", "shop": "supermarket", "website": "https://www.lidl.de/", "wheelchair": "yes"}}, {"type": "way", "id": 51346040, "center": {"lat": 53.5714438, "lon": 10.1238328}, "nodes": [655216317, 655216305, 4342900380, 655216444, 655216453, 11310504455, 11310504454, 11310504453, 11310504456, 655216317], "tags": {"addr:city": "Hamburg", "addr:country": "DE", "addr:housenumber": "217", "addr:postcode": "22043", "addr:street": "Rodigallee", "brand": "Netto Marken-Discount", "brand:wikidata": "Q879858", "brand:wikipedia": "de:Netto Marken-Discount", "building": "retail", "building:levels": "1", "check_date:opening_hours": "2022-12-21", "name": "Netto Marken-Discount", "opening_hours": "Mo-Sa 07:00-22:00", "roof:levels": "0", "shop": "supermarket", "toilets:wheelchair": "no", "website": "https://www.netto-online.de/filialen/Hamburg/Rodigallee-217/7127/", "wheelchair": "yes"}}, {"type": "way", "id": 53024570, "center": {"lat": 53.584796, "lon": 10.1397721}, "nodes": [671589949, 671589982, 12570823948, 12570823949, 671590035, 671590008, 671589949], "tags": {"addr:city": "Hamburg", "addr:country": "DE", "addr:housenumber": "29", "addr:postcode": "22045", "addr:street": "Sch\u00f6neberger Stra\u00dfe", "addr:suburb": "Jenfeld", "brand": "Lidl", "brand:wikidata": "Q151954", "brand:wikipedia": "en:Lidl", "building": "supermarket", "name": "Lidl", "opening_hours": "Mo-Sa 08:00-21:00", "shop": "supermarket", "website": "https://www.lidl.de/filialen/hamburg/jenfeld-schoeneberger-str-29.html", "wheelchair": "yes"}}, {"type": "way", "id": 53024581, "center": {"lat": 53.5842855, "lon": 10.1407377}, "nodes": [671589969, 6372912581, 6372912582, 6372912583, 6372912584, 6372912685, 6372912686, 671590021, 671589968, 671590082, 671589969], "tags": {"addr:city": "Hamburg", "addr:housenumber": "31", "addr:postcode": "22045", "addr:street": "Sch\u00f6neberger Stra\u00dfe", "brand": "REWE", "brand:wikidata": "Q16968817", "brand:wikipedia": "en:REWE", "building": "supermarket", "name": "REWE", "opening_hours": "Mo-Sa 07:00-23:00", "shop": "supermarket", "wheelchair": "yes"}}, {"type": "way", "id": 53506622, "center": {"lat": 53.5707209, "lon": 10.1438745}, "nodes": [676084664, 1879985755, 1879985756, 1879985723, 1879985720, 676084643, 1879985744, 1879985746, 676084665, 676084664], "tags": {"addr:city": "Hamburg", "addr:country": "DE", "addr:housenumber": "45", "addr:postcode": "22043", "addr:street": "Barsb\u00fctteler Stra\u00dfe", "amenity": "fast_food", "brand": "McDonald's", "brand:wikidata": "Q38076", "brand:wikipedia": "en:McDonald's", "building": "yes", "cuisine": "burger", "internet_access": "wlan", "name": "McDonald's", "opening_hours": "Mo-Th 09:00-24:00, Fr-Sa 09:00-01:00, PH,Su 10:00-24:00", "operator": "Michael Kaup Systemgastronomie e.K.", "phone": "+49 40 65390014", "takeaway": "yes", "website": "https://www.mcdonalds.de/restaurant/hamburg-barsbuetteler-str-45", "wheelchair": "yes"}}, {"type": "way", "id": 53615635, "center": {"lat": 53.5852001, "lon": 10.1513878}, "nodes": [677186801, 677186814, 677186755, 677186788, 677186700, 677186715, 3021671369, 3021671374, 3021671375, 677186801], "tags": {"addr:city": "Hamburg", "addr:country": "DE", "addr:housenumber": "5c", "addr:postcode": "22149", "addr:street": "Wei\u00dfenseestra\u00dfe", "brand": "Netto Marken-Discount", "brand:wikidata": "Q879858", "building": "retail", "layer": "1", "name": "Netto Marken-Discount", "opening_hours": "Mo-Sa 07:00-22:00", "shop": "supermarket", "website": "https://www.netto-online.de/filialen/Hamburg-Rahlstedt/Weissenseestrasse-5-c/2143/", "wheelchair": "limited"}}, {"type": "way", "id": 58916997, "center": {"lat": 53.5989944, "lon": 10.1432449}, "nodes": [729961431, 2443393839, 729961429, 3090175116, 3090175113, 3090175118, 3090175117, 729961454, 729961431], "tags": {"addr:housenumber": "30", "addr:postcode": "22143", "addr:street": "Bargteheider Stra\u00dfe", "brand": "Netto Marken-Discount", "brand:wikidata": "Q879858", "brand:wikipedia": "de:Netto Marken-Discount", "building": "retail", "name": "Netto Marken-Discount", "opening_hours": "Mo-Sa 07:00-22:00", "shop": "supermarket", "website": "https://www.netto-online.de/filialen/Hamburg/Bargteheider-Str-30/2500/"}}, {"type": "way", "id": 59076505, "center": {"lat": 53.6083431, "lon": 10.1374235}, "nodes": [732218253, 732218254, 732218256, 732218257, 732218258, 732218260, 732218253], "tags": {"amenity": "fuel", "brand": "SB Tank", "brand:wikidata": "Q96758296", "compressed_air": "yes", "fuel:GTL_diesel": "yes", "fuel:diesel": "yes", "fuel:e10": "yes", "fuel:lpg": "no", "fuel:octane_95": "yes", "fuel:octane_98": "yes", "mapillary": "787604435197523", "survey:date": "2022-08-30"}}, {"type": "way", "id": 66486533, "center": {"lat": 53.5977972, "lon": 10.1528422}, "nodes": [805124049, 805124010, 805123993, 805123999, 10040277155, 805124049], "tags": {"amenity": "fuel", "brand": "Aral", "brand:wikidata": "Q565734", "fuel:diesel": "yes", "fuel:e10": "yes", "fuel:lpg": "no", "landuse": "retail", "name": "Aral", "phone": "+49 40 67561379", "wheelchair": "limited"}}, {"type": "way", "id": 329440003, "center": {"lat": 53.5692379, "lon": 10.1528541}, "nodes": [1872772389, 676107789, 676107791, 676107794, 676107797, 676107798, 676107801, 676107804, 3363162573, 676107786, 676107697, 3363162572, 3363162571, 1872772389], "tags": {"addr:city": "Barsb\u00fcttel", "addr:housenumber": "4b", "addr:postcode": "22885", "addr:street": "Hauptstra\u00dfe", "amenity": "fuel", "brand": "Aral", "brand:wikidata": "Q565734", "brand:wikipedia": "en:Aral AG", "building": "yes", "compressed_air": "yes", "fuel:diesel": "yes", "fuel:octane_91": "no", "fuel:octane_95": "yes", "fuel:octane_98": "yes", "name": "Aral", "opening_hours": "Mo-Fr 06:00-22:00; Sa-Su 07:00-22:00", "operator": "Patrick Meyer", "phone": "+49-40-6700104", "wheelchair": "yes"}}, {"type": "way", "id": 435853936, "center": {"lat": 53.6048176, "lon": 10.1479976}, "nodes": [4337463048, 4337463050, 4337463052, 4337463051, 4337463045, 4337463043, 4337463044, 4337463046, 4337463048], "tags": {"addr:housenumber": "100", "addr:street": "Bargteheider Stra\u00dfe", "amenity": "fuel", "brand": "Aral", "brand:wikidata": "Q565734", "brand:wikipedia": "en:Aral AG", "compressed_air": "yes", "fuel:cng": "yes", "fuel:diesel": "yes", "fuel:e10": "yes", "fuel:lpg": "no", "fuel:octane_95": "yes", "fuel:octane_98": "yes", "landuse": "retail", "mapillary": "1338124423328910", "name": "Aral", "opening_hours": "24/7", "wheelchair": "yes"}}, {"type": "way", "id": 660421188, "center": {"lat": 53.5815623, "lon": 10.1385077}, "nodes": [6183232193, 6183232066, 6183232042, 6183232043, 6183232044, 6183232045, 6183232065, 6183232046, 6183232047, 6183232196, 6183232195, 6183232194, 6075793905, 6183232193], "tags": {"amenity": "fuel", "brand": "HEM", "brand:wikidata": "Q109930239", "name": "HEM"}}, {"type": "way", "id": 754729812, "center": {"lat": 53.5928694, "lon": 10.1360386}, "nodes": [7050620568, 7050620569, 7050620570, 7050620571, 7050620572, 7050620563, 7050620564, 7050620568], "tags": {"addr:city": "Hamburg", "addr:housenumber": "177", "addr:postcode": "22045", "addr:street": "Tonndorfer Hauptstra\u00dfe", "brand": "Lidl", "brand:wikidata": "Q151954", "brand:wikipedia": "en:Lidl", "building": "retail", "name": "Lidl", "opening_hours": "Mo-Sa 07:00-21:00", "shop": "supermarket", "wheelchair": "yes"}}, {"type": "way", "id": 805312427, "center": {"lat": 53.5789782, "lon": 10.1290691}, "nodes": [674451226, 674451235, 7531864156, 3109815264, 7531864154, 7531864150, 674451226], "tags": {"addr:city": "Hamburg", "addr:housenumber": "70", "addr:postcode": "22043", "addr:street": "Jenfelder Allee", "brand": "ALDI Nord", "brand:wikidata": "Q41171373", "building": "supermarket", "name": "ALDI Nord", "opening_hours": "Mo-Sa 07:00-21:00", "shop": "supermarket"}}, {"type": "way", "id": 1234652808, "center": {"lat": 53.6019248, "lon": 10.1444451}, "nodes": [2501895707, 2501895704, 2501895702, 4484347231, 4484347227, 2501895703, 2501895707], "tags": {"addr:city": "Hamburg", "addr:country": "DE", "addr:housenumber": "67", "addr:postcode": "22143", "addr:street": "Bargteheider Stra\u00dfe", "amenity": "fuel", "brand": "star", "brand:wikidata": "Q109930371", "brand:wikipedia": "de:Orlen Deutschland", "fuel:HGV_diesel": "yes", "fuel:diesel": "yes", "fuel:e10": "yes", "fuel:lpg": "yes", "fuel:octane_95": "yes", "name": "Star", "opening_hours": "Mo-Fr 05:00-24:00, PH,Sa-Su 07:00-23:00", "operator": "Thorsten Viebrock", "payment:american_express": "yes", "payment:cash": "yes", "payment:diners_club": "yes", "payment:dkv": "yes", "payment:girocard": "yes", "payment:maestro": "yes", "payment:mastercard": "yes", "payment:uta": "yes", "payment:visa": "yes"}}]