[{"type": "node", "id": 92877335, "lat": 53.4829371, "lon": 10.0257305, "tags": {"addr:city": "Hamburg", "addr:housenumber": "9", "addr:postcode": "21109", "addr:street": "Jakobsberg", "amenity": "fuel", "atmotorway": "yes", "brand": "Aral", "brand:wikidata": "Q565734", "compressed_air": "yes", "fuel:lpg": "yes", "name": "Aral - Hamburg-Stillhorn", "opening_hours": "24/7", "operator": "Aral"}}, {"type": "node", "id": 281529048, "lat": 53.5058963, "lon": 9.9927728, "tags": {"check_date:opening_hours": "2025-01-21", "name": "G\u00fcl Markt", "opening_hours:signed": "no", "shop": "convenience", "wheelchair": "yes"}}, {"type": "node", "id": 635274730, "lat": 53.5160223, "lon": 9.9856134, "tags": {"check_date:opening_hours": "2025-06-28", "diet:vegan": "yes", "name": "Black Cherry", "old_name": "Black Ferry", "opening_hours": "Mo-Fr 11:30-18:00; Sa 11:00-16:00", "shop": "convenience", "wheelchair": "no"}}, {"type": "node", "id": 635376665, "lat": 53.5133812, "lon": 9.9944027, "tags": {"addr:city": "Hamburg", "addr:housenumber": "21-23", "addr:postcode": "21107", "addr:street": "Zeidlerstra\u00dfe", "brand": "Penny", "brand:wikidata": "Q284688", "brand:wikipedia": "en:Penny (supermarket)", "check_date:opening_hours": "2025-06-28", "level": "0", "name": "Penny", "opening_hours": "Mo-Sa 07:00-22:00", "phone": "0221 20199959", "shop": "supermarket", "wheelchair": "yes", "wikimedia_commons": "File:PENNY, Zeidlerstra\u00dfe, Wilhelmsburg.jpg"}}, {"type": "node", "id": 646972116, "lat": 53.4929487, "lon": 10.0133714, "tags": {"amenity": "fast_food", "cuisine": "kebab", "name": "Furkaan Imbiss", "wheelchair": "limited"}}, {"type": "node", "id": 982639372, "lat": 53.525858, "lon": 10.0203619, "tags": {"addr:city": "Hamburg", "addr:country": "DE", "addr:housenumber": "4", "addr:postcode": "20539", "addr:street": "Veddeler Stieg", "amenity": "fast_food", "description": "Albanische Spezalit\u00e4ten", "name": "Imbiss Tetova", "phone": "+49 40 781316"}}, {"type": "node", "id": 1272066217, "lat": 53.4775326, "lon": 9.9954208, "tags": {"amenity": "fuel", "brand": "Esso", "brand:wikidata": "Q867662", "compressed_air": "no", "name": "ESSO", "opening_hours": "Mo-Fr 05:30-20:00; Sa 07:00-18:00; Su 08:30-16:30", "operator": "ESSO", "wheelchair": "limited"}}, {"type": "node", "id": 1312453359, "lat": 53.5207345, "lon": 10.0083181, "tags": {"check_date:opening_hours": "2024-05-16", "name": "ORUC", "opening_hours:signed": "no", "shop": "convenience", "wheelchair": "no"}}, {"type": "node", "id": 1638404401, "lat": 53.5227739, "lon": 10.014399, "tags": {"amenity": "fast_food", "cuisine": "turkish", "diet:vegetarian": "yes", "name": "Salli's Food Center", "opening_hours": "Su-Th 04:30-01:00, Fr,Sa 04:30-02:00", "shop": "kiosk", "wheelchair": "limited"}}, {"type": "node", "id": 1650212457, "lat": 53.5236108, "lon": 10.0157866, "tags": {"check_date:opening_hours": "2024-07-17", "name": "Hanse Markt Kotan", "opening_hours:signed": "no", "shop": "supermarket", "wheelchair": "yes"}}, {"type": "node", "id": 2446818924, "lat": 53.4978089, "lon": 10.0066006, "tags": {"addr:housenumber": "1b", "addr:postcode": "21109", "addr:street": "Wilhelm-Strau\u00df-Weg", "air_conditioning": "no", "amenity": "fast_food", "cuisine": "kebab", "diet:vegetarian": "yes", "email": "info@minadeli.de", "indoor_seating": "no", "name": "Mina", "opening_hours": "Mo-Th 08:00-23:00, Fr,Sa 08:00-24:00, Su 10:00-23:00", "outdoor_seating": "no", "takeaway": "only", "website": "https://minadeli.de/", "wheelchair": "yes"}}, {"type": "node", "id": 2698463903, "lat": 53.4848463, "lon": 10.0255172, "tags": {"amenity": "fuel", "atmotorway": "yes", "brand": "Esso", "brand:wikidata": "Q867662", "compressed_air": "yes", "fuel:adblue": "yes", "fuel:diesel": "yes", "fuel:e10": "yes", "fuel:lpg": "yes", "fuel:octane_95": "yes", "name": "Esso Hamburg-Stillhorn", "operator": "Esso", "toilets:wheelchair": "yes", "wheelchair": "yes", "wheelchair:description": "Neue Ausstattung leider schon defekt"}}, {"type": "node", "id": 3045888722, "lat": 53.5164214, "lon": 9.9931622, "tags": {"amenity": "fast_food", "check_date:opening_hours": "2023-09-26", "cuisine": "pizza", "diet:halal": "no", "diet:vegan": "no", "diet:vegetarian": "yes", "name": "Crown Pizza", "opening_hours": "Mo-Su 14:30-22:30", "opening_hours:signed": "no", "wheelchair": "no"}}, {"type": "node", "id": 3377029475, "lat": 53.529943, "lon": 9.9828552, "tags": {"amenity": "fuel", "brand": "tankpool24", "brand:wikidata": "Q126895471", "name": "tankpool24"}}, {"type": "node", "id": 3521468691, "lat": 53.5161489, "lon": 9.9898492, "tags": {"check_date:opening_hours": "2023-08-29", "name": "Tan Markt", "opening_hours:signed": "no", "shop": "convenience"}}, {"type": "node", "id": 3859604437, "lat": 53.5159458, "lon": 9.9876053, "tags": {"air_conditioning": "no", "amenity": "fast_food", "check_date": "2024-07-13", "check_date:opening_hours": "2024-05-23", "contact:phone": "+49 40 94776077", "cuisine": "burger", "diet:vegetarian": "yes", "drive_through": "no", "name": "WilliamsBurger", "opening_hours": "Mo-Th 17:00-22:00; Fr,Sa 14:00-23:00; Su 14:00-22:00", "opening_hours:signed": "no", "outdoor_seating": "yes", "payment:cards": "no", "payment:cash": "yes", "payment:credit_cards": "no", "payment:debit_cards": "no", "smoking": "no", "wheelchair": "no"}}, {"type": "node", "id": 3922601312, "lat": 53.5052636, "lon": 9.9861891, "tags": {"amenity": "fast_food", "check_date:opening_hours": "2023-12-09", "name": "Ali Baba's Kitchen", "opening_hours:signed": "no"}}, {"type": "node", "id": 4171437294, "lat": 53.5202124, "lon": 10.0107311, "tags": {"check_date:opening_hours": "2024-08-01", "name": "Ideal Market", "opening_hours": "Mo-Sa 05:00-23:00", "opening_hours:signed": "no", "post_office": "post_partner", "post_office:brand": "DHL Paketshop", "post_office:brand:wikidata": "Q489815", "post_office:service_provider": "Deutsche Post", "ref:DeutschePost": "499", "shop": "convenience", "wheelchair": "yes"}}, {"type": "node", "id": 4288759465, "lat": 53.497917, "lon": 10.009768, "tags": {"amenity": "fast_food", "check_date:opening_hours": "2023-11-25", "level": "0", "name": "Basak", "old_name": "Fidan", "opening_hours:signed": "no", "wheelchair": "yes"}}, {"type": "node", "id": 4288759763, "lat": 53.4979137, "lon": 10.0098669, "tags": {"amenity": "fast_food", "check_date:opening_hours": "2024-10-24", "level": "0", "name": "Mai Mai", "opening_hours:signed": "no", "wheelchair": "yes"}}, {"type": "node", "id": 4288764930, "lat": 53.4970123, "lon": 10.0042414, "tags": {"amenity": "fast_food", "check_date": "2024-07-13", "cuisine": "burger", "name": "Ottensener Foodkitchen", "old_name": "Mame Grill", "opening_hours": "closed"}}, {"type": "node", "id": 4558150689, "lat": 53.4849587, "lon": 10.0192357, "tags": {"amenity": "fast_food", "name": "Miss Urfa", "smoking": "outside"}}, {"type": "node", "id": 4673281892, "lat": 53.4969735, "lon": 10.0038322, "tags": {"amenity": "fast_food", "branch": "Wilhelmsburg Inselpark", "brand": "Domino's", "brand:wikidata": "Q839466", "brand:wikipedia": "en:Domino's Pizza", "check_date": "2024-07-13", "cuisine": "pizza", "delivery": "yes", "diet:vegan": "yes", "diet:vegetarian": "yes", "email": "info@dominos.de", "indoor_seating": "no", "name": "Domino's", "opening_hours": "Mo-Su 11:00-23:00", "outdoor_seating": "no", "payment:cards": "yes", "payment:cash": "yes", "phone": "+49 40 31807141", "short_name": "Domino's", "takeaway": "only", "toilets:wheelchair": "no", "wheelchair": "yes"}}, {"type": "node", "id": 4756650075, "lat": 53.5160099, "lon": 9.9876158, "tags": {"amenity": "fast_food", "check_date:opening_hours": "2025-06-13", "name": "Sucki, the taste of asia", "opening_hours:signed": "no"}}, {"type": "node", "id": 6068309852, "lat": 53.5004235, "lon": 9.9943166, "tags": {"brand": "REWE To Go", "brand:wikidata": "Q85224313", "name": "REWE To Go", "opening_hours": "24/7", "shop": "convenience", "wheelchair": "yes"}}, {"type": "node", "id": 6173259806, "lat": 53.5275511, "lon": 10.0242911, "tags": {"brand": "REWE To Go", "brand:wikidata": "Q85224313", "name": "REWE To Go", "opening_hours": "24/7", "operator": "Benjamin Rohde", "phone": "+49 40 7899840", "shop": "convenience", "website": "https://togo.rewe.de/standorte.html", "wheelchair": "yes"}}, {"type": "node", "id": 6943123257, "lat": 53.527476, "lon": 9.9838445, "tags": {"name": "Harbor Shop", "opening_hours": "Mo-Fr 12:30-21:30; Sa-Su 14:00-21:30", "shop": "convenience", "website": "https://www.harborshop.de"}}, {"type": "node", "id": 7805911992, "lat": 53.5146894, "lon": 9.9874302, "tags": {"amenity": "fast_food", "check_date:opening_hours": "2023-12-06", "cuisine": "kebab", "diet:halal": "yes", "diet:vegan": "yes", "diet:vegetarian": "yes", "name": "Tadim Urfa", "opening_hours:signed": "no"}}, {"type": "node", "id": 8931236653, "lat": 53.5151162, "lon": 9.9871037, "tags": {"addr:postcode": "21107", "amenity": "fast_food", "check_date": "2024-05-20", "check_date:opening_hours": "2024-04-19", "cuisine": "kebab", "diet:vegan": "yes", "diet:vegetarian": "yes", "drive_through": "no", "level": "0", "name": "D\u00f6ner Point", "opening_hours:signed": "no", "payment:cash": "yes", "payment:credit_cards": "yes", "payment:debit_cards": "yes", "wheelchair": "no"}}, {"type": "node", "id": 9223557491, "lat": 53.5139848, "lon": 9.9873263, "tags": {"check_date:opening_hours": "2024-08-02", "name": "\"BL Balkanische Lebensmittel\"-Markt", "opening_hours:signed": "no", "shop": "convenience"}}, {"type": "node", "id": 9223580762, "lat": 53.5137495, "lon": 9.9872835, "tags": {"amenity": "fast_food", "contact:website": "https://www.chinaservicehamburg.de/", "cuisine": "chinese", "name": "China Service & Sushi Zuhause", "opening_hours": "\"Lieferzeiten lt. Internet: Mo-Fr 11:30-15:45; 18:00-21:45; So 12:00-21:45; kein Schild vor Ort\""}}, {"type": "node", "id": 9705928085, "lat": 53.5156445, "lon": 9.9899253, "tags": {"addr:city": "Hamburg", "addr:housenumber": "39", "addr:postcode": "21107", "addr:street": "F\u00e4hrstra\u00dfe", "contact:facebook": "https://www.facebook.com/Bulgarische-Kost-Online-Shop-487058954685535/", "contact:instagram": "https://www.instagram.com/bulgarische.kost/", "delivery": "yes", "email": "info@bulgarische-kost.de", "level": "0", "name": "Bulgarische Lebensmittel", "opening_hours": "Mo-Su 10:00-20:00", "operator": "Familie Iliev", "origin": "bulgarian", "payment:cash": "yes", "phone": "+494084893397", "ref:vatin": "DE280757681", "shop": "convenience", "source": "osm notes;Website", "start_date": "2010", "website": "https://www.bulgarische-kost.de"}}, {"type": "node", "id": 9830571318, "lat": 53.5187351, "lon": 10.0223378, "tags": {"addr:city": "Hamburg", "addr:housenumber": "12", "addr:postcode": "21109", "addr:street": "Georgswerder Bogen", "amenity": "fast_food", "brand": "Burger King", "brand:wikidata": "Q177054", "cuisine": "burger", "name": "Burger King", "opening_hours": "Mo-Su 11:00-21:00", "takeaway": "yes"}}, {"type": "node", "id": 9853733641, "lat": 53.5060601, "lon": 9.9925385, "tags": {"addr:city": "Hamburg", "addr:housenumber": "104", "addr:postcode": "21107", "addr:street": "Georg-Wilhelm-Stra\u00dfe", "amenity": "fast_food", "brand": "Domino's", "brand:wikidata": "Q839466", "cuisine": "pizza", "drive_through": "no", "name": "Domino's", "opening_hours": "11:00-23:00+", "phone": "+49 40 3078770", "takeaway": "yes", "website": "https://www.dominos.de/filiale/dehh-hamburgwilhelmsburgsteinwerderhafen-33782"}}, {"type": "node", "id": 10685339421, "lat": 53.5015118, "lon": 9.9928706, "tags": {"check_date:opening_hours": "2023-09-25", "name": "Ideal Market", "opening_hours:signed": "no", "shop": "supermarket"}}, {"type": "node", "id": 10712208147, "lat": 53.4979216, "lon": 10.0091332, "tags": {"addr:city": "Hamburg", "addr:postcode": "21109", "addr:street": "Wilhelm-Strau\u00df-Weg", "amenity": "fast_food", "cuisine": "turkish", "diet:vegan": "only", "level": "0", "name": "\u00c7i\u011fk\u00f6ftem", "opening_hours": "Mo-Sa 10:00-20:00", "website": "https://cigkoftem.eu/"}}, {"type": "node", "id": 10765936556, "lat": 53.5189425, "lon": 10.0221414, "tags": {"addr:city": "Hamburg", "addr:country": "DE", "addr:housenumber": "12", "addr:postcode": "21109", "addr:street": "Georgswerder Bogen", "amenity": "fuel", "brand": "Shell", "brand:wikidata": "Q110716465", "compressed_air": "yes", "contact:fax": "+49 40 75065201", "contact:phone": "+49 40 75065200", "contact:website": "https://find.shell.com/de/fuel/10025487-hamburg-georgswerder-bogen/de_DE", "fuel:HGV_diesel": "yes", "fuel:adblue": "yes", "fuel:diesel": "yes", "fuel:e10": "yes", "fuel:octane_100": "yes", "fuel:octane_95": "yes", "name": "Autohof Georgswerder", "opening_hours": "24/7", "operator": "Autogrill Deutschland GmbH", "payment:american_express": "yes", "payment:bancomat": "yes", "payment:cash": "yes", "payment:cryptocurrencies": "no", "payment:diners_club": "yes", "payment:dkv": "yes", "payment:electronic_purses": "no", "payment:euroshell": "yes", "payment:girocard": "yes", "payment:maestro": "yes", "payment:mastercard": "yes", "payment:uta": "yes", "payment:visa": "yes", "ref": "10025487"}}, {"type": "node", "id": 10974881301, "lat": 53.5106453, "lon": 9.9869885, "tags": {"amenity": "fast_food", "check_date:opening_hours": "2023-11-15", "cuisine": "turkish", "drive_through": "no", "name": "Binboga Kebap House", "opening_hours:signed": "no", "outdoor_seating": "yes"}}, {"type": "node", "id": 11222931050, "lat": 53.497849, "lon": 10.0094827, "tags": {"amenity": "fast_food", "check_date:opening_hours": "2024-10-24", "level": "0", "name": "Antepi Ustam Baklavalari", "opening_hours:signed": "no"}}, {"type": "node", "id": 11222931052, "lat": 53.4978776, "lon": 10.008277, "tags": {"level": "0", "name": "Tokas", "opening_hours": "Mo-Sa 07:30-20:00", "shop": "supermarket"}}, {"type": "node", "id": 11222931060, "lat": 53.4979909, "lon": 10.0084809, "tags": {"addr:city": "Hamburg", "addr:housenumber": "8", "addr:postcode": "21109", "addr:street": "Wilhelm-Strau\u00df-Weg", "email": "jakothai@luna-center.de", "level": "1", "name": "JaKoThai", "opening_hours": "Mo-Sa 09:00-19:45", "phone": "+494064831208", "shop": "supermarket"}}, {"type": "node", "id": 11390010351, "lat": 53.5167034, "lon": 9.9897492, "tags": {"addr:housenumber": "74", "addr:postcode": "21107", "addr:street": "Vogelh\u00fcttendeich", "amenity": "fast_food", "brand": "Haus des D\u00f6ners", "brand:wikidata": "Q133461235", "cuisine": "kebab", "name": "Haus des D\u00f6ners", "opening_hours": "Su-Th 11:00-00:00; Fr-Sa 11:00-02:00", "phone": "040 24423507", "takeaway": "yes", "website": "https://hausdesdoners.de/"}}, {"type": "node", "id": 11737375720, "lat": 53.4982603, "lon": 10.0095817, "tags": {"addr:housenumber": "2b-10", "addr:street": "Wilhelm-Strau\u00df-Weg", "brand": "Lidl", "brand:wikidata": "Q151954", "check_date": "2024-05-20", "internet_access": "wlan", "internet_access:fee": "no", "level": "0", "name": "Lidl", "opening_hours": "Mo-Sa 07:00-21:00", "payment:alipay": "no", "payment:american_express": "yes", "payment:app": "yes", "payment:apple_pay": "yes", "payment:bancomat": "no", "payment:blik": "no", "payment:cards": "yes", "payment:cash": "yes", "payment:clipper": "no", "payment:coins": "yes", "payment:contactless": "yes", "payment:credit_cards": "yes", "payment:cryptocurrencies": "no", "payment:debit_cards": "yes", "payment:girocard": "yes", "payment:google_pay": "yes", "payment:maestro": "yes", "payment:mastercard": "yes", "payment:mastercard_contactless": "yes", "payment:paypal": "no", "payment:telephone_cards": "no", "payment:v_pay": "yes", "payment:visa": "yes", "payment:visa_debit": "yes", "shop": "supermarket", "wheelchair": "yes"}}, {"type": "node", "id": 11838396657, "lat": 53.519896, "lon": 9.9847827, "tags": {"addr:city": "Hamburg", "addr:housenumber": "7", "addr:postcode": "21107", "addr:street": "Ernst-August-Stieg", "brand": "Aldi Nord", "brand:wikidata": "Q41171373", "check_date": "2024-08-12", "check_date:opening_hours": "2024-08-12", "internet_access": "no", "level": "0", "name": "Aldi", "opening_hours": "Mo-Sa 07:00-21:00; Su off", "operator": "ALDI GmbH & Co. KG Seevetal", "organic": "yes", "payment:account_cards": "no", "payment:american_express": "yes", "payment:app": "no", "payment:apple_pay": "yes", "payment:cards": "yes", "payment:cash": "yes", "payment:cheque": "no", "payment:coins": "yes", "payment:contactless": "yes", "payment:credit_cards": "yes", "payment:cryptocurrencies": "no", "payment:debit_cards": "yes", "payment:girocard": "yes", "payment:google_pay": "yes", "payment:maestro": "yes", "payment:mastercard": "yes", "payment:mastercard_contactless": "yes", "payment:notes": "yes", "payment:paypal": "no", "payment:telephone_cards": "no", "payment:v_pay": "yes", "payment:visa": "yes", "payment:visa_debit": "yes", "second_hand": "no", "shop": "supermarket", "toilets": "no", "website": "https://www.aldi-nord.de/filialen-und-oeffnungszeiten.html/l/hamburg/ernst-august-stieg-7/3180662", "wheelchair": "yes", "wikimedia_commons": "File:ALDI Nord, Ernst-August-Stieg, Wilhelmsburg.jpg"}}, {"type": "node", "id": 11919514353, "lat": 53.4979297, "lon": 10.0088759, "tags": {"addr:housenumber": "2b-10", "addr:street": "Wilhelm-Strau\u00df-Weg", "brand": "Rewe", "brand:wikidata": "Q16968817", "check_date": "2024-07-13", "level": "0", "name": "REWE Center", "opening_hours": "Mo-Sa 07:00-22:00", "operator": "Familie Bekierz", "payment:cash": "yes", "payment:credit_cards": "yes", "payment:debit_cards": "yes", "phone": "+49 40 537998400", "shop": "supermarket", "source": "survey", "stroller": "yes", "website": "https://www.rewe.de/marktseite/hamburg-wilhelmsburg/8545503/rewe-center-wilhelm-strauss-weg-2b-10?ecid=seo_localseo_8545503_g_nn_nn_nn_nn_nn", "wheelchair": "yes"}}, {"type": "node", "id": 11988671802, "lat": 53.4986475, "lon": 10.0013975, "tags": {"addr:city": "Hamburg", "addr:housenumber": "32", "addr:postcode": "21109", "addr:street": "Dratelnstra\u00dfe", "amenity": "fast_food", "brand": "Subway", "brand:wikidata": "Q244457", "brand:wikipedia": "en:Subway (restaurant)", "contact:facebook": "https://www.facebook.com/subwaydeutschland", "contact:instagram": "https://www.instagram.com/subway_de/", "contact:twitter": "https://twitter.com/Subway_DE", "cuisine": "sandwich", "indoor_seating": "yes", "name": "Subway", "opening_hours": "Mo-Fr 10:00-22:00; Sa-Su 11:00-22:00", "outdoor_seating": "yes", "phone": "+49 40 30982713", "takeaway": "yes", "website": "https://restaurants.subway.com/de/deutschland/hh/hamburg/dratelnstra%C3%9Fe-32"}}, {"type": "node", "id": 12102454596, "lat": 53.5168114, "lon": 9.9876981, "tags": {"check_date:opening_hours": "2025-05-08", "name": "Frischemarkt Kaya", "opening_hours": "Mo-Sa 08:00-21:00", "phone": "+49 40 758969", "shop": "convenience", "website": "https://www.edeka.de/eh/nord/frischemarkt-kaya-veringstra%C3%9Fe-18/index.jsp"}}, {"type": "node", "id": 12212058014, "lat": 53.5018945, "lon": 10.0088035, "tags": {"amenity": "fast_food", "name": "D\u00f6ner Center", "opening_hours": "Su-Th 08:00-23:00, Fr,Sa 08:00-24:00"}}, {"type": "node", "id": 12438843885, "lat": 53.5011331, "lon": 10.0088237, "tags": {"amenity": "fast_food", "check_date:opening_hours": "2024-12-21", "name": "Sharri", "opening_hours:signed": "no"}}, {"type": "node", "id": 12786265797, "lat": 53.4837538, "lon": 10.0267726, "tags": {"amenity": "fast_food", "brand": "Nordsee", "brand:wikidata": "Q74866", "cuisine": "seafood", "name": "Nordsee", "takeaway": "yes"}}, {"type": "node", "id": 12868363644, "lat": 53.4849579, "lon": 10.0190986, "tags": {"name": "G\u00fcla\u00e7 Markt", "shop": "convenience"}}, {"type": "node", "id": 12868363645, "lat": 53.4851569, "lon": 10.018874, "tags": {"amenity": "fast_food", "brand": "Smiley's", "brand:wikidata": "Q60998945", "cuisine": "pizza", "name": "Smiley's", "takeaway": "yes", "website": "https://content.smileys.de/bestellen/Hamburg-Wilhelmsburg/"}}, {"type": "way", "id": 23597092, "center": {"lat": 53.5012557, "lon": 9.9928029}, "nodes": [255545202, 8617918046, 255545203, 255545204, 255545205, 255545206, 8617918051, 255545207, 255545208, 255545209, 8617918050, 255545202], "tags": {"addr:housenumber": "16", "addr:street": "Reinstorfweg", "brand": "Lidl", "brand:wikidata": "Q151954", "brand:wikipedia": "en:Lidl", "building": "retail", "building:levels": "1", "name": "Lidl", "opening_hours": "Mo-Sa 07:00-21:00", "organic": "yes", "second_hand": "no", "shop": "supermarket", "toilets": "no", "wheelchair": "yes", "wikimedia_commons": "File:Lidl Mengestra\u00dfe.jpg"}}, {"type": "way", "id": 50668954, "center": {"lat": 53.4967351, "lon": 10.0117427}, "nodes": [645221035, 9558880577, 9558880578, 9558880579, 9558880580, 9558880581, 9558880582, 9558880583, 645221040, 645221045, 645221031, 645221035], "tags": {"addr:city": "Hamburg", "addr:country": "DE", "addr:housenumber": "2", "addr:postcode": "21109", "addr:street": "Algermissenstra\u00dfe", "branch": "Elbinsel", "brand": "Penny", "brand:wikidata": "Q284688", "building": "supermarket", "check_date:opening_hours": "2025-01-11", "name": "PENNY", "opening_hours": "Mo-Sa 07:00-22:00; PH off", "payment:american_express": "yes", "payment:cash": "yes", "payment:maestro": "yes", "payment:mastercard": "yes", "payment:payback_app": "yes", "payment:visa": "yes", "phone": "+49 221 20199959", "shop": "supermarket", "website": "https://www.penny.de/markt/hamburg/530311/penny-elbinsel-algermissenstr-2", "wheelchair": "yes"}}, {"type": "way", "id": 50741202, "center": {"lat": 53.5006708, "lon": 9.9998996}, "nodes": [646931436, 646931437, 2118992259, 6448504760, 2118992263, 2118992273, 2118992271, 646931439, 646931440, 646931436], "tags": {"addr:city": "Hamburg", "addr:housenumber": "25", "addr:postcode": "21109", "addr:street": "Dratelnstra\u00dfe", "brand": "Aldi Nord", "brand:wikidata": "Q41171373", "brand:wikipedia": "en:Aldi", "building": "supermarket", "check_date:opening_hours": "2025-03-13", "contact:website": "https://www.aldi-nord.de/tools/filialen-und-oeffnungszeiten/hamburg/wilhelmsburg/dratelnstrasse-23-25.html", "name": "Aldi", "opening_hours": "Mo-Sa 07:00-21:00; PH off", "operator": "ALDI GmbH & Co. KG Seevetal", "organic": "yes", "phone": "+49 800 7234870", "shop": "supermarket", "website": "https://www.aldi-nord.de/filialen-und-oeffnungszeiten.html/l/hamburg/dratelnstrasse-23-25/3180488", "wheelchair": "yes"}}, {"type": "way", "id": 50741203, "center": {"lat": 53.4997438, "lon": 9.9997704}, "nodes": [646931442, 646931443, 646931444, 6448505491, 646931446, 6448505486, 6448505498, 6448505497, 6448505496, 6448505499, 6448505500, 6448505494, 6448505495, 6448505501, 646931442], "tags": {"addr:city": "Hamburg", "addr:country": "DE", "addr:housenumber": "31a", "addr:postcode": "21109", "addr:street": "Dratelnstra\u00dfe", "amenity": "fast_food", "brand": "McDonald's", "brand:wikidata": "Q38076", "brand:wikipedia": "en:McDonald's", "building": "retail", "building:levels": "1", "cuisine": "burger", "delivery": "yes", "diet:vegetarian": "yes", "drive_through": "yes", "internet_access": "wlan", "internet_access:fee": "no", "name": "McDonald's", "opening_hours": "Su-Th 07:00-01:00, Fr,Sa 07:00-02:00", "operator": "Amend Restaurantbetrieb Dratelnstra\u00dfe GmbH & Co. KG", "outdoor_seating": "yes", "payment:cash": "yes", "payment:cryptocurrencies": "no", "payment:electronic_purses": "no", "payment:girocard": "yes", "phone": "+49 40 68873372", "roof:levels": "1", "smoking": "outside", "socket": "yes", "takeaway": "yes", "website": "https://www.mcdonalds.com/de/de-de/restaurant-suche.html/l/hamburg/dratelnstrasse-31a/1097", "wheelchair": "yes"}}, {"type": "way", "id": 50752653, "center": {"lat": 53.4900153, "lon": 10.0189541}, "nodes": [647023671, 647023674, 11034495008, 12840025092, 647023678, 12840025094, 12840025095, 11034495010, 647023685, 647023690, 647023671], "tags": {"amenity": "fuel", "brand": "Aral", "brand:wikidata": "Q565734", "brand:wikipedia": "en:Aral AG", "fuel:GTL_diesel": "yes", "fuel:diesel": "yes", "fuel:e10": "yes", "fuel:octane_95": "yes", "landuse": "retail", "name": "Aral", "payment:dkv": "yes", "payment:uta": "yes", "wheelchair": "yes"}}, {"type": "way", "id": 99420031, "center": {"lat": 53.5172713, "lon": 9.9872924}, "nodes": [1149796601, 1611785416, 1149798313, 1611785417, 1149797921, 1611785418, 1149798894, 1611785419, 1149798444, 1611785425, 1149797022, 1611785428, 1149798052, 1611785366, 1611785367, 1149799046, 1813931903, 1813931908, 1813931937, 1149796601], "tags": {"addr:city": "Hamburg", "addr:housenumber": "19", "addr:postcode": "21107", "addr:street": "Veringstra\u00dfe", "amenity": "fast_food", "building": "retail", "building:levels": "1", "check_date:opening_hours": "2024-01-31", "cuisine": "turkish", "diet:vegetarian": "yes", "drive_through": "no", "email": "Pauseimbisswilhelmsburg@gmail.com", "name": "PAUSE EMIN\u00d6M\u00dc", "opening_hours": "PH,Mo-Su 00:00-24:00", "opening_hours:signed": "no", "outdoor_seating": "yes", "phone": "+494079300771", "roof:shape": "flat", "website": "https://pauseimbisswilhelmsburg.eatbu.com/?lang=de#times", "wheelchair": "yes"}}, {"type": "way", "id": 164605706, "center": {"lat": 53.5180076, "lon": 9.9999363}, "nodes": [1762217429, 1762217427, 1762217425, 1762217431, 9441897968, 9441897969, 1762217429], "tags": {"addr:city": "Hamburg", "addr:housenumber": "20", "addr:postcode": "21107", "addr:street": "Schlenzigstra\u00dfe", "amenity": "fast_food", "building": "retail", "building:colour": "red", "building:levels": "1", "building:material": "metal", "cuisine": "regional", "drive_through": "no", "email": "info@veddel-diner.de", "name": "Veddel Diner", "opening_hours": "Mo-Fr 08:00-17:00", "phone": "+49 40 26 10 57 18", "roof:material": "metal", "roof:shape": "flat", "website": "https://veddel-diner.de/Startseite/"}}, {"type": "way", "id": 201884021, "center": {"lat": 53.5006093, "lon": 9.9991271}, "nodes": [2118992198, 6448504763, 4379753553, 6448504772, 6448504773, 4379753555, 2118992223, 2118992194, 2118992188, 2118992198], "tags": {"addr:city": "Hamburg", "addr:country": "DE", "addr:housenumber": "27", "addr:postcode": "21109", "addr:street": "Dratelnstra\u00dfe", "brand": "Netto Marken-Discount", "brand:wikidata": "Q879858", "brand:wikipedia": "de:Netto Marken-Discount", "building": "supermarket", "check_date:opening_hours": "2024-05-16", "name": "Netto Marken-Discount", "opening_hours": "Mo-Sa 07:00-22:00; PH off", "shop": "supermarket", "website": "https://www.netto-online.de/filialen/hamburg/dratelnstr-27/2124", "wheelchair": "yes"}}, {"type": "way", "id": 203125117, "center": {"lat": 53.5275289, "lon": 10.0215568}, "nodes": [2130960762, 5421074349, 5421074348, 5421074350, 4379754693, 5421074352, 5421074351, 2130960760, 2130960756, 2130960757, 2130960758, 2130960759, 2130960762], "tags": {"addr:city": "Hamburg", "addr:country": "DE", "addr:housenumber": "11", "addr:postcode": "20539", "addr:street": "Sieldeich", "brand": "Penny", "brand:wikidata": "Q284688", "building": "retail", "building:levels": "1", "check_date:opening_hours": "2024-07-16", "name": "PENNY", "name:fa": "\u067e\u0646\u06cc", "opening_hours": "Mo-Sa 07:00-22:00", "shop": "supermarket", "wheelchair": "yes"}}, {"type": "way", "id": 221203273, "center": {"lat": 53.5130987, "lon": 9.9860164}, "nodes": [2302578457, 5964400422, 5964400423, 5964400424, 5964400425, 5964400426, 5964400427, 5964400428, 5964400429, 5964400430, 5964400431, 5964400432, 5964400433, 12903796833, 5964400434, 5964400435, 2302578458, 2302578457], "tags": {"addr:city": "Hamburg", "addr:country": "DE", "addr:housenumber": "8", "addr:postcode": "21107", "addr:street": "Am Veringhof", "brand": "Edeka", "brand:wikidata": "Q701755", "building": "supermarket", "building:levels": "1", "check_date:opening_hours": "2024-11-11", "currency:EUR": "yes", "diet:halal": "yes", "diet:vegan": "yes", "diet:vegetarian": "yes", "name": "EDEKA", "opening_hours": "Mo-Sa 08:00-21:00; PH closed", "roof:shape": "round", "second_hand": "no", "shop": "supermarket", "stroller": "yes", "toilets": "yes", "wheelchair": "yes", "wikimedia_commons": "File:EDEKA Ziegler, Am Veringhof, Wilhelmsburg.jpg"}}, {"type": "way", "id": 221203274, "center": {"lat": 53.5119897, "lon": 9.9859679}, "nodes": [2302578452, 2302578450, 2302578449, 2302578451, 2302578452], "tags": {"addr:city": "Hamburg", "addr:country": "DE", "addr:housenumber": "6", "addr:postcode": "21107", "addr:street": "Am Veringhof", "brand": "Lidl", "brand:wikidata": "Q151954", "brand:wikipedia": "en:Lidl", "building": "retail", "building:levels": "1", "check_date": "2024-10-24", "check_date:opening_hours": "2024-10-24", "internet_access": "wlan", "internet_access:fee": "no", "name": "Lidl", "opening_hours": "Mo-Sa 07:00-21:00", "payment:cash": "yes", "payment:credit_cards": "yes", "payment:debit_cards": "yes", "roof:shape": "flat", "shop": "supermarket", "wheelchair": "yes", "wikimedia_commons": "File:LIDL, Am Veringhof, Wilhelmsburg.jpg"}}, {"type": "way", "id": 222431232, "center": {"lat": 53.4847537, "lon": 10.0204638}, "nodes": [2314020687, 2314020681, 2314020665, 2314020661, 2314020608, 3394907436, 3394907435, 2314020601, 2314020687], "tags": {"brand": "Penny", "brand:wikidata": "Q284688", "brand:wikipedia": "en:Penny (supermarket)", "building": "retail", "check_date": "2023-02-17", "name": "PENNY", "opening_hours": "Mo-Sa 07:00-22:00; Su,PH off", "payment:girocard": "yes", "payment:maestro": "yes", "payment:mastercard": "yes", "payment:visa": "yes", "shop": "supermarket", "wheelchair": "yes"}}, {"type": "way", "id": 255128211, "center": {"lat": 53.494089, "lon": 9.9842862}, "nodes": [2608698745, 2608698760, 2608698752, 2608698757, 2608698754, 2608698755, 2608698750, 2608698744, 2608698749, 2608698747, 2608698733, 2608698721, 2608698736, 2608698729, 2608698731, 2608698734, 2608698738, 2608698742, 2608698745], "tags": {"building": "yes", "name": "Aurora M\u00fchlenladen", "opening_hours": "Mo-Fr 09:00-13:00", "shop": "convenience"}}, {"type": "way", "id": 449187971, "center": {"lat": 53.4810516, "lon": 9.9920359}, "nodes": [4461541402, 9064253765, 4461541401, 1833871810, 1833871818, 1833871819, 9064253767, 4461541403, 4461541402], "tags": {"amenity": "fuel", "brand": "Hoyer", "brand:wikidata": "Q1606119", "compressed_air": "yes", "fuel:adblue": "yes", "fuel:diesel": "yes", "fuel:e10": "yes", "fuel:lpg": "yes", "fuel:octane_95": "yes", "fuel:octane_98": "yes", "fuel:propane": "yes", "landuse": "retail", "name": "Hoyer Tank-Treff Hamburg-Wilhelmsburg", "opening_hours": "24/7", "operator": "Hoyer", "payment:dkv": "yes", "phone": "+49 40 756 600 00", "wheelchair": "no"}}, {"type": "way", "id": 590423604, "center": {"lat": 53.5275208, "lon": 10.0244494}, "nodes": [6173259268, 6413409121, 278562533, 278562534, 3145147285, 6173259271, 3145147275, 6173259272, 5637093483, 6173259277, 6173259278, 6173259276, 6173259275, 6173259274, 6173259273, 6173259268], "tags": {"amenity": "fuel", "brand": "Aral", "brand:wikidata": "Q565734", "brand:wikipedia": "en:Aral AG", "compressed_air": "yes", "fax": "+49 40 783723", "fuel:diesel": "yes", "fuel:e10": "yes", "fuel:octane_95": "yes", "landuse": "retail", "name": "Aral", "opening_hours": "24/7", "operator": "Benjamin Rohde", "phone": "+49 40 7899840", "website": "https://tankstelle.aral.de/tankstelle/hamburg/peutestrasse-2/13011300/", "wheelchair": "yes"}}, {"type": "way", "id": 808821182, "center": {"lat": 53.5004001, "lon": 9.9941859}, "nodes": [7563194767, 11933658648, 7563194766, 7563194765, 643803680, 2159952645, 2159952647, 7563194767], "tags": {"amenity": "fuel", "brand": "Aral", "brand:wikidata": "Q565734", "compressed_air": "yes", "fuel:GTL_diesel": "yes", "fuel:HGV_diesel": "yes", "fuel:diesel": "yes", "fuel:e10": "yes", "fuel:octane_102": "yes", "fuel:octane_95": "yes", "name": "Aral", "opening_hours": "24/7", "wheelchair": "limited"}}, {"type": "way", "id": 935967035, "center": {"lat": 53.4943466, "lon": 9.9902345}, "nodes": [8673016118, 8673016117, 1704858650, 8672939215, 1704858635, 1704858634, 1704858630, 1704858627, 8673016118], "tags": {"amenity": "fuel", "brand": "Nordoel", "brand:wikidata": "Q1759888", "check_date:opening_hours": "2022-04-28", "compressed_air": "yes", "fuel:cng": "no", "fuel:diesel": "yes", "fuel:e10": "yes", "fuel:lpg": "yes", "mapillary": "949862102437028", "name": "Nordoel", "opening_hours": "Mo-Fr 05:00-22:00; Sa 07:00-20:00; Su 08:00-20:00", "survey:date": "2021-05-30", "wheelchair": "yes"}}, {"type": "way", "id": 945758037, "center": {"lat": 53.5107854, "lon": 9.984597}, "nodes": [1614312610, 1614312634, 1614312612, 1614312609, 8755513768, 8755513767, 1614312610], "tags": {"addr:city": "Hamburg", "addr:country": "DE", "addr:housenumber": "28", "addr:postcode": "21107", "addr:street": "Neuh\u00f6fer Stra\u00dfe", "amenity": "fuel", "brand": "TotalEnergies", "brand:wikidata": "Q154037", "brand:wikipedia": "fr:Total (entreprise)", "check_date": "2025-02-25", "check_date:opening_hours": "2024-10-17", "compressed_air": "yes", "contact:fax": "+49 40 7528380", "contact:phone": "+49 40 7532295", "contact:website": "https://store.totalenergies.de/de_DE/ND003855", "landuse": "retail", "name": "Total", "opening_hours": "Mo-Fr 05:00-22:00; Sa-Su,PH 08:00-20:00", "payment:dkv": "yes", "tenant": "Hamdi Sahin"}}, {"type": "way", "id": 1017799221, "center": {"lat": 53.5154479, "lon": 9.9895285}, "nodes": [9387932236, 9387932235, 9387932241, 9387932242, 1428045788, 1428045847, 5592398867, 9387932236], "tags": {"check_date:opening_hours": "2024-05-23", "indoor": "room", "level": "0", "name": "Tropical-Shop", "opening_hours:signed": "no", "room": "shop", "shop": "convenience"}}, {"type": "way", "id": 1019987926, "center": {"lat": 53.5261902, "lon": 10.0105465}, "nodes": [9407436325, 9407436321, 9407436324, 9407436323, 9407436322, 9407436325], "tags": {"addr:city": "Hamburg", "addr:country": "DE", "addr:postcode": "20457", "addr:street": "Dessauer Stra\u00dfe", "amenity": "fast_food", "building": "yes", "changing_table": "no", "name": "Zum l\u00fctten Foffteiner", "opening_hours": "Mo-Fr 08:00-16:00", "takeaway": "yes", "toilets:access": "private", "toilets:wheelchair": "no", "wheelchair": "no"}}, {"type": "way", "id": 1026795612, "center": {"lat": 53.519754, "lon": 10.0003591}, "nodes": [9466782812, 364167681, 9466782811, 9466782810, 9466782809, 9466782808, 9466782812], "tags": {"amenity": "fuel", "brand": "JET", "brand:wikidata": "Q568940", "check_date": "2024-03-01", "compressed_air": "yes", "contact:fax": "+49 40 31761818", "contact:phone": "+49 40 31761870", "contact:website": "https://www.jet-tankstellen.de/tankstellen/hamburg/schlenzigstrasse-1/", "fuel:diesel": "yes", "fuel:e10": "yes", "fuel:octane_95": "yes", "fuel:octane_98": "yes", "name": "JET", "opening_hours": "24/7", "payment:dkv": "yes", "tenant": "Murat Akpinar", "wheelchair": "yes"}}]