[{"type": "node", "id": 253029096, "lat": 53.5761024, "lon": 9.8133718, "tags": {"addr:city": "Hamburg", "addr:country": "DE", "addr:housenumber": "19", "addr:postcode": "22589", "addr:street": "Heidrehmen", "brand": "EDEKA", "brand:wikidata": "Q701755", "contact:phone": "+49 40 872964", "contact:website": "https://www.edeka.de/eh/nord/frischemarkt-eisenmann-frommholz-heidrehmen-19/index.jsp", "name": "Edeka", "opening_hours": "Mo- Fr 07:00-13:00, 14:30-18:00; Sa 07:00-13:00; PH off", "shop": "supermarket", "wheelchair": "limited"}}, {"type": "node", "id": 266565881, "lat": 53.5745714, "lon": 9.8465383, "tags": {"addr:city": "Hamburg", "addr:country": "DE", "addr:housenumber": "11", "addr:postcode": "22549", "addr:street": "Rugenbarg", "brand": "denn's Biomarkt", "brand:wikidata": "Q48883773", "contact:phone": "+49 40 86646760", "contact:website": "https://www.biomarkt.de/hamburg-rugenbarg-11/marktseite", "name": "denn's Biomarkt", "opening_hours": "Mo-Sa 08:00-20:00", "organic": "only", "shop": "supermarket", "wheelchair": "yes"}}, {"type": "node", "id": 530902741, "lat": 53.5646119, "lon": 9.814366, "tags": {"addr:city": "Hamburg", "addr:country": "DE", "addr:housenumber": "2b", "addr:postcode": "22587", "addr:street": "S\u00fclldorfer Kirchenweg", "brand": "Rewe", "brand:wikidata": "Q16968817", "brand:wikipedia": "de:Rewe", "check_date": "2025-05-10", "contact:phone": "+49 40 28668991", "contact:website": "https://www.rewe.de/marktseite/hamburg/540956/rewe-markt-suelldorfer-kirchenweg-2-b/", "name": "REWE", "opening_hours": "Mo-Sa 07:00-22:00; PH off", "shop": "supermarket", "wheelchair": "yes"}}, {"type": "node", "id": 698328368, "lat": 53.5728874, "lon": 9.8423376, "tags": {"amenity": "fast_food", "cuisine": "pizza", "name": "Robby's Pizza Drive", "opening_hours": "Mo-Th 11:30-22:30; Fr-Su 11:30-23:30", "url": "http://www.robbys-pizza-drive-hamburg.de/", "wheelchair": "limited"}}, {"type": "node", "id": 732715961, "lat": 53.5756057, "lon": 9.84267, "tags": {"amenity": "fuel", "automated": "yes", "compressed_air": "yes", "fuel:cng": "no", "fuel:lpg": "yes", "name": "J. Wenk's Automobil-Service", "opening_hours": "Mo-Th 07:30-18:00, Fr 07:30-14:30"}}, {"type": "node", "id": 1079100520, "lat": 53.5598753, "lon": 9.8115511, "tags": {"addr:city": "Hamburg", "addr:country": "DE", "addr:housenumber": "17", "addr:postcode": "22587", "addr:street": "Blankeneser Bahnhofstra\u00dfe", "brand": "Edeka", "brand:wikidata": "Q701755", "brand:wikipedia": "de:Edeka", "check_date": "2022-01-15", "check_date:opening_hours": "2023-08-03", "contact:phone": "+49 40 86664420", "contact:website": "https://www.edeka.de/eh/nord/feinkost-kr%C3%B6ger-blankeneser-bahnhofstr.-17/index.jsp", "name": "EDEKA", "opening_hours": "Mo-Fr 08:00-20:00; Sa 08:00-18:00; PH off", "shop": "supermarket", "wheelchair": "limited"}}, {"type": "node", "id": 1256749974, "lat": 53.5560344, "lon": 9.8045995, "tags": {"amenity": "fast_food", "name": "Fischbude Op'n Bulln", "takeaway": "only"}}, {"type": "node", "id": 1811289832, "lat": 53.5763773, "lon": 9.8201785, "tags": {"addr:city": "Hamburg", "addr:country": "DE", "addr:housenumber": "13", "addr:postcode": "22589", "addr:street": "S\u00fclldorfer Landstra\u00dfe", "check_date": "2023-12-29", "contact:phone": "+49 40 86693540", "contact:website": "https://www.erdkorn.de/filialen/erdkorn-hamburg-iserbrook/", "name": "Erdkorn", "opening_hours": "Mo-Fr 09:00-19:00; Sa 09:00-16:00; PH off", "organic": "only", "shop": "supermarket", "wheelchair": "yes", "wheelchair:description": "Zugang vom P-Platz ohne Stufen, Keine Stufen im Markt"}}, {"type": "node", "id": 1923916812, "lat": 53.574226, "lon": 9.846977, "tags": {"addr:city": "Hamburg", "addr:housenumber": "12a", "addr:postcode": "22549", "addr:street": "Rugenbarg", "description": "Obst, Gem\u00fcse und t\u00fcrkische Spezialit\u00e4ten", "name": "Fruchthaus Osdorf", "opening_hours": "Mo-Fr 07:30-19:00; Sa 07:30-18:00; PH off", "phone": "+49 40 86629082", "shop": "convenience", "wheelchair": "no"}}, {"type": "node", "id": 2172366285, "lat": 53.5589864, "lon": 9.8126602, "tags": {"brand": "Rewe", "brand:wikidata": "Q16968817", "brand:wikipedia": "de:Rewe", "check_date:opening_hours": "2023-07-29", "name": "REWE City", "opening_hours": "Mo-Sa 07:00-22:00", "shop": "supermarket"}}, {"type": "node", "id": 4530908845, "lat": 53.5724068, "lon": 9.853928, "tags": {"addr:city": "Hamburg", "addr:country": "DE", "addr:housenumber": "170-172", "addr:postcode": "22549", "addr:street": "Osdorfer Landstra\u00dfe", "amenity": "fuel", "brand": "JET", "brand:wikidata": "Q568940", "brand:wikipedia": "en:Jet (brand)", "compressed_air": "yes", "contact:phone": "+49 40 80783892", "contact:website": "https://www.jet-tankstellen.de/kraftstoff/filialfinder/XJ00590/", "fuel:GTL_diesel": "no", "fuel:diesel": "yes", "fuel:e10": "yes", "fuel:octane_95": "yes", "fuel:octane_98": "yes", "name": "JET", "opening_hours": "24/7", "operator": "JET Tankstellen Deutschland GmbH", "payment:cash": "yes", "payment:cryptocurrencies": "no", "payment:dkv": "yes", "payment:girocard": "yes", "payment:maestro": "yes", "payment:mastercard": "yes", "payment:uta": "yes", "payment:visa": "yes", "shop": "yes", "tenant": "Davoud Ghanbari", "wheelchair": "yes"}}, {"type": "node", "id": 9984728557, "lat": 53.5658416, "lon": 9.7986863, "tags": {"addr:city": "Hamburg", "addr:housenumber": "81", "addr:postcode": "22587", "addr:street": "Blankeneser Landstra\u00dfe", "description": "Feinkost-Spezialit\u00e4ten, B\u00e4ckerei, Wein und Spirituosen", "name": "Feinkost Ahrend", "opening_hours": "Mo-Fr 08:30-13:00 15:00-18:00, Sa 8:00 - 13:00", "phone": "+49 40 860772", "shop": "supermarket", "website": "https://feinkost-ahrend.de/"}}, {"type": "node", "id": 11158842231, "lat": 53.563695, "lon": 9.8129562, "tags": {"addr:city": "Hamburg", "addr:housenumber": "27", "addr:place": "Erik-Blumenfeld-Platz", "addr:postcode": "22587", "amenity": "fast_food", "name": "Frisch Verliebt", "opening_hours": "Mo-Th 11:30-15:00"}}, {"type": "node", "id": 11314065570, "lat": 53.5611784, "lon": 9.8424471, "tags": {"level": "0", "name": "HBB Store", "opening_hours": "Mo-Fr 06:00-20:00; Sa 08:00-18:00; Su off", "payment:credit_cards": "no", "payment:debit_cards": "yes", "shop": "convenience", "wheelchair": "yes"}}, {"type": "node", "id": 11902267330, "lat": 53.5664173, "lon": 9.7963567, "tags": {"amenity": "fuel", "brand": "Shell", "brand:wikidata": "Q110716465", "compressed_air": "yes", "fuel:GTL_diesel": "yes", "fuel:diesel": "yes", "fuel:e10": "yes", "fuel:octane_100": "yes", "fuel:octane_95": "yes", "mapillary": "2898416987143861", "name": "Shell", "opening_hours": "Mo-Sa 06:00-22:00; Su 08:00-22:00", "phone": "+49 40 862107", "website": "https://find.shell.com/de/fuel/10024030-hamburg-rissener-landstr/de_DE"}}, {"type": "node", "id": 12005735163, "lat": 53.5778316, "lon": 9.8096363, "tags": {"brand": "REWE To Go", "brand:wikidata": "Q85224313", "name": "REWE To Go", "opening_hours": "24/7", "shop": "convenience"}}, {"type": "way", "id": 33872286, "center": {"lat": 53.5734669, "lon": 9.8462348}, "nodes": [388075101, 6708039918, 388075103, 1016735979, 1016735050, 1016735835, 388075114, 388075104, 388075105, 388075106, 388075107, 388075108, 388075109, 1016735661, 1016735958, 1016734730, 1016735138, 388075101], "tags": {"addr:city": "Hamburg", "addr:housenumber": "7", "addr:postcode": "22549", "addr:street": "Rugenbarg", "brand": "REWE", "brand:wikidata": "Q16968817", "brand:wikipedia": "en:REWE", "building": "retail", "building:levels": "1", "check_date:opening_hours": "2024-05-08", "name": "REWE", "opening_hours": "Mo-Sa 07:00-22:00", "operator": "REWE Markt GmbH", "phone": "+49 40 80781521", "roof:levels": "2", "roof:shape": "half-hipped", "shop": "supermarket", "website": "https://www.rewe.de/marktseite/hamburg/540725/rewe-markt-rugenbarg-7/", "wheelchair": "yes"}}, {"type": "way", "id": 50018370, "center": {"lat": 53.5726889, "lon": 9.8512478}, "nodes": [635356205, 635356209, 635356211, 635356214, 635356205], "tags": {"addr:city": "Hamburg", "addr:housenumber": "196", "addr:postcode": "22549", "addr:street": "Osdorfer Landstra\u00dfe", "air_conditioning": "no", "amenity": "fast_food", "brand": "Smiley's", "brand:wikidata": "Q60998945", "building": "yes", "cuisine": "pizza", "diet:vegan": "yes", "diet:vegetarian": "yes", "drive_through": "no", "indoor_seating": "no", "name": "Smiley's Pizza Profis Wedel", "opening_hours": "Mo-Su 11:00-23:00", "operator": "Smiley's Pizza Profis", "outdoor_seating": "no", "phone": "040 8708910", "takeaway": "only", "website": "https://www.smileys.de/bestellen/Hamburg-Blankenese", "wheelchair": "no"}}, {"type": "way", "id": 155167744, "center": {"lat": 53.5757302, "lon": 9.8245449}, "nodes": [353943106, 6986417878, 6986417879, 6986417880, 6986417881, 6986417882, 6986417883, 6986417874, 6986417875, 6986417876, 6986417877, 6986417884, 6986425585, 6986425586, 6986425587, 6986417871, 829901381, 353943101, 569460167, 829901077, 353943104, 353943106], "tags": {"addr:city": "Hamburg", "addr:housenumber": "403", "addr:postcode": "22589", "addr:street": "Osdorfer Landstra\u00dfe", "brand": "Lidl", "brand:wikidata": "Q151954", "building": "supermarket", "name": "Lidl", "opening_hours": "Mo-Sa 07:00-21:00; PH closed", "shop": "supermarket", "wheelchair": "yes"}}, {"type": "way", "id": 892417913, "center": {"lat": 53.577894, "lon": 9.8095162}, "nodes": [5462690721, 8294411254, 8294411253, 832461276, 5462690725, 5462690721], "tags": {"amenity": "fuel", "brand": "Aral", "brand:wikidata": "Q565734", "compressed_air": "yes", "fuel:1_25": "no", "fuel:1_50": "no", "fuel:GTL_diesel": "yes", "fuel:HGV_diesel": "no", "fuel:biodiesel": "no", "fuel:biogas": "no", "fuel:cng": "no", "fuel:diesel": "yes", "fuel:e10": "yes", "fuel:e85": "no", "fuel:electricity": "no", "fuel:lpg": "no", "fuel:octane_100": "no", "fuel:octane_102": "yes", "fuel:octane_91": "no", "fuel:octane_95": "yes", "fuel:octane_98": "no", "landuse": "retail", "name": "Aral", "opening_hours": "24/7", "operator": "Daniela Lameyer", "phone": "+49 40 873813", "website": "https://www.aral.de/tankstelle/hamburg/suelldorfer_landstrasse/28133300.html", "wheelchair": "yes"}}, {"type": "way", "id": 1343072806, "center": {"lat": 53.5640413, "lon": 9.8142115}, "nodes": [537530608, 12426932901, 12426710900, 12426932904, 12426932902, 11162872776, 537530608], "tags": {"amenity": "fast_food", "diet:vegan": "no", "diet:vegetarian": "yes", "indoor": "room", "indoor_seating": "yes", "name": "Blankeneser Imbiss", "opening_hours": "Mo-Fr 06:30-22:00; Sa-Su 11:00-22:00", "outdoor_seating": "no", "smoking": "no", "wheelchair": "yes"}}]