[{"type": "node", "id": 1213558455, "lat": 53.4741819, "lon": 9.8758545, "tags": {"brand": "Rewe", "brand:wikidata": "Q16968817", "brand:wikipedia": "en:REWE", "name": "Rewe", "opening_hours": "Mo-Sa 07:00-22:00", "shop": "supermarket", "wheelchair": "yes"}}, {"type": "node", "id": 1873431670, "lat": 53.4800631, "lon": 9.8748493, "tags": {"amenity": "fast_food", "cuisine": "kebab", "name": "Dream D\u00f6ner", "toilets:wheelchair": "no", "wheelchair": "yes"}}, {"type": "node", "id": 6775289706, "lat": 53.4749076, "lon": 9.8757144, "tags": {"addr:city": "Hamburg", "addr:housenumber": "30C", "addr:postcode": "21147", "addr:street": "Rehrstieg", "amenity": "fast_food", "cuisine": "kebab", "name": "Ach Der Deniz"}}, {"type": "node", "id": 9941726656, "lat": 53.4722383, "lon": 9.8860274, "tags": {"amenity": "fast_food", "cuisine": "pizza;burger", "delivery": "yes", "diet:halal": "yes", "name": "Der Holl\u00e4nder", "opening_hours": "Tu-Th 11:30-21:55; Fr 15:30-22:55; Sa 14:00-22:55; Su 12:00-21:30; Mo off", "takeaway": "yes", "wheelchair": "yes"}}, {"type": "way", "id": 4848520, "center": {"lat": 53.4777161, "lon": 9.8845124}, "nodes": [31249107, 2397632144, 5934016314, 4407776065, 31249106, 31249109, 5934608844, 2055896902, 4407776061, 31249108, 2397632134, 31249107], "tags": {"addr:city": "Hamburg", "addr:country": "DE", "addr:housenumber": "34", "addr:postcode": "21147", "addr:street": "Hardauring", "brand": "REWE", "brand:wikidata": "Q16968817", "brand:wikipedia": "de:Rewe", "building": "supermarket", "construction_year": "2012", "name": "REWE", "opening_hours": "Mo-Sa 06:00-23:00; Su,PH off", "operator": "REWE Markt GmbH", "shop": "supermarket", "wheelchair": "yes"}}, {"type": "way", "id": 92922259, "center": {"lat": 53.4723307, "lon": 9.8874974}, "nodes": [1077309577, 1077309730, 1077309606, 1077309667, 1077309558, 1077309648, 1077309529, 1077309612, 1077309708, 12559616936, 1077309577], "tags": {"addr:city": "Hamburg", "addr:country": "DE", "addr:housenumber": "152", "addr:postcode": "21149", "addr:street": "Cuxhavener Stra\u00dfe", "amenity": "fast_food", "building": "yes", "check_date:opening_hours": "2023-05-08", "cuisine": "pizza", "name": "Mundfein", "opening_hours": "Mo-Th 11:00-22:30; Fr-Su 11:00-23:00", "phone": "+49-40-79752777", "website": "https://www.mundfein.de/"}}, {"type": "way", "id": 93021093, "center": {"lat": 53.4733354, "lon": 9.880818}, "nodes": [1078360572, 1078360637, 1078360608, 1078360655, 1078360590, 1078360635, 1078360572], "tags": {"addr:city": "Hamburg", "addr:housenumber": "29", "addr:postcode": "21147", "addr:street": "Striepenweg", "brand": "Penny", "brand:wikidata": "Q284688", "building": "retail", "building:levels": "3", "name": "Penny", "opening_hours": "Mo-Sa 07:00-21:00", "operator": "REWE Markt GmbH", "roof:levels": "0", "shop": "supermarket", "wheelchair": "yes"}}, {"type": "way", "id": 117326389, "center": {"lat": 53.4784885, "lon": 9.887152}, "nodes": [1321371776, 5962412030, 10237939704, 5962412037, 5907246992, 1321371776], "tags": {"addr:city": "Hamburg", "addr:country": "DE", "addr:housenumber": "131", "addr:postcode": "21147", "addr:street": "Neuwiedenthaler Stra\u00dfe", "brand": "Star Mart", "brand:wikidata": "Q61994857", "building": "retail", "name": "Star Mart", "operator": "Star", "roof:shape": "flat", "shop": "convenience"}}, {"type": "way", "id": 176857625, "center": {"lat": 53.4800905, "lon": 9.8750615}, "nodes": [1873431666, 1873431676, 1873431674, 1873431678, 8561076040, 1873431661, 1873431665, 1873431668, 1873431658, 8561076028, 8561076039, 1873431660, 1873431666], "tags": {"addr:city": "Hamburg", "addr:country": "DE", "addr:housenumber": "54", "addr:postcode": "21147", "addr:street": "Rehrstieg", "brand": "Netto Marken-Discount", "brand:wikidata": "Q879858", "brand:wikipedia": "en:Netto Marken-Discount", "building": "supermarket", "name": "Netto Marken-Discount", "shop": "supermarket", "website": "https://www.netto-online.de/filialen/Hamburg/Rehrstieg-54/2118/"}}, {"type": "way", "id": 184611787, "center": {"lat": 53.4715162, "lon": 9.8712021}, "nodes": [1951090641, 1951090672, 6354566533, 8436890424, 6354566534, 6354566535, 8436890425, 1951090691, 1951090641], "tags": {"addr:city": "Hamburg", "addr:housenumber": "261", "addr:postcode": "21149", "addr:street": "Cuxhavener Stra\u00dfe", "amenity": "fast_food", "brand": "Subway", "brand:wikidata": "Q244457", "brand:wikipedia": "en:Subway (restaurant)", "building": "retail", "building:levels": "1", "cuisine": "sandwich", "name": "Subway", "opening_hours": "Su-Th 10:00-23:00,Fr-Sa 10:00-24:00", "takeaway": "yes", "website": "https://restaurants.subway.com/de/deutschland/hh/hamburg/cuxhavener-str-261"}}, {"type": "way", "id": 631370679, "center": {"lat": 53.4784248, "lon": 9.8870493}, "nodes": [5962412021, 5962412020, 5962412019, 5962412018, 5962412017, 5962412016, 5962412015, 5962412014, 5962412021], "tags": {"addr:city": "Hamburg", "addr:housenumber": "131", "addr:postcode": "21147", "addr:street": "Neuwiedenthaler Stra\u00dfe", "amenity": "fuel", "brand": "star", "brand:wikidata": "Q109930371", "brand:wikipedia": "de:Orlen Deutschland", "check_date": "2025-04-04", "check_date:compressed_air": "2025-04-04", "compressed_air": "yes", "fuel:diesel": "yes", "fuel:e10": "yes", "fuel:octane_95": "yes", "fuel:octane_98": "yes", "landuse": "retail", "name": "star", "opening_hours": "Mo-Fr 06:00-22:00; Sa 07:00-22:00; Su 08:00-22:00", "operator": "Emir \u00d6zcan", "payment:cash": "yes", "payment:cryptocurrencies": "no", "payment:electronic_purses": "no", "payment:girocard": "yes", "payment:maestro": "yes", "payment:mastercard": "yes", "payment:visa": "yes", "phone": "+49 40 7963423", "wheelchair": "limited"}}, {"type": "way", "id": 909665470, "center": {"lat": 53.4733783, "lon": 9.8772452}, "nodes": [11398641531, 11398641530, 8446123794, 8446123793, 11398641526, 11398637823, 11398637834, 11398637831, 11398637833, 11398637826, 11398637832, 11398641531], "tags": {"brand": "ALDI Nord", "brand:wikidata": "Q41171373", "brand:wikipedia": "en:Aldi", "building:part": "retail", "check_date:opening_hours": "2023-08-15", "name": "ALDI Nord", "opening_hours": "Mo-Sa 07:00-21:00", "operator": "ALDI", "shop": "supermarket", "website": "https://www.aldi-nord.de/tools/filialen-und-oeffnungszeiten/hamburg/neuwiedenthal/striepenweg-37.html", "wheelchair": "yes"}}, {"type": "way", "id": 1148490317, "center": {"lat": 53.4781419, "lon": 9.8844087}, "nodes": [10685652910, 10685652909, 10685652908, 10685652907, 10685652906, 10685652905, 10685609804, 5934017162, 5934017163, 10685609803, 10685652910], "tags": {"amenity": "fuel", "brand": "Elan", "brand:wikidata": "Q57980752", "compressed_air": "yes", "name": "Elan", "opening_hours": "05:00-23:00", "wheelchair": "yes"}}]