[{"type": "way", "id": 118148870, "center": {"lat": 53.4711475, "lon": 9.9282768}, "nodes": [1329461233, 5910422442, 5910422443, 5910422444, 5910422445, 5910422446, 5910422447, 5910422448, 5910422449, 1329461228, 1329461233], "tags": {"addr:city": "Hamburg", "addr:country": "DE", "addr:housenumber": "256", "addr:street": "Stader Stra\u00dfe", "amenity": "fast_food", "brand": "McDonald's", "brand:wikidata": "Q38076", "brand:wikipedia": "en:McDonald's", "building": "retail", "building:levels": "2", "cuisine": "burger", "delivery": "no", "indoor_seating": "yes", "internet_access": "yes", "internet_access:fee": "no", "name": "McDonald's", "opening_hours": "Su-Th 07:00-01:00, Fr,Sa 07:00-02:00", "outdoor_seating": "yes", "payment:cash": "yes", "payment:cryptocurrencies": "no", "payment:electronic_purses": "no", "payment:girocard": "yes", "payment:maestro": "yes", "payment:mastercard": "yes", "payment:visa": "yes", "roof:levels": "0", "roof:shape": "flat", "smoking": "outside", "takeaway": "yes", "wheelchair": "yes"}}]