[{"type": "node", "id": 9155601436, "lat": 53.6222496, "lon": 9.9511147, "tags": {"addr:city": "Hamburg", "addr:housenumber": "5", "addr:postcode": "22459", "addr:street": "Paul-Sorge-Stra\u00dfe", "amenity": "fast_food", "check_date:opening_hours": "2023-03-27", "cuisine": "sandwich", "drive_through": "no", "name": "Croque Lounge - Hamburg", "opening_hours": "Tu-Sa 11:30-22:00; PH,Su 12:00-22:00", "payment:cash": "yes", "payment:girocard": "yes", "payment:klarna": "yes", "payment:paypal": "yes", "phone": "+49 40 58951440", "takeaway": "yes", "website": "https://www.croquelounge-hamburg.de"}}, {"type": "node", "id": 10771718831, "lat": 53.6225625, "lon": 9.9519008, "tags": {"amenity": "fast_food", "cuisine": "kebab", "indoor_seating": "yes", "level": "0", "name": "Kaya Feinkost", "opening_hours": "Mo-Sa 10:00-19:00", "outdoor_seating": "no", "website": "https://tibargcenter.de/shops/kaya-feinkost/"}}, {"type": "way", "id": 1158265350, "center": {"lat": 53.6223606, "lon": 9.9524001}, "nodes": [10771718828, 10771718931, 10771719059, 10771718962, 10771718870, 10771718828], "tags": {"addr:city": "Hamburg", "addr:country": "DE", "addr:housenumber": "8", "addr:postcode": "22459", "addr:street": "Paul-Sorge-Stra\u00dfe", "addr:suburb": "Niendorf", "amenity": "fast_food", "brand": "McDonald's", "brand:wikidata": "Q38076", "brand:wikipedia": "en:McDonald's", "cuisine": "burger", "diet:vegetarian": "yes", "indoor": "room", "indoor_seating": "yes", "internet_access": "wlan", "level": "0", "name": "McDonald's", "opening_hours": "Mo-Fr 10:00-20:00; Sa 10:00-18:00; PH off", "operator": "Caroline Kaiser Systemgastronomie e.K.", "outdoor_seating": "no", "phone": "+49 40 58951943", "source": "website", "takeaway": "yes", "website": "https://www.mcdonalds.com/de/de-de/restaurant-suche.html/l/hamburg/paul-sorge-strasse-8/1251", "wheelchair": "yes"}}, {"type": "way", "id": 1158265353, "center": {"lat": 53.6229055, "lon": 9.9519244}, "nodes": [10771718823, 10884425200, 10884425201, 10771719081, 10771717800, 10771719036, 10771718879, 10771718996, 10771718820, 10771718836, 10771718845, 10771718927, 10771719098, 10771718968, 10771718959, 10771718972, 10771718823], "tags": {"indoor": "room", "level": "0", "name": "Denns Bio", "opening_hours": "Mo-Sa 08:00-20:00", "organic": "only", "room": "shop", "shop": "supermarket"}}, {"type": "way", "id": 1158265354, "center": {"lat": 53.6225461, "lon": 9.9517188}, "nodes": [10771719066, 10771719099, 10771718891, 10771718923, 10771718974, 10771718819, 10771718846, 10771719066], "tags": {"addr:city": "Hamburg", "addr:housenumber": "41-43", "addr:postcode": "22459", "addr:street": "Tibarg", "amenity": "fast_food", "branch": "Tibarg Center", "check_date:opening_hours": "2023-04-04", "cuisine": "asian", "indoor": "room", "indoor_seating": "yes", "level": "0", "name": "mai-mai", "opening_hours:signed": "no", "operator": "mai-mai GmbH", "outdoor_seating": "no"}}, {"type": "way", "id": 1158265379, "center": {"lat": 53.6227059, "lon": 9.9528075}, "nodes": [10771719107, 10771718984, 10771718888, 10771719051, 10771718917, 10771719074, 10771719104, 10771719017, 10771719041, 10771718818, 10771718840, 10771719035, 10771718838, 10771718995, 10771719107], "tags": {"addr:city": "Hamburg", "addr:country": "DE", "addr:housename": "TiBARG Center", "addr:housenumber": "32", "addr:postcode": "22459", "addr:street": "Tibarg", "branch": "Tibarg Center", "brand": "REWE", "brand:wikidata": "Q16968817", "brand:wikipedia": "en:REWE", "check_date": "2022-11-25", "indoor": "room", "level": "-1", "name": "REWE", "opening_hours": "Mo-Sa 07:00-23:00; PH off", "operator": "REWE Markt GmbH", "organic": "yes", "phone": "+49 40 58910311", "shop": "supermarket", "website": "https://www.rewe.de/marktseite/hamburg/540557/rewe-markt-tibarg-32/", "wheelchair": "yes"}}, {"type": "way", "id": 1158265405, "center": {"lat": 53.6223915, "lon": 9.9524877}, "nodes": [10771719043, 10771719008, 10771718904, 10771718939, 10771719097, 10771718818, 10771718840, 10771719035, 10771718838, 10771719050, 10771718857, 10771718889, 10771719043], "tags": {"addr:city": "Hamburg", "addr:country": "DE", "addr:housenumber": "41-43", "addr:postcode": "22459", "addr:street": "Tibarg", "addr:suburb": "Niendorf", "brand": "ALDI Nord", "brand:wikidata": "Q41171373", "brand:wikipedia": "en:Aldi", "contact:website": "https://www.aldi-nord.de/tools/filialen-und-oeffnungszeiten/hamburg/niendorf/tibarg-41-43.html", "indoor": "room", "level": "-1", "name": "ALDI Nord", "opening_hours": "Mo-Sa 08:00-21:00; PH off", "operator": "Aldi Einkauf GmbH & Co. OHG", "shop": "supermarket", "source": "website", "wheelchair": "yes"}}]