[{"type": "way", "id": 278549228, "center": {"lat": 53.5173154, "lon": 9.8902735}, "nodes": [2829056429, 2829056431, 4097144180, 4097144176, 4097144174, 4097144173, 2829056428, 4097144177, 2829056430, 2829056429], "tags": {"amenity": "fuel", "brand": "Total", "brand:wikidata": "Q154037", "compressed_air": "yes", "fuel:GTL_diesel": "yes", "fuel:HGV_diesel": "yes", "fuel:adblue": "yes", "fuel:diesel": "yes", "fuel:e10": "yes", "fuel:lpg": "yes", "fuel:octane_95": "yes", "fuel:octane_98": "yes", "opening_hours": "24/7", "payment:american_express": "yes", "payment:cash": "yes", "payment:cryptocurrencies": "no", "payment:diners_club": "yes", "payment:dkv": "yes", "payment:electronic_purses": "no", "payment:girocard": "yes", "payment:maestro": "yes", "payment:mastercard": "yes", "payment:uta": "yes", "payment:visa": "yes", "phone": "+49 40 30239835", "wheelchair": "yes"}}, {"type": "way", "id": 665857401, "center": {"lat": 53.5172271, "lon": 9.8905919}, "nodes": [6233033096, 6233033095, 6233033094, 6233033093, 6233033092, 6233033091, 6233033088, 6233033090, 6233033089, 6233033096], "tags": {"addr:city": "Hamburg", "addr:country": "DE", "addr:housenumber": "5", "addr:postcode": "21129", "addr:street": "Aluminiumstra\u00dfe", "brand": "Total", "brand:wikidata": "Q154037", "building": "retail", "building:levels": "1", "name": "Total Tankstelle", "opening_hours": "Mo-Su,PH 00:00-00:00", "roof:levels": "0", "roof:shape": "flat", "shop": "convenience", "wheelchair": "yes"}}]