[{"type": "node", "id": 5069572482, "lat": 53.5690027, "lon": 10.1228912, "tags": {"opening_hours": "24/7", "payment:dkv": "yes", "payment:uta": "yes", "phone": "+49 40 6536800", "shop": "convenience", "website": "https://www.essofuelfinder.de/425772-d-staginnus-hamburg", "wheelchair": "limited"}}, {"type": "node", "id": 5069572483, "lat": 53.5690814, "lon": 10.1230864, "tags": {"addr:city": "Hamburg", "addr:country": "DE", "addr:housenumber": "299", "addr:postcode": "22043", "addr:street": "Schiffbeker Weg", "amenity": "fuel", "brand": "Esso", "brand:wikidata": "Q867662", "brand:wikipedia": "en:Esso", "check_date": "2024-06-26", "compressed_air": "yes", "contact:phone": "+49 40 6536800", "contact:website": "https://www.esso.de/de-de/find-station/esso-hamburg-essostationhamburgschiffbekerweg-100150413", "fuel:diesel": "yes", "fuel:e10": "yes", "fuel:lpg": "yes", "fuel:octane_95": "yes", "fuel:octane_98": "yes", "name": "Esso", "opening_hours": "24/7", "payment:dkv": "yes", "payment:uta": "yes"}}]