[{"type": "node", "id": 1532564266, "lat": 53.6018967, "lon": 10.0623621, "tags": {"amenity": "fast_food", "check_date:opening_hours": "2025-03-22", "cuisine": "kebab", "indoor_seating": "yes", "name": "Sultans Kitchen", "opening_hours:signed": "no", "outdoor_seating": "yes", "wheelchair": "yes"}}, {"type": "node", "id": 1532564279, "lat": 53.6019365, "lon": 10.0623876, "tags": {"amenity": "fast_food", "contact:phone": "+49 40 56125880", "indoor_seating": "yes", "name": "www.croxycroque.de", "opening_hours": "Mo-Su 11:30-22:00", "outdoor_seating": "yes", "website": "https://www.croxycroque.de", "wheelchair": "yes"}}, {"type": "node", "id": 2281946907, "lat": 53.6032214, "lon": 10.0635272, "tags": {"addr:city": "Hamburg", "addr:country": "DE", "addr:housenumber": "111", "addr:postcode": "22177", "addr:street": "Fabriciusstra\u00dfe", "amenity": "fast_food", "check_date:opening_hours": "2022-03-14", "contact:phone": "+49 40 88144388", "contact:website": "https://www.nonnospizza.de/", "cuisine": "pizza", "delivery": "yes", "name": "Nonno's Pizza-Manufaktur", "opening_hours": "Tu-Su 17:00-20:45", "operator": "Ara Gharibyan", "takeaway": "yes"}}, {"type": "node", "id": 10568116632, "lat": 53.6020995, "lon": 10.0624668, "tags": {"addr:city": "Hamburg", "addr:postcode": "22177", "addr:street": "Fabriciusstra\u00dfe", "check_date:opening_hours": "2025-03-22", "name": "Hansemarkt", "opening_hours:signed": "no", "shop": "supermarket", "wheelchair": "yes"}}, {"type": "way", "id": 48337477, "center": {"lat": 53.6024739, "lon": 10.0625041}, "nodes": [614044876, 8010665994, 6550940227, 614044873, 614044874, 614044875, 614044876], "tags": {"addr:city": "Hamburg", "addr:country": "DE", "addr:housenumber": "99", "addr:postcode": "22177", "addr:street": "Fabriciusstra\u00dfe", "brand": "EDEKA", "brand:wikidata": "Q701755", "building": "retail", "building:levels": "1", "check_date:opening_hours": "2022-03-14", "email": "seipel.nord@edeka.de", "name": "EDEKA aktiv markt", "opening_hours": "Mo-Sa 07:00-20:00; PH off", "phone": "+49 40 613081", "roof:levels": "0", "roof:shape": "flat", "shop": "supermarket", "website": "https://www.edeka.de/eh/nord/e-aktiv-markt-seipel-fabriciusstr.-99/index.jsp", "wheelchair": "yes"}}]