[{"type": "node", "id": 91910914, "lat": 53.5484307, "lon": 10.1085288, "tags": {"addr:city": "Hamburg", "addr:country": "DE", "addr:housenumber": "90", "addr:postcode": "22119", "addr:street": "Schiffbeker Weg", "amenity": "fuel", "brand": "Shell", "brand:wikidata": "Q110716465", "compressed_air": "yes", "contact:phone": "+49 40 7330306", "fuel:GTL_diesel": "yes", "fuel:diesel": "yes", "fuel:e10": "yes", "fuel:octane_100": "yes", "fuel:octane_95": "yes", "name": "Shell", "opening_hours": "24/7", "operator": "Shell", "tenant": "Erol Geyik GmbH"}}, {"type": "node", "id": 2060681668, "lat": 53.5487289, "lon": 10.1086048, "tags": {"addr:city": "Hamburg", "addr:country": "DE", "addr:housenumber": "94", "addr:postcode": "22119", "addr:street": "Schiffbeker Weg", "amenity": "fast_food", "brand": "Hallo Pizza", "brand:wikidata": "Q1571798", "brand:wikipedia": "de:Hallo Pizza", "contact:phone": "+49 40 81995800", "cuisine": "pizza", "diet:vegan": "yes", "name": "Hallo Pizza", "takeaway": "yes"}}]