[{"type": "node", "id": 253398184, "lat": 53.5397985, "lon": 10.1042648, "tags": {"addr:city": "Hamburg", "addr:country": "DE", "addr:housename": "Billstedt Center", "addr:housenumber": "7a", "addr:postcode": "22111", "addr:street": "M\u00f6llner Landstra\u00dfe", "amenity": "fast_food", "brand": "McDonald's", "brand:wikidata": "Q38076", "brand:wikipedia": "en:McDonald's", "check_date": "2025-05-17", "contact:website": "http://www.mcdonalds.de/restaurant/hamburg-moellner-landstr-7a", "cuisine": "burger", "drive_through": "no", "level": "0", "name": "McDonald's", "opening_hours": "Mo-Sa 09:30-21:00; PH off", "operator": "Michael Kaup, MK Systemgastronomie Billstedt-Center GmbH & Co. KG", "phone": "+49 40 7325722", "takeaway": "yes", "wheelchair": "yes"}}, {"type": "node", "id": 5052031932, "lat": 53.5401667, "lon": 10.1041386, "tags": {"addr:city": "Hamburg", "addr:country": "DE", "addr:housename": "Billstedt Center", "addr:housenumber": "5", "addr:postcode": "22111", "addr:street": "Billstedter Hauptstra\u00dfe", "amenity": "fast_food", "cuisine": "turkish", "level": "0", "name": "bonjour Kumpir", "opening_hours": "Mo-Sa 09:30-20:00; PH off"}}, {"type": "node", "id": 8560473188, "lat": 53.5401152, "lon": 10.1025443, "tags": {"addr:city": "Hamburg", "addr:housenumber": "51", "addr:postcode": "22111", "addr:street": "Billstedter Hauptstra\u00dfe", "amenity": "fast_food", "cuisine": "burger;chicken;salad", "drive_through": "no", "name": "Sel Chicken", "opening_hours": "Mo-Su, PH 11:00-23:00", "phone": "+49 40 73432710"}}, {"type": "node", "id": 8566216788, "lat": 53.5400853, "lon": 10.1026175, "tags": {"addr:city": "Hamburg", "addr:housenumber": "51", "addr:postcode": "22111", "addr:street": "Billstedter Hauptstra\u00dfe", "amenity": "fast_food", "cuisine": "salad;kebab;pizza;sandwich", "drive_through": "no", "name": "Sel Kebap's", "opening_hours": "Mo-Su, PH 11:00-23:00", "phone": "+49 40 73432710"}}, {"type": "node", "id": 9093942444, "lat": 53.5396823, "lon": 10.1046359, "tags": {"check_date:opening_hours": "2023-02-15", "name": "Sultan Darbar Shop", "opening_hours:signed": "no", "shop": "convenience"}}, {"type": "node", "id": 9330691049, "lat": 53.5398901, "lon": 10.1038081, "tags": {"addr:city": "Hamburg", "addr:country": "DE", "addr:housename": "Billstedt Center", "addr:housenumber": "3", "addr:postcode": "22111", "addr:street": "M\u00f6llner Landstra\u00dfe", "amenity": "fast_food", "brand": "Subway", "brand:wikidata": "Q244457", "brand:wikipedia": "en:Subway (restaurant)", "check_date": "2021-12-11", "contact:phone": "+49 40 33450565", "cuisine": "sandwich", "level": "1", "name": "Subway", "opening_hours": "Mo-Sa 09:30-20:00; PH off", "takeaway": "yes"}}, {"type": "way", "id": 306263335, "center": {"lat": 53.5403252, "lon": 10.1021356}, "nodes": [696034029, 696034030, 696034031, 3222359135, 696034032, 3111219256, 3111219255, 696034029], "tags": {"addr:city": "Hamburg", "addr:country": "DE", "addr:housenumber": "49", "addr:postcode": "22111", "addr:street": "Billstedter Hauptstra\u00dfe", "addr:suburb": "Billstedt", "building": "yes", "contact:phone": "+49 40 73127838", "name": "\u00d6nc\u00fc Supermarkt", "opening_hours": "Mo-Sa 07:00-20:00", "shop": "supermarket", "website": "http://oncu-supermarkt.com/"}}]