[{"type": "way", "id": 35800436, "center": {"lat": 53.6082496, "lon": 10.1901083}, "nodes": [11372995618, 11372995619, 11372995620, 11372995621, 11372995613, 418590078, 418590071, 418590073, 11372995609, 418590075, 11372995610, 11372995614, 11372995615, 11372995616, 11372995617, 11372995618], "tags": {"addr:city": "Hamburg", "addr:country": "DE", "addr:housenumber": "126", "addr:postcode": "22143", "addr:street": "Sieker Landstra\u00dfe", "amenity": "fast_food", "brand": "McDonald's", "brand:wikidata": "Q38076", "brand:wikipedia": "en:McDonald's", "building": "retail", "building:levels": "3", "changing_table": "yes", "changing_table:location": "female_toilet", "cuisine": "american;burger", "delivery": "yes", "diet:vegetarian": "yes", "drive_through": "yes", "internet_access": "wlan", "internet_access:fee": "no", "name": "McDonald's", "opening_hours": "Mo-Fr 00:00-01:00,08:00-24:00; Sa 00:00-02:00,08:00-24:00; Su 00:00-02:00,09:00-24:00", "operator": "Michael Kaup Systemgastronomie GmbH", "outdoor_seating": "yes", "payment:cash": "yes", "payment:cryptocurrencies": "no", "payment:electronic_purses": "no", "payment:girocard": "yes", "payment:maestro": "yes", "payment:mastercard": "yes", "payment:visa": "yes", "phone": "+49 40 6779502", "roof:levels": "0", "smoking": "no", "takeaway": "yes", "toilets:wheelchair": "no", "website": "https://www.mcdonalds.com/de/de-de/restaurant-suche.html/l/hamburg/sieker-landstrasse-126/691", "wheelchair": "yes"}}]