[{"type": "node", "id": 365102752, "lat": 53.6254207, "lon": 10.1407148, "tags": {"addr:city": "Hamburg", "addr:country": "DE", "addr:housenumber": "10", "addr:postcode": "22147", "addr:street": "Alte Berner Stra\u00dfe", "brand": "Penny", "brand:wikidata": "Q284688", "brand:wikipedia": "en:Penny (supermarket)", "check_date": "2024-12-20", "name": "Penny", "opening_hours": "Mo-Sa 07:00-22:00", "shop": "supermarket", "wheelchair": "yes"}}, {"type": "node", "id": 6456459951, "lat": 53.6248184, "lon": 10.1405554, "tags": {"check_date": "2024-12-20", "name": "Naturkost Teichmann", "organic": "only", "shop": "supermarket"}}, {"type": "node", "id": 9649640211, "lat": 53.6257841, "lon": 10.140394, "tags": {"addr:city": "Hamburg", "addr:housenumber": "4", "addr:postcode": "22147", "addr:street": "Alte Berner Stra\u00dfe", "amenity": "fast_food", "check_date": "2025-06-09", "check_date:diet:vegan": "2025-06-09", "check_date:diet:vegetarian": "2025-06-09", "check_date:opening_hours": "2025-06-09", "cuisine": "kebab", "diet:vegan": "no", "diet:vegetarian": "yes", "drive_through": "no", "mapillary": "2015044722028807", "name": "D\u00f6-Back K\u00f6z Haus", "opening_hours:signed": "no", "outdoor_seating": "yes"}}]