[{"type": "way", "id": 446970657, "center": {"lat": 53.5876949, "lon": 9.8506129}, "nodes": [4441796545, 4440848169, 4440848170, 4441796546, 4441796547, 4441796545], "tags": {"addr:city": "Hamburg", "addr:country": "DE", "addr:housenumber": "55a", "addr:postcode": "22549", "addr:street": "Bornheide", "indoor": "room", "level": "0", "name": "Frisch&Lecker", "opening_hours": "Mo-Fr 07:30-19:00, Sa 07:00-16:00", "operator": "Erol Hayran Lebensmittel, Gem\u00fcse, Fleisch und Born Kasab", "phone": "+49 40 8317422", "shop": "supermarket", "source": "Bing", "wheelchair": "yes"}}, {"type": "way", "id": 446970667, "center": {"lat": 53.5873991, "lon": 9.8512626}, "nodes": [4441796566, 4441796568, 4441796569, 4441796567, 4441796566], "tags": {"addr:city": "Hamburg", "addr:country": "DE", "addr:housenumber": "47", "addr:postcode": "22549", "addr:street": "Bornheide", "amenity": "fast_food", "cuisine": "turkish", "indoor": "room", "name": "Imbiss D\u00fcrum", "opening_hours": "Mo-Sa 07:30-23:00, Su 10:30-23:00", "phone": "+49 40 84054640", "source": "Bing", "wheelchair": "yes"}}]